<?xml version="1.0" encoding="UTF-8"?>
<gpx version="1.1" creator="sparki-nav-replay-fixtures" xmlns="http://www.topografix.com/GPX/1/1">
  <trk>
    <name>Op-route rit met ruis</name>
    <trkseg>
      <trkpt lat="51.9999949" lon="5.0000421"><time>2026-07-25T09:00:00.000Z</time><extensions><accuracy>11.6</accuracy><speed>7.00</speed></extensions></trkpt>
      <trkpt lat="51.9999915" lon="5.0000761"><time>2026-07-25T09:00:01.000Z</time><extensions><accuracy>4.3</accuracy><speed>7.00</speed></extensions></trkpt>
      <trkpt lat="52.0000188" lon="5.0002078"><time>2026-07-25T09:00:02.000Z</time><extensions><accuracy>4.2</accuracy><speed>7.00</speed></extensions></trkpt>
      <trkpt lat="51.9999685" lon="5.0003042"><time>2026-07-25T09:00:03.000Z</time><extensions><accuracy>8.2</accuracy><speed>7.00</speed></extensions></trkpt>
      <trkpt lat="51.9999902" lon="5.0003362"><time>2026-07-25T09:00:04.000Z</time><extensions><accuracy>7.8</accuracy><speed>7.00</speed></extensions></trkpt>
      <trkpt lat="52.0000581" lon="5.0005045"><time>2026-07-25T09:00:05.000Z</time><extensions><accuracy>11.2</accuracy><speed>7.00</speed></extensions></trkpt>
      <trkpt lat="51.9999908" lon="5.0005871"><time>2026-07-25T09:00:06.000Z</time><extensions><accuracy>7.6</accuracy><speed>7.00</speed></extensions></trkpt>
      <trkpt lat="52.0001041" lon="5.0007554"><time>2026-07-25T09:00:07.000Z</time><extensions><accuracy>6.9</accuracy><speed>7.00</speed></extensions></trkpt>
      <trkpt lat="52.0000102" lon="5.0007834"><time>2026-07-25T09:00:08.000Z</time><extensions><accuracy>5.7</accuracy><speed>7.00</speed></extensions></trkpt>
      <trkpt lat="52.0000223" lon="5.0008789"><time>2026-07-25T09:00:09.000Z</time><extensions><accuracy>5.4</accuracy><speed>7.00</speed></extensions></trkpt>
      <trkpt lat="52.0000157" lon="5.0010609"><time>2026-07-25T09:00:10.000Z</time><extensions><accuracy>7.9</accuracy><speed>7.00</speed></extensions></trkpt>
      <trkpt lat="52.0000746" lon="5.0011211"><time>2026-07-25T09:00:11.000Z</time><extensions><accuracy>4.6</accuracy><speed>7.00</speed></extensions></trkpt>
      <trkpt lat="52.0000396" lon="5.0012319"><time>2026-07-25T09:00:12.000Z</time><extensions><accuracy>6.6</accuracy><speed>7.00</speed></extensions></trkpt>
      <trkpt lat="52.0001059" lon="5.0013618"><time>2026-07-25T09:00:13.000Z</time><extensions><accuracy>11.0</accuracy><speed>7.00</speed></extensions></trkpt>
      <trkpt lat="52.0000215" lon="5.0012852"><time>2026-07-25T09:00:14.000Z</time><extensions><accuracy>11.0</accuracy><speed>7.00</speed></extensions></trkpt>
      <trkpt lat="52.0000502" lon="5.0016292"><time>2026-07-25T09:00:15.000Z</time><extensions><accuracy>10.7</accuracy><speed>7.00</speed></extensions></trkpt>
      <trkpt lat="52.0000258" lon="5.0017420"><time>2026-07-25T09:00:16.000Z</time><extensions><accuracy>6.5</accuracy><speed>7.00</speed></extensions></trkpt>
      <trkpt lat="52.0000633" lon="5.0017856"><time>2026-07-25T09:00:17.000Z</time><extensions><accuracy>4.9</accuracy><speed>7.00</speed></extensions></trkpt>
      <trkpt lat="51.9999527" lon="5.0018543"><time>2026-07-25T09:00:18.000Z</time><extensions><accuracy>6.1</accuracy><speed>7.00</speed></extensions></trkpt>
      <trkpt lat="52.0000702" lon="5.0020556"><time>2026-07-25T09:00:19.000Z</time><extensions><accuracy>11.8</accuracy><speed>7.00</speed></extensions></trkpt>
      <trkpt lat="52.0000146" lon="5.0020670"><time>2026-07-25T09:00:20.000Z</time><extensions><accuracy>8.4</accuracy><speed>7.00</speed></extensions></trkpt>
      <trkpt lat="52.0000443" lon="5.0022324"><time>2026-07-25T09:00:21.000Z</time><extensions><accuracy>10.8</accuracy><speed>7.00</speed></extensions></trkpt>
      <trkpt lat="52.0000175" lon="5.0022528"><time>2026-07-25T09:00:22.000Z</time><extensions><accuracy>9.5</accuracy><speed>7.00</speed></extensions></trkpt>
      <trkpt lat="52.0000316" lon="5.0025311"><time>2026-07-25T09:00:23.000Z</time><extensions><accuracy>10.9</accuracy><speed>7.00</speed></extensions></trkpt>
      <trkpt lat="52.0000142" lon="5.0025375"><time>2026-07-25T09:00:24.000Z</time><extensions><accuracy>9.8</accuracy><speed>7.00</speed></extensions></trkpt>
      <trkpt lat="52.0000525" lon="5.0026123"><time>2026-07-25T09:00:25.000Z</time><extensions><accuracy>7.7</accuracy><speed>7.00</speed></extensions></trkpt>
      <trkpt lat="52.0000239" lon="5.0027180"><time>2026-07-25T09:00:26.000Z</time><extensions><accuracy>8.2</accuracy><speed>7.00</speed></extensions></trkpt>
      <trkpt lat="52.0000760" lon="5.0028053"><time>2026-07-25T09:00:27.000Z</time><extensions><accuracy>5.0</accuracy><speed>7.00</speed></extensions></trkpt>
      <trkpt lat="52.0000443" lon="5.0029332"><time>2026-07-25T09:00:28.000Z</time><extensions><accuracy>11.4</accuracy><speed>7.00</speed></extensions></trkpt>
      <trkpt lat="52.0000727" lon="5.0029362"><time>2026-07-25T09:00:29.000Z</time><extensions><accuracy>5.7</accuracy><speed>7.00</speed></extensions></trkpt>
      <trkpt lat="52.0000734" lon="5.0030744"><time>2026-07-25T09:00:30.000Z</time><extensions><accuracy>6.2</accuracy><speed>7.00</speed></extensions></trkpt>
      <trkpt lat="52.0000881" lon="5.0031374"><time>2026-07-25T09:00:31.000Z</time><extensions><accuracy>9.2</accuracy><speed>7.00</speed></extensions></trkpt>
      <trkpt lat="52.0000675" lon="5.0031561"><time>2026-07-25T09:00:32.000Z</time><extensions><accuracy>4.4</accuracy><speed>7.00</speed></extensions></trkpt>
      <trkpt lat="52.0000154" lon="5.0033454"><time>2026-07-25T09:00:33.000Z</time><extensions><accuracy>11.3</accuracy><speed>7.00</speed></extensions></trkpt>
      <trkpt lat="51.9999804" lon="5.0035019"><time>2026-07-25T09:00:34.000Z</time><extensions><accuracy>9.5</accuracy><speed>7.00</speed></extensions></trkpt>
      <trkpt lat="52.0000389" lon="5.0036230"><time>2026-07-25T09:00:35.000Z</time><extensions><accuracy>8.7</accuracy><speed>7.00</speed></extensions></trkpt>
      <trkpt lat="51.9999474" lon="5.0037277"><time>2026-07-25T09:00:36.000Z</time><extensions><accuracy>8.9</accuracy><speed>7.00</speed></extensions></trkpt>
      <trkpt lat="51.9999696" lon="5.0036970"><time>2026-07-25T09:00:37.000Z</time><extensions><accuracy>4.1</accuracy><speed>7.00</speed></extensions></trkpt>
      <trkpt lat="52.0000542" lon="5.0039389"><time>2026-07-25T09:00:38.000Z</time><extensions><accuracy>8.1</accuracy><speed>7.00</speed></extensions></trkpt>
      <trkpt lat="52.0000517" lon="5.0040378"><time>2026-07-25T09:00:39.000Z</time><extensions><accuracy>4.6</accuracy><speed>7.00</speed></extensions></trkpt>
      <trkpt lat="52.0000279" lon="5.0040383"><time>2026-07-25T09:00:40.000Z</time><extensions><accuracy>8.9</accuracy><speed>7.00</speed></extensions></trkpt>
      <trkpt lat="52.0000789" lon="5.0041953"><time>2026-07-25T09:00:41.000Z</time><extensions><accuracy>11.9</accuracy><speed>7.00</speed></extensions></trkpt>
      <trkpt lat="51.9999553" lon="5.0042884"><time>2026-07-25T09:00:42.000Z</time><extensions><accuracy>9.6</accuracy><speed>7.00</speed></extensions></trkpt>
      <trkpt lat="52.0000296" lon="5.0043815"><time>2026-07-25T09:00:43.000Z</time><extensions><accuracy>4.1</accuracy><speed>7.00</speed></extensions></trkpt>
      <trkpt lat="51.9999321" lon="5.0044771"><time>2026-07-25T09:00:44.000Z</time><extensions><accuracy>11.5</accuracy><speed>7.00</speed></extensions></trkpt>
      <trkpt lat="51.9999106" lon="5.0041907"><time>2026-07-25T09:00:45.000Z</time><extensions><accuracy>20.5</accuracy><speed>7.00</speed></extensions></trkpt>
      <trkpt lat="52.0000260" lon="5.0046377"><time>2026-07-25T09:00:46.000Z</time><extensions><accuracy>5.8</accuracy><speed>7.00</speed></extensions></trkpt>
      <trkpt lat="52.0000000" lon="5.0047478"><time>2026-07-25T09:00:47.000Z</time><extensions><accuracy>5.0</accuracy><speed>7.00</speed></extensions></trkpt>
      <trkpt lat="52.0000179" lon="5.0049265"><time>2026-07-25T09:00:48.000Z</time><extensions><accuracy>5.1</accuracy><speed>7.00</speed></extensions></trkpt>
      <trkpt lat="52.0000267" lon="5.0050268"><time>2026-07-25T09:00:49.000Z</time><extensions><accuracy>6.5</accuracy><speed>7.00</speed></extensions></trkpt>
      <trkpt lat="52.0000457" lon="5.0051771"><time>2026-07-25T09:00:50.000Z</time><extensions><accuracy>8.3</accuracy><speed>7.00</speed></extensions></trkpt>
      <trkpt lat="52.0000695" lon="5.0051906"><time>2026-07-25T09:00:51.000Z</time><extensions><accuracy>4.7</accuracy><speed>7.00</speed></extensions></trkpt>
      <trkpt lat="52.0000411" lon="5.0053530"><time>2026-07-25T09:00:52.000Z</time><extensions><accuracy>7.4</accuracy><speed>7.00</speed></extensions></trkpt>
      <trkpt lat="52.0000584" lon="5.0054451"><time>2026-07-25T09:00:53.000Z</time><extensions><accuracy>7.6</accuracy><speed>7.00</speed></extensions></trkpt>
      <trkpt lat="52.0000552" lon="5.0055391"><time>2026-07-25T09:00:54.000Z</time><extensions><accuracy>7.9</accuracy><speed>7.00</speed></extensions></trkpt>
      <trkpt lat="52.0000348" lon="5.0055736"><time>2026-07-25T09:00:55.000Z</time><extensions><accuracy>10.8</accuracy><speed>7.00</speed></extensions></trkpt>
      <trkpt lat="52.0000298" lon="5.0057422"><time>2026-07-25T09:00:56.000Z</time><extensions><accuracy>10.4</accuracy><speed>7.00</speed></extensions></trkpt>
      <trkpt lat="52.0000425" lon="5.0057956"><time>2026-07-25T09:00:57.000Z</time><extensions><accuracy>7.2</accuracy><speed>7.00</speed></extensions></trkpt>
      <trkpt lat="52.0000274" lon="5.0058723"><time>2026-07-25T09:00:58.000Z</time><extensions><accuracy>9.1</accuracy><speed>7.00</speed></extensions></trkpt>
      <trkpt lat="52.0000038" lon="5.0060070"><time>2026-07-25T09:00:59.000Z</time><extensions><accuracy>6.9</accuracy><speed>7.00</speed></extensions></trkpt>
      <trkpt lat="52.0000499" lon="5.0061776"><time>2026-07-25T09:01:00.000Z</time><extensions><accuracy>9.3</accuracy><speed>7.00</speed></extensions></trkpt>
      <trkpt lat="52.0000439" lon="5.0062030"><time>2026-07-25T09:01:01.000Z</time><extensions><accuracy>4.3</accuracy><speed>7.00</speed></extensions></trkpt>
      <trkpt lat="51.9999874" lon="5.0063319"><time>2026-07-25T09:01:02.000Z</time><extensions><accuracy>7.9</accuracy><speed>7.00</speed></extensions></trkpt>
      <trkpt lat="51.9999369" lon="5.0064619"><time>2026-07-25T09:01:03.000Z</time><extensions><accuracy>10.6</accuracy><speed>7.00</speed></extensions></trkpt>
      <trkpt lat="51.9999629" lon="5.0065726"><time>2026-07-25T09:01:04.000Z</time><extensions><accuracy>8.4</accuracy><speed>7.00</speed></extensions></trkpt>
      <trkpt lat="52.0000415" lon="5.0066589"><time>2026-07-25T09:01:05.000Z</time><extensions><accuracy>9.4</accuracy><speed>7.00</speed></extensions></trkpt>
      <trkpt lat="52.0000675" lon="5.0067093"><time>2026-07-25T09:01:06.000Z</time><extensions><accuracy>6.7</accuracy><speed>7.00</speed></extensions></trkpt>
      <trkpt lat="52.0001022" lon="5.0067997"><time>2026-07-25T09:01:07.000Z</time><extensions><accuracy>6.2</accuracy><speed>7.00</speed></extensions></trkpt>
      <trkpt lat="52.0000563" lon="5.0069130"><time>2026-07-25T09:01:08.000Z</time><extensions><accuracy>8.7</accuracy><speed>7.00</speed></extensions></trkpt>
      <trkpt lat="52.0000619" lon="5.0070985"><time>2026-07-25T09:01:09.000Z</time><extensions><accuracy>11.9</accuracy><speed>7.00</speed></extensions></trkpt>
      <trkpt lat="52.0000758" lon="5.0071983"><time>2026-07-25T09:01:10.000Z</time><extensions><accuracy>6.5</accuracy><speed>7.00</speed></extensions></trkpt>
      <trkpt lat="52.0000396" lon="5.0072403"><time>2026-07-25T09:01:11.000Z</time><extensions><accuracy>7.4</accuracy><speed>7.00</speed></extensions></trkpt>
      <trkpt lat="52.0000861" lon="5.0072722"><time>2026-07-25T09:01:12.000Z</time><extensions><accuracy>11.1</accuracy><speed>7.00</speed></extensions></trkpt>
      <trkpt lat="51.9999814" lon="5.0074358"><time>2026-07-25T09:01:13.000Z</time><extensions><accuracy>7.2</accuracy><speed>7.00</speed></extensions></trkpt>
      <trkpt lat="51.9999902" lon="5.0076078"><time>2026-07-25T09:01:14.000Z</time><extensions><accuracy>11.9</accuracy><speed>7.00</speed></extensions></trkpt>
      <trkpt lat="52.0000577" lon="5.0076879"><time>2026-07-25T09:01:15.000Z</time><extensions><accuracy>6.0</accuracy><speed>7.00</speed></extensions></trkpt>
      <trkpt lat="51.9999708" lon="5.0078445"><time>2026-07-25T09:01:16.000Z</time><extensions><accuracy>8.4</accuracy><speed>7.00</speed></extensions></trkpt>
      <trkpt lat="51.9999989" lon="5.0078541"><time>2026-07-25T09:01:17.000Z</time><extensions><accuracy>9.2</accuracy><speed>7.00</speed></extensions></trkpt>
      <trkpt lat="52.0000214" lon="5.0079712"><time>2026-07-25T09:01:18.000Z</time><extensions><accuracy>7.8</accuracy><speed>7.00</speed></extensions></trkpt>
      <trkpt lat="52.0000043" lon="5.0080807"><time>2026-07-25T09:01:19.000Z</time><extensions><accuracy>11.4</accuracy><speed>7.00</speed></extensions></trkpt>
      <trkpt lat="52.0000391" lon="5.0081256"><time>2026-07-25T09:01:20.000Z</time><extensions><accuracy>9.1</accuracy><speed>7.00</speed></extensions></trkpt>
      <trkpt lat="52.0000452" lon="5.0082218"><time>2026-07-25T09:01:21.000Z</time><extensions><accuracy>10.2</accuracy><speed>7.00</speed></extensions></trkpt>
      <trkpt lat="52.0000177" lon="5.0084163"><time>2026-07-25T09:01:22.000Z</time><extensions><accuracy>10.8</accuracy><speed>7.00</speed></extensions></trkpt>
      <trkpt lat="52.0000464" lon="5.0085810"><time>2026-07-25T09:01:23.000Z</time><extensions><accuracy>4.8</accuracy><speed>7.00</speed></extensions></trkpt>
      <trkpt lat="51.9999725" lon="5.0086293"><time>2026-07-25T09:01:24.000Z</time><extensions><accuracy>12.0</accuracy><speed>7.00</speed></extensions></trkpt>
      <trkpt lat="52.0000486" lon="5.0087232"><time>2026-07-25T09:01:25.000Z</time><extensions><accuracy>9.4</accuracy><speed>7.00</speed></extensions></trkpt>
      <trkpt lat="51.9999878" lon="5.0088109"><time>2026-07-25T09:01:26.000Z</time><extensions><accuracy>11.8</accuracy><speed>7.00</speed></extensions></trkpt>
      <trkpt lat="52.0000849" lon="5.0089251"><time>2026-07-25T09:01:27.000Z</time><extensions><accuracy>6.5</accuracy><speed>7.00</speed></extensions></trkpt>
      <trkpt lat="52.0000129" lon="5.0089981"><time>2026-07-25T09:01:28.000Z</time><extensions><accuracy>11.5</accuracy><speed>7.00</speed></extensions></trkpt>
      <trkpt lat="52.0000115" lon="5.0091126"><time>2026-07-25T09:01:29.000Z</time><extensions><accuracy>6.5</accuracy><speed>7.00</speed></extensions></trkpt>
      <trkpt lat="52.0000912" lon="5.0089902"><time>2026-07-25T09:01:30.000Z</time><extensions><accuracy>22.0</accuracy><speed>7.00</speed></extensions></trkpt>
      <trkpt lat="52.0000110" lon="5.0093877"><time>2026-07-25T09:01:31.000Z</time><extensions><accuracy>10.2</accuracy><speed>7.00</speed></extensions></trkpt>
      <trkpt lat="52.0000481" lon="5.0094894"><time>2026-07-25T09:01:32.000Z</time><extensions><accuracy>6.2</accuracy><speed>7.00</speed></extensions></trkpt>
      <trkpt lat="52.0000226" lon="5.0094214"><time>2026-07-25T09:01:33.000Z</time><extensions><accuracy>10.9</accuracy><speed>7.00</speed></extensions></trkpt>
      <trkpt lat="52.0000449" lon="5.0096126"><time>2026-07-25T09:01:34.000Z</time><extensions><accuracy>4.0</accuracy><speed>7.00</speed></extensions></trkpt>
      <trkpt lat="52.0000271" lon="5.0096452"><time>2026-07-25T09:01:35.000Z</time><extensions><accuracy>4.9</accuracy><speed>7.00</speed></extensions></trkpt>
      <trkpt lat="51.9999891" lon="5.0098025"><time>2026-07-25T09:01:36.000Z</time><extensions><accuracy>10.5</accuracy><speed>7.00</speed></extensions></trkpt>
      <trkpt lat="52.0000114" lon="5.0098960"><time>2026-07-25T09:01:37.000Z</time><extensions><accuracy>9.1</accuracy><speed>7.00</speed></extensions></trkpt>
      <trkpt lat="52.0000818" lon="5.0100842"><time>2026-07-25T09:01:38.000Z</time><extensions><accuracy>8.4</accuracy><speed>7.00</speed></extensions></trkpt>
      <trkpt lat="52.0000278" lon="5.0101612"><time>2026-07-25T09:01:39.000Z</time><extensions><accuracy>6.2</accuracy><speed>7.00</speed></extensions></trkpt>
      <trkpt lat="52.0000709" lon="5.0101632"><time>2026-07-25T09:01:40.000Z</time><extensions><accuracy>6.2</accuracy><speed>7.00</speed></extensions></trkpt>
      <trkpt lat="51.9999720" lon="5.0103219"><time>2026-07-25T09:01:41.000Z</time><extensions><accuracy>4.8</accuracy><speed>7.00</speed></extensions></trkpt>
      <trkpt lat="52.0000347" lon="5.0104910"><time>2026-07-25T09:01:42.000Z</time><extensions><accuracy>8.0</accuracy><speed>7.00</speed></extensions></trkpt>
      <trkpt lat="52.0000574" lon="5.0104232"><time>2026-07-25T09:01:43.000Z</time><extensions><accuracy>6.4</accuracy><speed>7.00</speed></extensions></trkpt>
      <trkpt lat="52.0000203" lon="5.0105912"><time>2026-07-25T09:01:44.000Z</time><extensions><accuracy>8.7</accuracy><speed>7.00</speed></extensions></trkpt>
      <trkpt lat="51.9999800" lon="5.0106582"><time>2026-07-25T09:01:45.000Z</time><extensions><accuracy>7.2</accuracy><speed>7.00</speed></extensions></trkpt>
      <trkpt lat="52.0000512" lon="5.0107950"><time>2026-07-25T09:01:46.000Z</time><extensions><accuracy>11.5</accuracy><speed>7.00</speed></extensions></trkpt>
      <trkpt lat="52.0000312" lon="5.0110024"><time>2026-07-25T09:01:47.000Z</time><extensions><accuracy>8.8</accuracy><speed>7.00</speed></extensions></trkpt>
      <trkpt lat="52.0000735" lon="5.0109758"><time>2026-07-25T09:01:48.000Z</time><extensions><accuracy>7.0</accuracy><speed>7.00</speed></extensions></trkpt>
      <trkpt lat="52.0000428" lon="5.0111272"><time>2026-07-25T09:01:49.000Z</time><extensions><accuracy>11.4</accuracy><speed>7.00</speed></extensions></trkpt>
      <trkpt lat="52.0000446" lon="5.0111016"><time>2026-07-25T09:01:50.000Z</time><extensions><accuracy>7.6</accuracy><speed>7.00</speed></extensions></trkpt>
      <trkpt lat="52.0000100" lon="5.0112929"><time>2026-07-25T09:01:51.000Z</time><extensions><accuracy>10.2</accuracy><speed>7.00</speed></extensions></trkpt>
      <trkpt lat="52.0000582" lon="5.0114332"><time>2026-07-25T09:01:52.000Z</time><extensions><accuracy>11.1</accuracy><speed>7.00</speed></extensions></trkpt>
      <trkpt lat="52.0000910" lon="5.0115640"><time>2026-07-25T09:01:53.000Z</time><extensions><accuracy>6.3</accuracy><speed>7.00</speed></extensions></trkpt>
      <trkpt lat="52.0000048" lon="5.0115643"><time>2026-07-25T09:01:54.000Z</time><extensions><accuracy>6.4</accuracy><speed>7.00</speed></extensions></trkpt>
      <trkpt lat="52.0000665" lon="5.0116759"><time>2026-07-25T09:01:55.000Z</time><extensions><accuracy>6.7</accuracy><speed>7.00</speed></extensions></trkpt>
      <trkpt lat="52.0002333" lon="5.0117237"><time>2026-07-25T09:01:56.000Z</time><extensions><accuracy>5.5</accuracy><speed>7.00</speed></extensions></trkpt>
      <trkpt lat="52.0001995" lon="5.0115522"><time>2026-07-25T09:01:57.000Z</time><extensions><accuracy>7.4</accuracy><speed>7.00</speed></extensions></trkpt>
      <trkpt lat="52.0002323" lon="5.0116283"><time>2026-07-25T09:01:58.000Z</time><extensions><accuracy>10.6</accuracy><speed>7.00</speed></extensions></trkpt>
      <trkpt lat="52.0003439" lon="5.0116335"><time>2026-07-25T09:01:59.000Z</time><extensions><accuracy>5.1</accuracy><speed>7.00</speed></extensions></trkpt>
      <trkpt lat="52.0003542" lon="5.0116782"><time>2026-07-25T09:02:00.000Z</time><extensions><accuracy>9.9</accuracy><speed>7.00</speed></extensions></trkpt>
      <trkpt lat="52.0004440" lon="5.0114956"><time>2026-07-25T09:02:01.000Z</time><extensions><accuracy>5.9</accuracy><speed>7.00</speed></extensions></trkpt>
      <trkpt lat="52.0004814" lon="5.0117162"><time>2026-07-25T09:02:02.000Z</time><extensions><accuracy>10.8</accuracy><speed>7.00</speed></extensions></trkpt>
      <trkpt lat="52.0005584" lon="5.0116541"><time>2026-07-25T09:02:03.000Z</time><extensions><accuracy>6.7</accuracy><speed>7.00</speed></extensions></trkpt>
      <trkpt lat="52.0006328" lon="5.0116202"><time>2026-07-25T09:02:04.000Z</time><extensions><accuracy>4.5</accuracy><speed>7.00</speed></extensions></trkpt>
      <trkpt lat="52.0007349" lon="5.0116516"><time>2026-07-25T09:02:05.000Z</time><extensions><accuracy>8.0</accuracy><speed>7.00</speed></extensions></trkpt>
      <trkpt lat="52.0007769" lon="5.0116075"><time>2026-07-25T09:02:06.000Z</time><extensions><accuracy>9.6</accuracy><speed>7.00</speed></extensions></trkpt>
      <trkpt lat="52.0007750" lon="5.0116773"><time>2026-07-25T09:02:07.000Z</time><extensions><accuracy>10.7</accuracy><speed>7.00</speed></extensions></trkpt>
      <trkpt lat="52.0009075" lon="5.0116290"><time>2026-07-25T09:02:08.000Z</time><extensions><accuracy>5.4</accuracy><speed>7.00</speed></extensions></trkpt>
      <trkpt lat="52.0009419" lon="5.0115350"><time>2026-07-25T09:02:09.000Z</time><extensions><accuracy>5.8</accuracy><speed>7.00</speed></extensions></trkpt>
      <trkpt lat="52.0010185" lon="5.0116486"><time>2026-07-25T09:02:10.000Z</time><extensions><accuracy>9.9</accuracy><speed>7.00</speed></extensions></trkpt>
      <trkpt lat="52.0010482" lon="5.0117022"><time>2026-07-25T09:02:11.000Z</time><extensions><accuracy>8.9</accuracy><speed>7.00</speed></extensions></trkpt>
      <trkpt lat="52.0011580" lon="5.0116745"><time>2026-07-25T09:02:12.000Z</time><extensions><accuracy>4.9</accuracy><speed>7.00</speed></extensions></trkpt>
      <trkpt lat="52.0012277" lon="5.0115944"><time>2026-07-25T09:02:13.000Z</time><extensions><accuracy>8.9</accuracy><speed>7.00</speed></extensions></trkpt>
      <trkpt lat="52.0012477" lon="5.0116497"><time>2026-07-25T09:02:14.000Z</time><extensions><accuracy>8.9</accuracy><speed>7.00</speed></extensions></trkpt>
      <trkpt lat="52.0013293" lon="5.0116082"><time>2026-07-25T09:02:15.000Z</time><extensions><accuracy>24.4</accuracy><speed>7.00</speed></extensions></trkpt>
      <trkpt lat="52.0013388" lon="5.0116634"><time>2026-07-25T09:02:16.000Z</time><extensions><accuracy>6.6</accuracy><speed>7.00</speed></extensions></trkpt>
      <trkpt lat="52.0014025" lon="5.0116365"><time>2026-07-25T09:02:17.000Z</time><extensions><accuracy>5.3</accuracy><speed>7.00</speed></extensions></trkpt>
      <trkpt lat="52.0014830" lon="5.0116119"><time>2026-07-25T09:02:18.000Z</time><extensions><accuracy>6.4</accuracy><speed>7.00</speed></extensions></trkpt>
      <trkpt lat="52.0015725" lon="5.0116526"><time>2026-07-25T09:02:19.000Z</time><extensions><accuracy>5.2</accuracy><speed>7.00</speed></extensions></trkpt>
      <trkpt lat="52.0016949" lon="5.0117947"><time>2026-07-25T09:02:20.000Z</time><extensions><accuracy>11.0</accuracy><speed>7.00</speed></extensions></trkpt>
      <trkpt lat="52.0016745" lon="5.0116484"><time>2026-07-25T09:02:21.000Z</time><extensions><accuracy>8.8</accuracy><speed>7.00</speed></extensions></trkpt>
      <trkpt lat="52.0017822" lon="5.0116692"><time>2026-07-25T09:02:22.000Z</time><extensions><accuracy>11.2</accuracy><speed>7.00</speed></extensions></trkpt>
      <trkpt lat="52.0018666" lon="5.0116576"><time>2026-07-25T09:02:23.000Z</time><extensions><accuracy>9.2</accuracy><speed>7.00</speed></extensions></trkpt>
      <trkpt lat="52.0019172" lon="5.0116166"><time>2026-07-25T09:02:24.000Z</time><extensions><accuracy>8.1</accuracy><speed>7.00</speed></extensions></trkpt>
      <trkpt lat="52.0019889" lon="5.0115958"><time>2026-07-25T09:02:25.000Z</time><extensions><accuracy>11.3</accuracy><speed>7.00</speed></extensions></trkpt>
      <trkpt lat="52.0020170" lon="5.0116412"><time>2026-07-25T09:02:26.000Z</time><extensions><accuracy>10.5</accuracy><speed>7.00</speed></extensions></trkpt>
      <trkpt lat="52.0021214" lon="5.0116462"><time>2026-07-25T09:02:27.000Z</time><extensions><accuracy>5.6</accuracy><speed>7.00</speed></extensions></trkpt>
      <trkpt lat="52.0021399" lon="5.0117008"><time>2026-07-25T09:02:28.000Z</time><extensions><accuracy>5.0</accuracy><speed>7.00</speed></extensions></trkpt>
      <trkpt lat="52.0022133" lon="5.0116386"><time>2026-07-25T09:02:29.000Z</time><extensions><accuracy>8.4</accuracy><speed>7.00</speed></extensions></trkpt>
      <trkpt lat="52.0022549" lon="5.0117295"><time>2026-07-25T09:02:30.000Z</time><extensions><accuracy>4.1</accuracy><speed>7.00</speed></extensions></trkpt>
      <trkpt lat="52.0024044" lon="5.0115489"><time>2026-07-25T09:02:31.000Z</time><extensions><accuracy>4.5</accuracy><speed>7.00</speed></extensions></trkpt>
      <trkpt lat="52.0023896" lon="5.0116035"><time>2026-07-25T09:02:32.000Z</time><extensions><accuracy>7.6</accuracy><speed>7.00</speed></extensions></trkpt>
      <trkpt lat="52.0024934" lon="5.0117632"><time>2026-07-25T09:02:33.000Z</time><extensions><accuracy>6.7</accuracy><speed>7.00</speed></extensions></trkpt>
      <trkpt lat="52.0025878" lon="5.0116928"><time>2026-07-25T09:02:34.000Z</time><extensions><accuracy>9.1</accuracy><speed>7.00</speed></extensions></trkpt>
      <trkpt lat="52.0025528" lon="5.0115820"><time>2026-07-25T09:02:35.000Z</time><extensions><accuracy>7.5</accuracy><speed>7.00</speed></extensions></trkpt>
      <trkpt lat="52.0025921" lon="5.0116391"><time>2026-07-25T09:02:36.000Z</time><extensions><accuracy>9.5</accuracy><speed>7.00</speed></extensions></trkpt>
      <trkpt lat="52.0027281" lon="5.0115861"><time>2026-07-25T09:02:37.000Z</time><extensions><accuracy>10.6</accuracy><speed>7.00</speed></extensions></trkpt>
      <trkpt lat="52.0027686" lon="5.0116121"><time>2026-07-25T09:02:38.000Z</time><extensions><accuracy>6.8</accuracy><speed>7.00</speed></extensions></trkpt>
      <trkpt lat="52.0028153" lon="5.0116332"><time>2026-07-25T09:02:39.000Z</time><extensions><accuracy>11.0</accuracy><speed>7.00</speed></extensions></trkpt>
      <trkpt lat="52.0029126" lon="5.0116930"><time>2026-07-25T09:02:40.000Z</time><extensions><accuracy>7.0</accuracy><speed>7.00</speed></extensions></trkpt>
      <trkpt lat="52.0029610" lon="5.0116449"><time>2026-07-25T09:02:41.000Z</time><extensions><accuracy>9.7</accuracy><speed>7.00</speed></extensions></trkpt>
      <trkpt lat="52.0030169" lon="5.0116776"><time>2026-07-25T09:02:42.000Z</time><extensions><accuracy>5.2</accuracy><speed>7.00</speed></extensions></trkpt>
      <trkpt lat="52.0030943" lon="5.0115477"><time>2026-07-25T09:02:43.000Z</time><extensions><accuracy>5.3</accuracy><speed>7.00</speed></extensions></trkpt>
      <trkpt lat="52.0031570" lon="5.0116342"><time>2026-07-25T09:02:44.000Z</time><extensions><accuracy>6.5</accuracy><speed>7.00</speed></extensions></trkpt>
      <trkpt lat="52.0033008" lon="5.0115752"><time>2026-07-25T09:02:45.000Z</time><extensions><accuracy>9.1</accuracy><speed>7.00</speed></extensions></trkpt>
      <trkpt lat="52.0032609" lon="5.0116203"><time>2026-07-25T09:02:46.000Z</time><extensions><accuracy>8.8</accuracy><speed>7.00</speed></extensions></trkpt>
      <trkpt lat="52.0033800" lon="5.0116928"><time>2026-07-25T09:02:47.000Z</time><extensions><accuracy>5.3</accuracy><speed>7.00</speed></extensions></trkpt>
      <trkpt lat="52.0034295" lon="5.0116677"><time>2026-07-25T09:02:48.000Z</time><extensions><accuracy>10.3</accuracy><speed>7.00</speed></extensions></trkpt>
      <trkpt lat="52.0034562" lon="5.0116440"><time>2026-07-25T09:02:49.000Z</time><extensions><accuracy>4.3</accuracy><speed>7.00</speed></extensions></trkpt>
      <trkpt lat="52.0036070" lon="5.0116984"><time>2026-07-25T09:02:50.000Z</time><extensions><accuracy>4.8</accuracy><speed>7.00</speed></extensions></trkpt>
      <trkpt lat="52.0035717" lon="5.0116916"><time>2026-07-25T09:02:51.000Z</time><extensions><accuracy>5.1</accuracy><speed>7.00</speed></extensions></trkpt>
      <trkpt lat="52.0036591" lon="5.0117294"><time>2026-07-25T09:02:52.000Z</time><extensions><accuracy>11.6</accuracy><speed>7.00</speed></extensions></trkpt>
      <trkpt lat="52.0037233" lon="5.0117619"><time>2026-07-25T09:02:53.000Z</time><extensions><accuracy>6.8</accuracy><speed>7.00</speed></extensions></trkpt>
      <trkpt lat="52.0037306" lon="5.0118984"><time>2026-07-25T09:02:54.000Z</time><extensions><accuracy>11.7</accuracy><speed>7.00</speed></extensions></trkpt>
      <trkpt lat="52.0038468" lon="5.0120666"><time>2026-07-25T09:02:55.000Z</time><extensions><accuracy>10.1</accuracy><speed>7.00</speed></extensions></trkpt>
      <trkpt lat="52.0038068" lon="5.0120952"><time>2026-07-25T09:02:56.000Z</time><extensions><accuracy>6.7</accuracy><speed>7.00</speed></extensions></trkpt>
      <trkpt lat="52.0038797" lon="5.0120087"><time>2026-07-25T09:02:57.000Z</time><extensions><accuracy>5.4</accuracy><speed>7.00</speed></extensions></trkpt>
      <trkpt lat="52.0039847" lon="5.0120698"><time>2026-07-25T09:02:58.000Z</time><extensions><accuracy>5.5</accuracy><speed>7.00</speed></extensions></trkpt>
      <trkpt lat="52.0039676" lon="5.0123099"><time>2026-07-25T09:02:59.000Z</time><extensions><accuracy>6.6</accuracy><speed>7.00</speed></extensions></trkpt>
      <trkpt lat="52.0093748" lon="5.0210703"><time>2026-07-25T09:03:00.000Z</time><extensions><accuracy>30.0</accuracy><speed>7.00</speed></extensions></trkpt>
      <trkpt lat="52.0040529" lon="5.0123831"><time>2026-07-25T09:03:01.000Z</time><extensions><accuracy>7.3</accuracy><speed>7.00</speed></extensions></trkpt>
      <trkpt lat="52.0041623" lon="5.0125293"><time>2026-07-25T09:03:02.000Z</time><extensions><accuracy>9.5</accuracy><speed>7.00</speed></extensions></trkpt>
      <trkpt lat="52.0041291" lon="5.0125748"><time>2026-07-25T09:03:03.000Z</time><extensions><accuracy>6.9</accuracy><speed>7.00</speed></extensions></trkpt>
      <trkpt lat="52.0041566" lon="5.0126175"><time>2026-07-25T09:03:04.000Z</time><extensions><accuracy>11.1</accuracy><speed>7.00</speed></extensions></trkpt>
      <trkpt lat="52.0041926" lon="5.0126193"><time>2026-07-25T09:03:05.000Z</time><extensions><accuracy>11.8</accuracy><speed>7.00</speed></extensions></trkpt>
      <trkpt lat="52.0042811" lon="5.0127973"><time>2026-07-25T09:03:06.000Z</time><extensions><accuracy>10.5</accuracy><speed>7.00</speed></extensions></trkpt>
      <trkpt lat="52.0043190" lon="5.0128480"><time>2026-07-25T09:03:07.000Z</time><extensions><accuracy>5.5</accuracy><speed>7.00</speed></extensions></trkpt>
      <trkpt lat="52.0043797" lon="5.0129600"><time>2026-07-25T09:03:08.000Z</time><extensions><accuracy>9.3</accuracy><speed>7.00</speed></extensions></trkpt>
      <trkpt lat="52.0044625" lon="5.0128971"><time>2026-07-25T09:03:09.000Z</time><extensions><accuracy>9.2</accuracy><speed>7.00</speed></extensions></trkpt>
      <trkpt lat="52.0044908" lon="5.0130124"><time>2026-07-25T09:03:10.000Z</time><extensions><accuracy>11.8</accuracy><speed>7.00</speed></extensions></trkpt>
      <trkpt lat="52.0045527" lon="5.0131341"><time>2026-07-25T09:03:11.000Z</time><extensions><accuracy>11.3</accuracy><speed>7.00</speed></extensions></trkpt>
      <trkpt lat="52.0045324" lon="5.0131202"><time>2026-07-25T09:03:12.000Z</time><extensions><accuracy>6.5</accuracy><speed>7.00</speed></extensions></trkpt>
      <trkpt lat="52.0045867" lon="5.0132336"><time>2026-07-25T09:03:13.000Z</time><extensions><accuracy>7.3</accuracy><speed>7.00</speed></extensions></trkpt>
      <trkpt lat="52.0046712" lon="5.0132592"><time>2026-07-25T09:03:14.000Z</time><extensions><accuracy>10.2</accuracy><speed>7.00</speed></extensions></trkpt>
      <trkpt lat="52.0046825" lon="5.0133544"><time>2026-07-25T09:03:15.000Z</time><extensions><accuracy>6.3</accuracy><speed>7.00</speed></extensions></trkpt>
      <trkpt lat="52.0047397" lon="5.0135653"><time>2026-07-25T09:03:16.000Z</time><extensions><accuracy>8.7</accuracy><speed>7.00</speed></extensions></trkpt>
      <trkpt lat="52.0047250" lon="5.0136104"><time>2026-07-25T09:03:17.000Z</time><extensions><accuracy>7.4</accuracy><speed>7.00</speed></extensions></trkpt>
      <trkpt lat="52.0048034" lon="5.0136690"><time>2026-07-25T09:03:18.000Z</time><extensions><accuracy>11.2</accuracy><speed>7.00</speed></extensions></trkpt>
      <trkpt lat="52.0048684" lon="5.0137220"><time>2026-07-25T09:03:19.000Z</time><extensions><accuracy>4.2</accuracy><speed>7.00</speed></extensions></trkpt>
      <trkpt lat="52.0048455" lon="5.0136666"><time>2026-07-25T09:03:20.000Z</time><extensions><accuracy>10.3</accuracy><speed>7.00</speed></extensions></trkpt>
      <trkpt lat="52.0049081" lon="5.0138426"><time>2026-07-25T09:03:21.000Z</time><extensions><accuracy>4.3</accuracy><speed>7.00</speed></extensions></trkpt>
      <trkpt lat="52.0049267" lon="5.0138690"><time>2026-07-25T09:03:22.000Z</time><extensions><accuracy>6.0</accuracy><speed>7.00</speed></extensions></trkpt>
      <trkpt lat="52.0050511" lon="5.0139986"><time>2026-07-25T09:03:23.000Z</time><extensions><accuracy>7.5</accuracy><speed>7.00</speed></extensions></trkpt>
      <trkpt lat="52.0050309" lon="5.0140766"><time>2026-07-25T09:03:24.000Z</time><extensions><accuracy>9.5</accuracy><speed>7.00</speed></extensions></trkpt>
      <trkpt lat="52.0051487" lon="5.0141243"><time>2026-07-25T09:03:25.000Z</time><extensions><accuracy>9.1</accuracy><speed>7.00</speed></extensions></trkpt>
      <trkpt lat="52.0051322" lon="5.0141624"><time>2026-07-25T09:03:26.000Z</time><extensions><accuracy>8.1</accuracy><speed>7.00</speed></extensions></trkpt>
      <trkpt lat="52.0051284" lon="5.0143378"><time>2026-07-25T09:03:27.000Z</time><extensions><accuracy>4.5</accuracy><speed>7.00</speed></extensions></trkpt>
      <trkpt lat="52.0052684" lon="5.0143709"><time>2026-07-25T09:03:28.000Z</time><extensions><accuracy>7.3</accuracy><speed>7.00</speed></extensions></trkpt>
      <trkpt lat="52.0052942" lon="5.0144378"><time>2026-07-25T09:03:29.000Z</time><extensions><accuracy>6.0</accuracy><speed>7.00</speed></extensions></trkpt>
      <trkpt lat="52.0053168" lon="5.0144849"><time>2026-07-25T09:03:30.000Z</time><extensions><accuracy>5.0</accuracy><speed>7.00</speed></extensions></trkpt>
      <trkpt lat="52.0053838" lon="5.0146130"><time>2026-07-25T09:03:31.000Z</time><extensions><accuracy>7.6</accuracy><speed>7.00</speed></extensions></trkpt>
      <trkpt lat="52.0053850" lon="5.0146255"><time>2026-07-25T09:03:32.000Z</time><extensions><accuracy>8.4</accuracy><speed>7.00</speed></extensions></trkpt>
      <trkpt lat="52.0054995" lon="5.0146758"><time>2026-07-25T09:03:33.000Z</time><extensions><accuracy>7.5</accuracy><speed>7.00</speed></extensions></trkpt>
      <trkpt lat="52.0055083" lon="5.0147659"><time>2026-07-25T09:03:34.000Z</time><extensions><accuracy>11.4</accuracy><speed>7.00</speed></extensions></trkpt>
      <trkpt lat="52.0054999" lon="5.0148851"><time>2026-07-25T09:03:35.000Z</time><extensions><accuracy>9.5</accuracy><speed>7.00</speed></extensions></trkpt>
      <trkpt lat="52.0056117" lon="5.0148780"><time>2026-07-25T09:03:36.000Z</time><extensions><accuracy>4.6</accuracy><speed>7.00</speed></extensions></trkpt>
      <trkpt lat="52.0055570" lon="5.0150007"><time>2026-07-25T09:03:37.000Z</time><extensions><accuracy>9.6</accuracy><speed>7.00</speed></extensions></trkpt>
      <trkpt lat="52.0056478" lon="5.0150127"><time>2026-07-25T09:03:38.000Z</time><extensions><accuracy>7.2</accuracy><speed>7.00</speed></extensions></trkpt>
      <trkpt lat="52.0057476" lon="5.0151641"><time>2026-07-25T09:03:39.000Z</time><extensions><accuracy>4.7</accuracy><speed>7.00</speed></extensions></trkpt>
      <trkpt lat="52.0057659" lon="5.0151563"><time>2026-07-25T09:03:40.000Z</time><extensions><accuracy>8.4</accuracy><speed>7.00</speed></extensions></trkpt>
      <trkpt lat="52.0058445" lon="5.0153645"><time>2026-07-25T09:03:41.000Z</time><extensions><accuracy>10.7</accuracy><speed>7.00</speed></extensions></trkpt>
      <trkpt lat="52.0058415" lon="5.0154600"><time>2026-07-25T09:03:42.000Z</time><extensions><accuracy>6.1</accuracy><speed>7.00</speed></extensions></trkpt>
      <trkpt lat="52.0058818" lon="5.0154513"><time>2026-07-25T09:03:43.000Z</time><extensions><accuracy>11.1</accuracy><speed>7.00</speed></extensions></trkpt>
      <trkpt lat="52.0058934" lon="5.0156259"><time>2026-07-25T09:03:44.000Z</time><extensions><accuracy>5.3</accuracy><speed>7.00</speed></extensions></trkpt>
      <trkpt lat="52.0057357" lon="5.0155162"><time>2026-07-25T09:03:45.000Z</time><extensions><accuracy>20.4</accuracy><speed>7.00</speed></extensions></trkpt>
      <trkpt lat="52.0060155" lon="5.0156615"><time>2026-07-25T09:03:46.000Z</time><extensions><accuracy>9.5</accuracy><speed>7.00</speed></extensions></trkpt>
      <trkpt lat="52.0060798" lon="5.0157955"><time>2026-07-25T09:03:47.000Z</time><extensions><accuracy>10.2</accuracy><speed>7.00</speed></extensions></trkpt>
      <trkpt lat="52.0061089" lon="5.0157548"><time>2026-07-25T09:03:48.000Z</time><extensions><accuracy>5.2</accuracy><speed>7.00</speed></extensions></trkpt>
      <trkpt lat="52.0061721" lon="5.0159656"><time>2026-07-25T09:03:49.000Z</time><extensions><accuracy>10.0</accuracy><speed>7.00</speed></extensions></trkpt>
      <trkpt lat="52.0061825" lon="5.0159373"><time>2026-07-25T09:03:50.000Z</time><extensions><accuracy>7.2</accuracy><speed>7.00</speed></extensions></trkpt>
      <trkpt lat="52.0062142" lon="5.0159973"><time>2026-07-25T09:03:51.000Z</time><extensions><accuracy>11.8</accuracy><speed>7.00</speed></extensions></trkpt>
      <trkpt lat="52.0063423" lon="5.0160009"><time>2026-07-25T09:03:52.000Z</time><extensions><accuracy>8.3</accuracy><speed>7.00</speed></extensions></trkpt>
      <trkpt lat="52.0063201" lon="5.0161605"><time>2026-07-25T09:03:53.000Z</time><extensions><accuracy>8.6</accuracy><speed>7.00</speed></extensions></trkpt>
      <trkpt lat="52.0063951" lon="5.0162210"><time>2026-07-25T09:03:54.000Z</time><extensions><accuracy>9.3</accuracy><speed>7.00</speed></extensions></trkpt>
      <trkpt lat="52.0064037" lon="5.0161619"><time>2026-07-25T09:03:55.000Z</time><extensions><accuracy>4.6</accuracy><speed>7.00</speed></extensions></trkpt>
      <trkpt lat="52.0064105" lon="5.0164190"><time>2026-07-25T09:03:56.000Z</time><extensions><accuracy>5.1</accuracy><speed>7.00</speed></extensions></trkpt>
      <trkpt lat="52.0064682" lon="5.0164187"><time>2026-07-25T09:03:57.000Z</time><extensions><accuracy>8.0</accuracy><speed>7.00</speed></extensions></trkpt>
      <trkpt lat="52.0066077" lon="5.0166187"><time>2026-07-25T09:03:58.000Z</time><extensions><accuracy>8.5</accuracy><speed>7.00</speed></extensions></trkpt>
      <trkpt lat="52.0066243" lon="5.0165188"><time>2026-07-25T09:03:59.000Z</time><extensions><accuracy>9.0</accuracy><speed>7.00</speed></extensions></trkpt>
      <trkpt lat="52.0066239" lon="5.0166753"><time>2026-07-25T09:04:00.000Z</time><extensions><accuracy>10.7</accuracy><speed>7.00</speed></extensions></trkpt>
      <trkpt lat="52.0066546" lon="5.0166718"><time>2026-07-25T09:04:01.000Z</time><extensions><accuracy>9.5</accuracy><speed>7.00</speed></extensions></trkpt>
      <trkpt lat="52.0067377" lon="5.0168263"><time>2026-07-25T09:04:02.000Z</time><extensions><accuracy>4.1</accuracy><speed>7.00</speed></extensions></trkpt>
      <trkpt lat="52.0068127" lon="5.0168936"><time>2026-07-25T09:04:03.000Z</time><extensions><accuracy>9.4</accuracy><speed>7.00</speed></extensions></trkpt>
      <trkpt lat="52.0068587" lon="5.0170083"><time>2026-07-25T09:04:04.000Z</time><extensions><accuracy>9.9</accuracy><speed>7.00</speed></extensions></trkpt>
      <trkpt lat="52.0068857" lon="5.0169745"><time>2026-07-25T09:04:05.000Z</time><extensions><accuracy>11.2</accuracy><speed>7.00</speed></extensions></trkpt>
      <trkpt lat="52.0068320" lon="5.0171095"><time>2026-07-25T09:04:06.000Z</time><extensions><accuracy>4.0</accuracy><speed>7.00</speed></extensions></trkpt>
      <trkpt lat="52.0069186" lon="5.0173031"><time>2026-07-25T09:04:07.000Z</time><extensions><accuracy>10.2</accuracy><speed>7.00</speed></extensions></trkpt>
      <trkpt lat="52.0070268" lon="5.0172810"><time>2026-07-25T09:04:08.000Z</time><extensions><accuracy>6.3</accuracy><speed>7.00</speed></extensions></trkpt>
      <trkpt lat="52.0070941" lon="5.0173356"><time>2026-07-25T09:04:09.000Z</time><extensions><accuracy>11.1</accuracy><speed>7.00</speed></extensions></trkpt>
      <trkpt lat="52.0071465" lon="5.0172717"><time>2026-07-25T09:04:10.000Z</time><extensions><accuracy>4.2</accuracy><speed>7.00</speed></extensions></trkpt>
      <trkpt lat="52.0072128" lon="5.0174824"><time>2026-07-25T09:04:11.000Z</time><extensions><accuracy>7.6</accuracy><speed>7.00</speed></extensions></trkpt>
      <trkpt lat="52.0071599" lon="5.0175439"><time>2026-07-25T09:04:12.000Z</time><extensions><accuracy>9.4</accuracy><speed>7.00</speed></extensions></trkpt>
      <trkpt lat="52.0072214" lon="5.0175702"><time>2026-07-25T09:04:13.000Z</time><extensions><accuracy>8.0</accuracy><speed>7.00</speed></extensions></trkpt>
      <trkpt lat="52.0073297" lon="5.0176077"><time>2026-07-25T09:04:14.000Z</time><extensions><accuracy>8.5</accuracy><speed>7.00</speed></extensions></trkpt>
      <trkpt lat="52.0073921" lon="5.0176682"><time>2026-07-25T09:04:15.000Z</time><extensions><accuracy>6.8</accuracy><speed>7.00</speed></extensions></trkpt>
      <trkpt lat="52.0073819" lon="5.0176878"><time>2026-07-25T09:04:16.000Z</time><extensions><accuracy>7.2</accuracy><speed>7.00</speed></extensions></trkpt>
      <trkpt lat="52.0073975" lon="5.0179175"><time>2026-07-25T09:04:17.000Z</time><extensions><accuracy>7.9</accuracy><speed>7.00</speed></extensions></trkpt>
      <trkpt lat="52.0074458" lon="5.0180868"><time>2026-07-25T09:04:18.000Z</time><extensions><accuracy>9.2</accuracy><speed>7.00</speed></extensions></trkpt>
      <trkpt lat="52.0074251" lon="5.0180807"><time>2026-07-25T09:04:19.000Z</time><extensions><accuracy>4.1</accuracy><speed>7.00</speed></extensions></trkpt>
      <trkpt lat="52.0074101" lon="5.0182981"><time>2026-07-25T09:04:20.000Z</time><extensions><accuracy>7.5</accuracy><speed>7.00</speed></extensions></trkpt>
      <trkpt lat="52.0074506" lon="5.0182384"><time>2026-07-25T09:04:21.000Z</time><extensions><accuracy>7.7</accuracy><speed>7.00</speed></extensions></trkpt>
      <trkpt lat="52.0073898" lon="5.0183607"><time>2026-07-25T09:04:22.000Z</time><extensions><accuracy>10.6</accuracy><speed>7.00</speed></extensions></trkpt>
      <trkpt lat="52.0074187" lon="5.0186135"><time>2026-07-25T09:04:23.000Z</time><extensions><accuracy>7.6</accuracy><speed>7.00</speed></extensions></trkpt>
      <trkpt lat="52.0074405" lon="5.0186967"><time>2026-07-25T09:04:24.000Z</time><extensions><accuracy>9.6</accuracy><speed>7.00</speed></extensions></trkpt>
      <trkpt lat="52.0073907" lon="5.0186578"><time>2026-07-25T09:04:25.000Z</time><extensions><accuracy>4.7</accuracy><speed>7.00</speed></extensions></trkpt>
      <trkpt lat="52.0074128" lon="5.0187691"><time>2026-07-25T09:04:26.000Z</time><extensions><accuracy>11.6</accuracy><speed>7.00</speed></extensions></trkpt>
      <trkpt lat="52.0073817" lon="5.0188627"><time>2026-07-25T09:04:27.000Z</time><extensions><accuracy>7.1</accuracy><speed>7.00</speed></extensions></trkpt>
      <trkpt lat="52.0074334" lon="5.0190603"><time>2026-07-25T09:04:28.000Z</time><extensions><accuracy>6.2</accuracy><speed>7.00</speed></extensions></trkpt>
      <trkpt lat="52.0074016" lon="5.0190844"><time>2026-07-25T09:04:29.000Z</time><extensions><accuracy>11.2</accuracy><speed>7.00</speed></extensions></trkpt>
      <trkpt lat="52.0074745" lon="5.0192605"><time>2026-07-25T09:04:30.000Z</time><extensions><accuracy>22.4</accuracy><speed>7.00</speed></extensions></trkpt>
      <trkpt lat="52.0073879" lon="5.0193191"><time>2026-07-25T09:04:31.000Z</time><extensions><accuracy>5.9</accuracy><speed>7.00</speed></extensions></trkpt>
      <trkpt lat="52.0073922" lon="5.0194142"><time>2026-07-25T09:04:32.000Z</time><extensions><accuracy>8.0</accuracy><speed>7.00</speed></extensions></trkpt>
      <trkpt lat="52.0073742" lon="5.0196499"><time>2026-07-25T09:04:33.000Z</time><extensions><accuracy>10.9</accuracy><speed>7.00</speed></extensions></trkpt>
      <trkpt lat="52.0073898" lon="5.0196970"><time>2026-07-25T09:04:34.000Z</time><extensions><accuracy>6.5</accuracy><speed>7.00</speed></extensions></trkpt>
      <trkpt lat="52.0073652" lon="5.0197703"><time>2026-07-25T09:04:35.000Z</time><extensions><accuracy>4.4</accuracy><speed>7.00</speed></extensions></trkpt>
      <trkpt lat="52.0073807" lon="5.0198621"><time>2026-07-25T09:04:36.000Z</time><extensions><accuracy>11.3</accuracy><speed>7.00</speed></extensions></trkpt>
      <trkpt lat="52.0074490" lon="5.0200259"><time>2026-07-25T09:04:37.000Z</time><extensions><accuracy>4.2</accuracy><speed>7.00</speed></extensions></trkpt>
      <trkpt lat="52.0073703" lon="5.0199565"><time>2026-07-25T09:04:38.000Z</time><extensions><accuracy>5.8</accuracy><speed>7.00</speed></extensions></trkpt>
      <trkpt lat="52.0074254" lon="5.0202148"><time>2026-07-25T09:04:39.000Z</time><extensions><accuracy>8.4</accuracy><speed>7.00</speed></extensions></trkpt>
      <trkpt lat="52.0074112" lon="5.0203145"><time>2026-07-25T09:04:40.000Z</time><extensions><accuracy>6.6</accuracy><speed>7.00</speed></extensions></trkpt>
      <trkpt lat="52.0074457" lon="5.0202912"><time>2026-07-25T09:04:41.000Z</time><extensions><accuracy>4.8</accuracy><speed>7.00</speed></extensions></trkpt>
      <trkpt lat="52.0074144" lon="5.0204858"><time>2026-07-25T09:04:42.000Z</time><extensions><accuracy>8.2</accuracy><speed>7.00</speed></extensions></trkpt>
      <trkpt lat="52.0074436" lon="5.0205870"><time>2026-07-25T09:04:43.000Z</time><extensions><accuracy>5.5</accuracy><speed>7.00</speed></extensions></trkpt>
      <trkpt lat="52.0074279" lon="5.0207484"><time>2026-07-25T09:04:44.000Z</time><extensions><accuracy>4.8</accuracy><speed>7.00</speed></extensions></trkpt>
      <trkpt lat="52.0073856" lon="5.0208149"><time>2026-07-25T09:04:45.000Z</time><extensions><accuracy>7.9</accuracy><speed>7.00</speed></extensions></trkpt>
      <trkpt lat="52.0073893" lon="5.0209631"><time>2026-07-25T09:04:46.000Z</time><extensions><accuracy>9.7</accuracy><speed>7.00</speed></extensions></trkpt>
      <trkpt lat="52.0074705" lon="5.0210123"><time>2026-07-25T09:04:47.000Z</time><extensions><accuracy>6.1</accuracy><speed>7.00</speed></extensions></trkpt>
      <trkpt lat="52.0074297" lon="5.0211088"><time>2026-07-25T09:04:48.000Z</time><extensions><accuracy>9.5</accuracy><speed>7.00</speed></extensions></trkpt>
      <trkpt lat="52.0073696" lon="5.0211145"><time>2026-07-25T09:04:49.000Z</time><extensions><accuracy>6.2</accuracy><speed>7.00</speed></extensions></trkpt>
      <trkpt lat="52.0073733" lon="5.0212896"><time>2026-07-25T09:04:50.000Z</time><extensions><accuracy>8.5</accuracy><speed>7.00</speed></extensions></trkpt>
      <trkpt lat="52.0074634" lon="5.0213720"><time>2026-07-25T09:04:51.000Z</time><extensions><accuracy>5.9</accuracy><speed>7.00</speed></extensions></trkpt>
      <trkpt lat="52.0074538" lon="5.0214436"><time>2026-07-25T09:04:52.000Z</time><extensions><accuracy>7.1</accuracy><speed>7.00</speed></extensions></trkpt>
      <trkpt lat="52.0074230" lon="5.0214350"><time>2026-07-25T09:04:53.000Z</time><extensions><accuracy>4.8</accuracy><speed>7.00</speed></extensions></trkpt>
      <trkpt lat="52.0074726" lon="5.0216285"><time>2026-07-25T09:04:54.000Z</time><extensions><accuracy>6.9</accuracy><speed>7.00</speed></extensions></trkpt>
      <trkpt lat="52.0074442" lon="5.0217790"><time>2026-07-25T09:04:55.000Z</time><extensions><accuracy>11.3</accuracy><speed>7.00</speed></extensions></trkpt>
      <trkpt lat="52.0073644" lon="5.0219772"><time>2026-07-25T09:04:56.000Z</time><extensions><accuracy>7.5</accuracy><speed>7.00</speed></extensions></trkpt>
      <trkpt lat="52.0074009" lon="5.0219630"><time>2026-07-25T09:04:57.000Z</time><extensions><accuracy>10.7</accuracy><speed>7.00</speed></extensions></trkpt>
      <trkpt lat="52.0074195" lon="5.0221599"><time>2026-07-25T09:04:58.000Z</time><extensions><accuracy>11.8</accuracy><speed>7.00</speed></extensions></trkpt>
      <trkpt lat="52.0074554" lon="5.0223019"><time>2026-07-25T09:04:59.000Z</time><extensions><accuracy>6.1</accuracy><speed>7.00</speed></extensions></trkpt>
      <trkpt lat="52.0074233" lon="5.0224494"><time>2026-07-25T09:05:00.000Z</time><extensions><accuracy>7.7</accuracy><speed>7.00</speed></extensions></trkpt>
      <trkpt lat="52.0073967" lon="5.0222792"><time>2026-07-25T09:05:01.000Z</time><extensions><accuracy>6.8</accuracy><speed>7.00</speed></extensions></trkpt>
      <trkpt lat="52.0073075" lon="5.0223773"><time>2026-07-25T09:05:02.000Z</time><extensions><accuracy>10.4</accuracy><speed>7.00</speed></extensions></trkpt>
      <trkpt lat="52.0074033" lon="5.0226001"><time>2026-07-25T09:05:03.000Z</time><extensions><accuracy>7.9</accuracy><speed>7.00</speed></extensions></trkpt>
      <trkpt lat="52.0073589" lon="5.0227656"><time>2026-07-25T09:05:04.000Z</time><extensions><accuracy>7.7</accuracy><speed>7.00</speed></extensions></trkpt>
      <trkpt lat="52.0073781" lon="5.0228424"><time>2026-07-25T09:05:05.000Z</time><extensions><accuracy>8.9</accuracy><speed>7.00</speed></extensions></trkpt>
      <trkpt lat="52.0074473" lon="5.0228975"><time>2026-07-25T09:05:06.000Z</time><extensions><accuracy>9.5</accuracy><speed>7.00</speed></extensions></trkpt>
      <trkpt lat="52.0074572" lon="5.0230195"><time>2026-07-25T09:05:07.000Z</time><extensions><accuracy>11.1</accuracy><speed>7.00</speed></extensions></trkpt>
      <trkpt lat="52.0074459" lon="5.0229603"><time>2026-07-25T09:05:08.000Z</time><extensions><accuracy>5.5</accuracy><speed>7.00</speed></extensions></trkpt>
      <trkpt lat="52.0074773" lon="5.0233130"><time>2026-07-25T09:05:09.000Z</time><extensions><accuracy>4.7</accuracy><speed>7.00</speed></extensions></trkpt>
      <trkpt lat="52.0074135" lon="5.0232632"><time>2026-07-25T09:05:10.000Z</time><extensions><accuracy>9.9</accuracy><speed>7.00</speed></extensions></trkpt>
      <trkpt lat="52.0074493" lon="5.0233600"><time>2026-07-25T09:05:11.000Z</time><extensions><accuracy>9.9</accuracy><speed>7.00</speed></extensions></trkpt>
      <trkpt lat="52.0074787" lon="5.0235905"><time>2026-07-25T09:05:12.000Z</time><extensions><accuracy>10.2</accuracy><speed>7.00</speed></extensions></trkpt>
      <trkpt lat="52.0074328" lon="5.0235882"><time>2026-07-25T09:05:13.000Z</time><extensions><accuracy>11.7</accuracy><speed>7.00</speed></extensions></trkpt>
      <trkpt lat="52.0074425" lon="5.0237530"><time>2026-07-25T09:05:14.000Z</time><extensions><accuracy>6.3</accuracy><speed>7.00</speed></extensions></trkpt>
      <trkpt lat="52.0073253" lon="5.0238076"><time>2026-07-25T09:05:15.000Z</time><extensions><accuracy>20.7</accuracy><speed>7.00</speed></extensions></trkpt>
      <trkpt lat="52.0074662" lon="5.0239159"><time>2026-07-25T09:05:16.000Z</time><extensions><accuracy>8.6</accuracy><speed>7.00</speed></extensions></trkpt>
      <trkpt lat="52.0074379" lon="5.0240577"><time>2026-07-25T09:05:17.000Z</time><extensions><accuracy>7.8</accuracy><speed>7.00</speed></extensions></trkpt>
      <trkpt lat="52.0074401" lon="5.0240929"><time>2026-07-25T09:05:18.000Z</time><extensions><accuracy>10.6</accuracy><speed>7.00</speed></extensions></trkpt>
      <trkpt lat="52.0074722" lon="5.0242807"><time>2026-07-25T09:05:19.000Z</time><extensions><accuracy>4.4</accuracy><speed>7.00</speed></extensions></trkpt>
      <trkpt lat="52.0074634" lon="5.0242537"><time>2026-07-25T09:05:20.000Z</time><extensions><accuracy>6.5</accuracy><speed>7.00</speed></extensions></trkpt>
      <trkpt lat="52.0074827" lon="5.0243539"><time>2026-07-25T09:05:21.000Z</time><extensions><accuracy>7.4</accuracy><speed>7.00</speed></extensions></trkpt>
      <trkpt lat="52.0074204" lon="5.0244595"><time>2026-07-25T09:05:22.000Z</time><extensions><accuracy>10.5</accuracy><speed>7.00</speed></extensions></trkpt>
      <trkpt lat="52.0074560" lon="5.0246015"><time>2026-07-25T09:05:23.000Z</time><extensions><accuracy>6.7</accuracy><speed>7.00</speed></extensions></trkpt>
      <trkpt lat="52.0074315" lon="5.0247065"><time>2026-07-25T09:05:24.000Z</time><extensions><accuracy>9.0</accuracy><speed>7.00</speed></extensions></trkpt>
      <trkpt lat="52.0074663" lon="5.0247784"><time>2026-07-25T09:05:25.000Z</time><extensions><accuracy>9.1</accuracy><speed>7.00</speed></extensions></trkpt>
      <trkpt lat="52.0074381" lon="5.0249625"><time>2026-07-25T09:05:26.000Z</time><extensions><accuracy>7.0</accuracy><speed>7.00</speed></extensions></trkpt>
      <trkpt lat="52.0074254" lon="5.0251052"><time>2026-07-25T09:05:27.000Z</time><extensions><accuracy>9.4</accuracy><speed>7.00</speed></extensions></trkpt>
      <trkpt lat="52.0074444" lon="5.0252364"><time>2026-07-25T09:05:28.000Z</time><extensions><accuracy>5.6</accuracy><speed>7.00</speed></extensions></trkpt>
      <trkpt lat="52.0074505" lon="5.0252841"><time>2026-07-25T09:05:29.000Z</time><extensions><accuracy>5.9</accuracy><speed>7.00</speed></extensions></trkpt>
      <trkpt lat="52.0074017" lon="5.0253961"><time>2026-07-25T09:05:30.000Z</time><extensions><accuracy>6.6</accuracy><speed>7.00</speed></extensions></trkpt>
      <trkpt lat="52.0074415" lon="5.0253869"><time>2026-07-25T09:05:31.000Z</time><extensions><accuracy>6.1</accuracy><speed>7.00</speed></extensions></trkpt>
      <trkpt lat="52.0073845" lon="5.0256578"><time>2026-07-25T09:05:32.000Z</time><extensions><accuracy>9.4</accuracy><speed>7.00</speed></extensions></trkpt>
      <trkpt lat="52.0073847" lon="5.0256835"><time>2026-07-25T09:05:33.000Z</time><extensions><accuracy>4.3</accuracy><speed>7.00</speed></extensions></trkpt>
      <trkpt lat="52.0074377" lon="5.0257553"><time>2026-07-25T09:05:34.000Z</time><extensions><accuracy>4.1</accuracy><speed>7.00</speed></extensions></trkpt>
      <trkpt lat="52.0073989" lon="5.0258627"><time>2026-07-25T09:05:35.000Z</time><extensions><accuracy>6.3</accuracy><speed>7.00</speed></extensions></trkpt>
      <trkpt lat="52.0073973" lon="5.0259127"><time>2026-07-25T09:05:36.000Z</time><extensions><accuracy>7.3</accuracy><speed>7.00</speed></extensions></trkpt>
      <trkpt lat="52.0073797" lon="5.0259398"><time>2026-07-25T09:05:37.000Z</time><extensions><accuracy>8.6</accuracy><speed>7.00</speed></extensions></trkpt>
      <trkpt lat="52.0074056" lon="5.0261951"><time>2026-07-25T09:05:38.000Z</time><extensions><accuracy>9.8</accuracy><speed>7.00</speed></extensions></trkpt>
      <trkpt lat="52.0073716" lon="5.0262344"><time>2026-07-25T09:05:39.000Z</time><extensions><accuracy>11.0</accuracy><speed>7.00</speed></extensions></trkpt>
      <trkpt lat="52.0074129" lon="5.0263474"><time>2026-07-25T09:05:40.000Z</time><extensions><accuracy>11.1</accuracy><speed>7.00</speed></extensions></trkpt>
      <trkpt lat="52.0073805" lon="5.0263868"><time>2026-07-25T09:05:41.000Z</time><extensions><accuracy>11.0</accuracy><speed>7.00</speed></extensions></trkpt>
      <trkpt lat="52.0073699" lon="5.0265180"><time>2026-07-25T09:05:42.000Z</time><extensions><accuracy>5.5</accuracy><speed>7.00</speed></extensions></trkpt>
      <trkpt lat="52.0074041" lon="5.0267210"><time>2026-07-25T09:05:43.000Z</time><extensions><accuracy>4.7</accuracy><speed>7.00</speed></extensions></trkpt>
      <trkpt lat="52.0074356" lon="5.0268270"><time>2026-07-25T09:05:44.000Z</time><extensions><accuracy>7.0</accuracy><speed>7.00</speed></extensions></trkpt>
      <trkpt lat="52.0073886" lon="5.0268670"><time>2026-07-25T09:05:45.000Z</time><extensions><accuracy>11.6</accuracy><speed>7.00</speed></extensions></trkpt>
      <trkpt lat="52.0074182" lon="5.0268780"><time>2026-07-25T09:05:46.000Z</time><extensions><accuracy>10.0</accuracy><speed>7.00</speed></extensions></trkpt>
      <trkpt lat="52.0073531" lon="5.0269985"><time>2026-07-25T09:05:47.000Z</time><extensions><accuracy>6.3</accuracy><speed>7.00</speed></extensions></trkpt>
      <trkpt lat="52.0073426" lon="5.0271551"><time>2026-07-25T09:05:48.000Z</time><extensions><accuracy>11.6</accuracy><speed>7.00</speed></extensions></trkpt>
      <trkpt lat="52.0073483" lon="5.0272993"><time>2026-07-25T09:05:49.000Z</time><extensions><accuracy>9.8</accuracy><speed>7.00</speed></extensions></trkpt>
      <trkpt lat="52.0073906" lon="5.0273898"><time>2026-07-25T09:05:50.000Z</time><extensions><accuracy>7.5</accuracy><speed>7.00</speed></extensions></trkpt>
      <trkpt lat="52.0073476" lon="5.0274995"><time>2026-07-25T09:05:51.000Z</time><extensions><accuracy>5.8</accuracy><speed>7.00</speed></extensions></trkpt>
      <trkpt lat="52.0073820" lon="5.0275922"><time>2026-07-25T09:05:52.000Z</time><extensions><accuracy>9.0</accuracy><speed>7.00</speed></extensions></trkpt>
      <trkpt lat="52.0073560" lon="5.0277261"><time>2026-07-25T09:05:53.000Z</time><extensions><accuracy>11.1</accuracy><speed>7.00</speed></extensions></trkpt>
      <trkpt lat="52.0073654" lon="5.0277659"><time>2026-07-25T09:05:54.000Z</time><extensions><accuracy>10.6</accuracy><speed>7.00</speed></extensions></trkpt>
      <trkpt lat="52.0073807" lon="5.0279072"><time>2026-07-25T09:05:55.000Z</time><extensions><accuracy>8.5</accuracy><speed>7.00</speed></extensions></trkpt>
      <trkpt lat="52.0073530" lon="5.0280309"><time>2026-07-25T09:05:56.000Z</time><extensions><accuracy>7.2</accuracy><speed>7.00</speed></extensions></trkpt>
      <trkpt lat="52.0073330" lon="5.0281802"><time>2026-07-25T09:05:57.000Z</time><extensions><accuracy>7.5</accuracy><speed>7.00</speed></extensions></trkpt>
      <trkpt lat="52.0072714" lon="5.0281529"><time>2026-07-25T09:05:58.000Z</time><extensions><accuracy>11.9</accuracy><speed>7.00</speed></extensions></trkpt>
      <trkpt lat="52.0072277" lon="5.0280650"><time>2026-07-25T09:05:59.000Z</time><extensions><accuracy>7.7</accuracy><speed>7.00</speed></extensions></trkpt>
      <trkpt lat="52.0071070" lon="5.0280975"><time>2026-07-25T09:06:00.000Z</time><extensions><accuracy>16.0</accuracy><speed>7.00</speed></extensions></trkpt>
      <trkpt lat="52.0071420" lon="5.0280335"><time>2026-07-25T09:06:01.000Z</time><extensions><accuracy>5.0</accuracy><speed>7.00</speed></extensions></trkpt>
      <trkpt lat="52.0071002" lon="5.0282208"><time>2026-07-25T09:06:02.000Z</time><extensions><accuracy>11.2</accuracy><speed>7.00</speed></extensions></trkpt>
      <trkpt lat="52.0069993" lon="5.0282243"><time>2026-07-25T09:06:03.000Z</time><extensions><accuracy>8.5</accuracy><speed>7.00</speed></extensions></trkpt>
      <trkpt lat="52.0069345" lon="5.0281637"><time>2026-07-25T09:06:04.000Z</time><extensions><accuracy>11.2</accuracy><speed>7.00</speed></extensions></trkpt>
      <trkpt lat="52.0068692" lon="5.0280244"><time>2026-07-25T09:06:05.000Z</time><extensions><accuracy>11.8</accuracy><speed>7.00</speed></extensions></trkpt>
      <trkpt lat="52.0068635" lon="5.0281602"><time>2026-07-25T09:06:06.000Z</time><extensions><accuracy>11.9</accuracy><speed>7.00</speed></extensions></trkpt>
      <trkpt lat="52.0067743" lon="5.0281967"><time>2026-07-25T09:06:07.000Z</time><extensions><accuracy>9.1</accuracy><speed>7.00</speed></extensions></trkpt>
      <trkpt lat="52.0066999" lon="5.0281641"><time>2026-07-25T09:06:08.000Z</time><extensions><accuracy>4.5</accuracy><speed>7.00</speed></extensions></trkpt>
      <trkpt lat="52.0066223" lon="5.0281336"><time>2026-07-25T09:06:09.000Z</time><extensions><accuracy>7.6</accuracy><speed>7.00</speed></extensions></trkpt>
      <trkpt lat="52.0065336" lon="5.0281140"><time>2026-07-25T09:06:10.000Z</time><extensions><accuracy>8.2</accuracy><speed>7.00</speed></extensions></trkpt>
      <trkpt lat="52.0065712" lon="5.0281339"><time>2026-07-25T09:06:11.000Z</time><extensions><accuracy>4.5</accuracy><speed>7.00</speed></extensions></trkpt>
      <trkpt lat="52.0064902" lon="5.0281194"><time>2026-07-25T09:06:12.000Z</time><extensions><accuracy>4.8</accuracy><speed>7.00</speed></extensions></trkpt>
      <trkpt lat="52.0064091" lon="5.0282217"><time>2026-07-25T09:06:13.000Z</time><extensions><accuracy>9.2</accuracy><speed>7.00</speed></extensions></trkpt>
      <trkpt lat="52.0063327" lon="5.0282954"><time>2026-07-25T09:06:14.000Z</time><extensions><accuracy>8.0</accuracy><speed>7.00</speed></extensions></trkpt>
      <trkpt lat="52.0062518" lon="5.0281513"><time>2026-07-25T09:06:15.000Z</time><extensions><accuracy>6.0</accuracy><speed>7.00</speed></extensions></trkpt>
      <trkpt lat="52.0061555" lon="5.0281082"><time>2026-07-25T09:06:16.000Z</time><extensions><accuracy>10.4</accuracy><speed>7.00</speed></extensions></trkpt>
      <trkpt lat="52.0061452" lon="5.0281473"><time>2026-07-25T09:06:17.000Z</time><extensions><accuracy>4.9</accuracy><speed>7.00</speed></extensions></trkpt>
      <trkpt lat="52.0061123" lon="5.0281873"><time>2026-07-25T09:06:18.000Z</time><extensions><accuracy>5.0</accuracy><speed>7.00</speed></extensions></trkpt>
      <trkpt lat="52.0059394" lon="5.0280625"><time>2026-07-25T09:06:19.000Z</time><extensions><accuracy>8.7</accuracy><speed>7.00</speed></extensions></trkpt>
      <trkpt lat="52.0059107" lon="5.0281719"><time>2026-07-25T09:06:20.000Z</time><extensions><accuracy>9.4</accuracy><speed>7.00</speed></extensions></trkpt>
      <trkpt lat="52.0058281" lon="5.0281672"><time>2026-07-25T09:06:21.000Z</time><extensions><accuracy>4.2</accuracy><speed>7.00</speed></extensions></trkpt>
      <trkpt lat="52.0058687" lon="5.0281762"><time>2026-07-25T09:06:22.000Z</time><extensions><accuracy>11.3</accuracy><speed>7.00</speed></extensions></trkpt>
      <trkpt lat="52.0057991" lon="5.0281211"><time>2026-07-25T09:06:23.000Z</time><extensions><accuracy>4.1</accuracy><speed>7.00</speed></extensions></trkpt>
      <trkpt lat="52.0056971" lon="5.0281330"><time>2026-07-25T09:06:24.000Z</time><extensions><accuracy>5.6</accuracy><speed>7.00</speed></extensions></trkpt>
      <trkpt lat="52.0056843" lon="5.0280748"><time>2026-07-25T09:06:25.000Z</time><extensions><accuracy>6.8</accuracy><speed>7.00</speed></extensions></trkpt>
      <trkpt lat="52.0055702" lon="5.0281388"><time>2026-07-25T09:06:26.000Z</time><extensions><accuracy>9.2</accuracy><speed>7.00</speed></extensions></trkpt>
      <trkpt lat="52.0055538" lon="5.0281680"><time>2026-07-25T09:06:27.000Z</time><extensions><accuracy>8.4</accuracy><speed>7.00</speed></extensions></trkpt>
      <trkpt lat="52.0054601" lon="5.0281644"><time>2026-07-25T09:06:28.000Z</time><extensions><accuracy>4.7</accuracy><speed>7.00</speed></extensions></trkpt>
      <trkpt lat="52.0053463" lon="5.0281855"><time>2026-07-25T09:06:29.000Z</time><extensions><accuracy>6.5</accuracy><speed>7.00</speed></extensions></trkpt>
      <trkpt lat="52.0053478" lon="5.0281158"><time>2026-07-25T09:06:30.000Z</time><extensions><accuracy>9.4</accuracy><speed>7.00</speed></extensions></trkpt>
      <trkpt lat="52.0053098" lon="5.0281271"><time>2026-07-25T09:06:31.000Z</time><extensions><accuracy>4.0</accuracy><speed>7.00</speed></extensions></trkpt>
      <trkpt lat="52.0052362" lon="5.0281607"><time>2026-07-25T09:06:32.000Z</time><extensions><accuracy>7.4</accuracy><speed>7.00</speed></extensions></trkpt>
      <trkpt lat="52.0051847" lon="5.0281376"><time>2026-07-25T09:06:33.000Z</time><extensions><accuracy>4.0</accuracy><speed>7.00</speed></extensions></trkpt>
      <trkpt lat="52.0050734" lon="5.0281347"><time>2026-07-25T09:06:34.000Z</time><extensions><accuracy>6.4</accuracy><speed>7.00</speed></extensions></trkpt>
      <trkpt lat="52.0050388" lon="5.0281953"><time>2026-07-25T09:06:35.000Z</time><extensions><accuracy>7.4</accuracy><speed>7.00</speed></extensions></trkpt>
      <trkpt lat="52.0049735" lon="5.0281933"><time>2026-07-25T09:06:36.000Z</time><extensions><accuracy>5.0</accuracy><speed>7.00</speed></extensions></trkpt>
      <trkpt lat="52.0049181" lon="5.0281852"><time>2026-07-25T09:06:37.000Z</time><extensions><accuracy>8.9</accuracy><speed>7.00</speed></extensions></trkpt>
      <trkpt lat="52.0048811" lon="5.0281963"><time>2026-07-25T09:06:38.000Z</time><extensions><accuracy>5.7</accuracy><speed>7.00</speed></extensions></trkpt>
      <trkpt lat="52.0047724" lon="5.0280737"><time>2026-07-25T09:06:39.000Z</time><extensions><accuracy>7.0</accuracy><speed>7.00</speed></extensions></trkpt>
      <trkpt lat="52.0047299" lon="5.0281866"><time>2026-07-25T09:06:40.000Z</time><extensions><accuracy>8.9</accuracy><speed>7.00</speed></extensions></trkpt>
      <trkpt lat="52.0046792" lon="5.0281588"><time>2026-07-25T09:06:41.000Z</time><extensions><accuracy>10.3</accuracy><speed>7.00</speed></extensions></trkpt>
      <trkpt lat="52.0045548" lon="5.0281431"><time>2026-07-25T09:06:42.000Z</time><extensions><accuracy>11.4</accuracy><speed>7.00</speed></extensions></trkpt>
      <trkpt lat="52.0046152" lon="5.0281142"><time>2026-07-25T09:06:43.000Z</time><extensions><accuracy>10.4</accuracy><speed>7.00</speed></extensions></trkpt>
      <trkpt lat="52.0045138" lon="5.0281461"><time>2026-07-25T09:06:44.000Z</time><extensions><accuracy>10.9</accuracy><speed>7.00</speed></extensions></trkpt>
      <trkpt lat="52.0042953" lon="5.0279864"><time>2026-07-25T09:06:45.000Z</time><extensions><accuracy>18.9</accuracy><speed>7.00</speed></extensions></trkpt>
      <trkpt lat="52.0043135" lon="5.0280721"><time>2026-07-25T09:06:46.000Z</time><extensions><accuracy>4.6</accuracy><speed>7.00</speed></extensions></trkpt>
      <trkpt lat="52.0042926" lon="5.0280774"><time>2026-07-25T09:06:47.000Z</time><extensions><accuracy>5.4</accuracy><speed>7.00</speed></extensions></trkpt>
      <trkpt lat="52.0042922" lon="5.0281748"><time>2026-07-25T09:06:48.000Z</time><extensions><accuracy>10.4</accuracy><speed>7.00</speed></extensions></trkpt>
      <trkpt lat="52.0042001" lon="5.0281943"><time>2026-07-25T09:06:49.000Z</time><extensions><accuracy>8.8</accuracy><speed>7.00</speed></extensions></trkpt>
      <trkpt lat="52.0040825" lon="5.0282437"><time>2026-07-25T09:06:50.000Z</time><extensions><accuracy>6.1</accuracy><speed>7.00</speed></extensions></trkpt>
      <trkpt lat="52.0040664" lon="5.0281010"><time>2026-07-25T09:06:51.000Z</time><extensions><accuracy>11.0</accuracy><speed>7.00</speed></extensions></trkpt>
      <trkpt lat="52.0039730" lon="5.0281124"><time>2026-07-25T09:06:52.000Z</time><extensions><accuracy>9.3</accuracy><speed>7.00</speed></extensions></trkpt>
      <trkpt lat="52.0038952" lon="5.0281392"><time>2026-07-25T09:06:53.000Z</time><extensions><accuracy>4.5</accuracy><speed>7.00</speed></extensions></trkpt>
      <trkpt lat="52.0038111" lon="5.0282096"><time>2026-07-25T09:06:54.000Z</time><extensions><accuracy>4.6</accuracy><speed>7.00</speed></extensions></trkpt>
      <trkpt lat="52.0037969" lon="5.0281752"><time>2026-07-25T09:06:55.000Z</time><extensions><accuracy>11.0</accuracy><speed>7.00</speed></extensions></trkpt>
      <trkpt lat="52.0037196" lon="5.0282221"><time>2026-07-25T09:06:56.000Z</time><extensions><accuracy>11.7</accuracy><speed>7.00</speed></extensions></trkpt>
      <trkpt lat="52.0036354" lon="5.0282147"><time>2026-07-25T09:06:57.000Z</time><extensions><accuracy>5.9</accuracy><speed>7.00</speed></extensions></trkpt>
      <trkpt lat="52.0035929" lon="5.0281124"><time>2026-07-25T09:06:58.000Z</time><extensions><accuracy>11.6</accuracy><speed>7.00</speed></extensions></trkpt>
      <trkpt lat="52.0035245" lon="5.0280278"><time>2026-07-25T09:06:59.000Z</time><extensions><accuracy>7.0</accuracy><speed>7.00</speed></extensions></trkpt>
      <trkpt lat="52.0034245" lon="5.0280909"><time>2026-07-25T09:07:00.000Z</time><extensions><accuracy>5.7</accuracy><speed>7.00</speed></extensions></trkpt>
      <trkpt lat="52.0034264" lon="5.0280784"><time>2026-07-25T09:07:01.000Z</time><extensions><accuracy>11.8</accuracy><speed>7.00</speed></extensions></trkpt>
      <trkpt lat="52.0033520" lon="5.0282181"><time>2026-07-25T09:07:02.000Z</time><extensions><accuracy>4.6</accuracy><speed>7.00</speed></extensions></trkpt>
      <trkpt lat="52.0032846" lon="5.0281534"><time>2026-07-25T09:07:03.000Z</time><extensions><accuracy>8.3</accuracy><speed>7.00</speed></extensions></trkpt>
      <trkpt lat="52.0032198" lon="5.0281527"><time>2026-07-25T09:07:04.000Z</time><extensions><accuracy>4.8</accuracy><speed>7.00</speed></extensions></trkpt>
      <trkpt lat="52.0031554" lon="5.0282449"><time>2026-07-25T09:07:05.000Z</time><extensions><accuracy>8.0</accuracy><speed>7.00</speed></extensions></trkpt>
      <trkpt lat="52.0031128" lon="5.0281711"><time>2026-07-25T09:07:06.000Z</time><extensions><accuracy>10.5</accuracy><speed>7.00</speed></extensions></trkpt>
      <trkpt lat="52.0030180" lon="5.0281338"><time>2026-07-25T09:07:07.000Z</time><extensions><accuracy>10.4</accuracy><speed>7.00</speed></extensions></trkpt>
      <trkpt lat="52.0029557" lon="5.0281411"><time>2026-07-25T09:07:08.000Z</time><extensions><accuracy>4.7</accuracy><speed>7.00</speed></extensions></trkpt>
      <trkpt lat="52.0029014" lon="5.0282716"><time>2026-07-25T09:07:09.000Z</time><extensions><accuracy>6.8</accuracy><speed>7.00</speed></extensions></trkpt>
      <trkpt lat="52.0029361" lon="5.0283594"><time>2026-07-25T09:07:10.000Z</time><extensions><accuracy>11.2</accuracy><speed>7.00</speed></extensions></trkpt>
      <trkpt lat="52.0029514" lon="5.0283004"><time>2026-07-25T09:07:11.000Z</time><extensions><accuracy>11.8</accuracy><speed>7.00</speed></extensions></trkpt>
      <trkpt lat="52.0029619" lon="5.0284220"><time>2026-07-25T09:07:12.000Z</time><extensions><accuracy>11.3</accuracy><speed>7.00</speed></extensions></trkpt>
      <trkpt lat="52.0029654" lon="5.0285650"><time>2026-07-25T09:07:13.000Z</time><extensions><accuracy>6.9</accuracy><speed>7.00</speed></extensions></trkpt>
      <trkpt lat="52.0029431" lon="5.0286498"><time>2026-07-25T09:07:14.000Z</time><extensions><accuracy>8.6</accuracy><speed>7.00</speed></extensions></trkpt>
      <trkpt lat="52.0029648" lon="5.0288396"><time>2026-07-25T09:07:15.000Z</time><extensions><accuracy>5.9</accuracy><speed>7.00</speed></extensions></trkpt>
      <trkpt lat="52.0029582" lon="5.0288787"><time>2026-07-25T09:07:16.000Z</time><extensions><accuracy>4.3</accuracy><speed>7.00</speed></extensions></trkpt>
      <trkpt lat="52.0029663" lon="5.0290159"><time>2026-07-25T09:07:17.000Z</time><extensions><accuracy>5.3</accuracy><speed>7.00</speed></extensions></trkpt>
      <trkpt lat="52.0029285" lon="5.0291172"><time>2026-07-25T09:07:18.000Z</time><extensions><accuracy>6.4</accuracy><speed>7.00</speed></extensions></trkpt>
      <trkpt lat="52.0028982" lon="5.0292913"><time>2026-07-25T09:07:19.000Z</time><extensions><accuracy>8.2</accuracy><speed>7.00</speed></extensions></trkpt>
      <trkpt lat="52.0029553" lon="5.0293055"><time>2026-07-25T09:07:20.000Z</time><extensions><accuracy>5.2</accuracy><speed>7.00</speed></extensions></trkpt>
      <trkpt lat="52.0029734" lon="5.0295487"><time>2026-07-25T09:07:21.000Z</time><extensions><accuracy>8.1</accuracy><speed>7.00</speed></extensions></trkpt>
      <trkpt lat="52.0028975" lon="5.0295657"><time>2026-07-25T09:07:22.000Z</time><extensions><accuracy>5.2</accuracy><speed>7.00</speed></extensions></trkpt>
      <trkpt lat="52.0029170" lon="5.0296431"><time>2026-07-25T09:07:23.000Z</time><extensions><accuracy>8.2</accuracy><speed>7.00</speed></extensions></trkpt>
      <trkpt lat="52.0029055" lon="5.0297389"><time>2026-07-25T09:07:24.000Z</time><extensions><accuracy>11.6</accuracy><speed>7.00</speed></extensions></trkpt>
      <trkpt lat="52.0029688" lon="5.0297641"><time>2026-07-25T09:07:25.000Z</time><extensions><accuracy>9.2</accuracy><speed>7.00</speed></extensions></trkpt>
      <trkpt lat="52.0028911" lon="5.0299041"><time>2026-07-25T09:07:26.000Z</time><extensions><accuracy>5.9</accuracy><speed>7.00</speed></extensions></trkpt>
      <trkpt lat="52.0028822" lon="5.0300455"><time>2026-07-25T09:07:27.000Z</time><extensions><accuracy>8.4</accuracy><speed>7.00</speed></extensions></trkpt>
      <trkpt lat="52.0028835" lon="5.0302033"><time>2026-07-25T09:07:28.000Z</time><extensions><accuracy>11.9</accuracy><speed>7.00</speed></extensions></trkpt>
      <trkpt lat="52.0028620" lon="5.0302491"><time>2026-07-25T09:07:29.000Z</time><extensions><accuracy>4.5</accuracy><speed>7.00</speed></extensions></trkpt>
      <trkpt lat="52.0028897" lon="5.0302997"><time>2026-07-25T09:07:30.000Z</time><extensions><accuracy>23.6</accuracy><speed>7.00</speed></extensions></trkpt>
      <trkpt lat="52.0029997" lon="5.0303799"><time>2026-07-25T09:07:31.000Z</time><extensions><accuracy>8.0</accuracy><speed>7.00</speed></extensions></trkpt>
      <trkpt lat="52.0029077" lon="5.0305476"><time>2026-07-25T09:07:32.000Z</time><extensions><accuracy>8.5</accuracy><speed>7.00</speed></extensions></trkpt>
      <trkpt lat="52.0029029" lon="5.0306690"><time>2026-07-25T09:07:33.000Z</time><extensions><accuracy>9.6</accuracy><speed>7.00</speed></extensions></trkpt>
      <trkpt lat="52.0029348" lon="5.0307364"><time>2026-07-25T09:07:34.000Z</time><extensions><accuracy>8.8</accuracy><speed>7.00</speed></extensions></trkpt>
      <trkpt lat="52.0028875" lon="5.0308372"><time>2026-07-25T09:07:35.000Z</time><extensions><accuracy>10.8</accuracy><speed>7.00</speed></extensions></trkpt>
      <trkpt lat="52.0029674" lon="5.0309432"><time>2026-07-25T09:07:36.000Z</time><extensions><accuracy>9.1</accuracy><speed>7.00</speed></extensions></trkpt>
      <trkpt lat="52.0029246" lon="5.0310342"><time>2026-07-25T09:07:37.000Z</time><extensions><accuracy>10.6</accuracy><speed>7.00</speed></extensions></trkpt>
      <trkpt lat="52.0029884" lon="5.0312616"><time>2026-07-25T09:07:38.000Z</time><extensions><accuracy>6.0</accuracy><speed>7.00</speed></extensions></trkpt>
      <trkpt lat="52.0029641" lon="5.0312841"><time>2026-07-25T09:07:39.000Z</time><extensions><accuracy>6.5</accuracy><speed>7.00</speed></extensions></trkpt>
      <trkpt lat="52.0029934" lon="5.0313581"><time>2026-07-25T09:07:40.000Z</time><extensions><accuracy>10.8</accuracy><speed>7.00</speed></extensions></trkpt>
      <trkpt lat="52.0028554" lon="5.0315249"><time>2026-07-25T09:07:41.000Z</time><extensions><accuracy>7.2</accuracy><speed>7.00</speed></extensions></trkpt>
      <trkpt lat="52.0029397" lon="5.0315992"><time>2026-07-25T09:07:42.000Z</time><extensions><accuracy>7.5</accuracy><speed>7.00</speed></extensions></trkpt>
      <trkpt lat="52.0029298" lon="5.0318056"><time>2026-07-25T09:07:43.000Z</time><extensions><accuracy>9.6</accuracy><speed>7.00</speed></extensions></trkpt>
      <trkpt lat="52.0028853" lon="5.0318903"><time>2026-07-25T09:07:44.000Z</time><extensions><accuracy>9.0</accuracy><speed>7.00</speed></extensions></trkpt>
      <trkpt lat="52.0028748" lon="5.0318926"><time>2026-07-25T09:07:45.000Z</time><extensions><accuracy>5.6</accuracy><speed>7.00</speed></extensions></trkpt>
      <trkpt lat="52.0028800" lon="5.0319382"><time>2026-07-25T09:07:46.000Z</time><extensions><accuracy>6.3</accuracy><speed>7.00</speed></extensions></trkpt>
      <trkpt lat="52.0029665" lon="5.0321071"><time>2026-07-25T09:07:47.000Z</time><extensions><accuracy>8.1</accuracy><speed>7.00</speed></extensions></trkpt>
      <trkpt lat="52.0028714" lon="5.0321109"><time>2026-07-25T09:07:48.000Z</time><extensions><accuracy>11.4</accuracy><speed>7.00</speed></extensions></trkpt>
      <trkpt lat="52.0029323" lon="5.0323210"><time>2026-07-25T09:07:49.000Z</time><extensions><accuracy>10.8</accuracy><speed>7.00</speed></extensions></trkpt>
      <trkpt lat="52.0030330" lon="5.0325256"><time>2026-07-25T09:07:50.000Z</time><extensions><accuracy>10.4</accuracy><speed>7.00</speed></extensions></trkpt>
      <trkpt lat="52.0029480" lon="5.0324610"><time>2026-07-25T09:07:51.000Z</time><extensions><accuracy>7.1</accuracy><speed>7.00</speed></extensions></trkpt>
      <trkpt lat="52.0029512" lon="5.0324009"><time>2026-07-25T09:07:52.000Z</time><extensions><accuracy>4.4</accuracy><speed>7.00</speed></extensions></trkpt>
      <trkpt lat="52.0029084" lon="5.0326039"><time>2026-07-25T09:07:53.000Z</time><extensions><accuracy>5.6</accuracy><speed>7.00</speed></extensions></trkpt>
      <trkpt lat="52.0029418" lon="5.0327382"><time>2026-07-25T09:07:54.000Z</time><extensions><accuracy>5.0</accuracy><speed>7.00</speed></extensions></trkpt>
      <trkpt lat="52.0029158" lon="5.0328667"><time>2026-07-25T09:07:55.000Z</time><extensions><accuracy>7.9</accuracy><speed>7.00</speed></extensions></trkpt>
      <trkpt lat="52.0029399" lon="5.0330673"><time>2026-07-25T09:07:56.000Z</time><extensions><accuracy>9.9</accuracy><speed>7.00</speed></extensions></trkpt>
      <trkpt lat="52.0029184" lon="5.0329979"><time>2026-07-25T09:07:57.000Z</time><extensions><accuracy>11.3</accuracy><speed>7.00</speed></extensions></trkpt>
      <trkpt lat="52.0029606" lon="5.0331659"><time>2026-07-25T09:07:58.000Z</time><extensions><accuracy>8.2</accuracy><speed>7.00</speed></extensions></trkpt>
      <trkpt lat="52.0028973" lon="5.0332943"><time>2026-07-25T09:07:59.000Z</time><extensions><accuracy>5.9</accuracy><speed>7.00</speed></extensions></trkpt>
      <trkpt lat="52.0028982" lon="5.0333837"><time>2026-07-25T09:08:00.000Z</time><extensions><accuracy>7.8</accuracy><speed>7.00</speed></extensions></trkpt>
      <trkpt lat="52.0029200" lon="5.0335357"><time>2026-07-25T09:08:01.000Z</time><extensions><accuracy>10.2</accuracy><speed>7.00</speed></extensions></trkpt>
      <trkpt lat="52.0029532" lon="5.0335778"><time>2026-07-25T09:08:02.000Z</time><extensions><accuracy>11.2</accuracy><speed>7.00</speed></extensions></trkpt>
      <trkpt lat="52.0029488" lon="5.0336811"><time>2026-07-25T09:08:03.000Z</time><extensions><accuracy>7.7</accuracy><speed>7.00</speed></extensions></trkpt>
      <trkpt lat="52.0028654" lon="5.0338885"><time>2026-07-25T09:08:04.000Z</time><extensions><accuracy>11.5</accuracy><speed>7.00</speed></extensions></trkpt>
      <trkpt lat="52.0029253" lon="5.0339350"><time>2026-07-25T09:08:05.000Z</time><extensions><accuracy>8.9</accuracy><speed>7.00</speed></extensions></trkpt>
      <trkpt lat="52.0029477" lon="5.0340937"><time>2026-07-25T09:08:06.000Z</time><extensions><accuracy>5.0</accuracy><speed>7.00</speed></extensions></trkpt>
      <trkpt lat="52.0029308" lon="5.0341307"><time>2026-07-25T09:08:07.000Z</time><extensions><accuracy>9.5</accuracy><speed>7.00</speed></extensions></trkpt>
      <trkpt lat="52.0029595" lon="5.0342665"><time>2026-07-25T09:08:08.000Z</time><extensions><accuracy>6.5</accuracy><speed>7.00</speed></extensions></trkpt>
      <trkpt lat="52.0029554" lon="5.0343228"><time>2026-07-25T09:08:09.000Z</time><extensions><accuracy>9.8</accuracy><speed>7.00</speed></extensions></trkpt>
      <trkpt lat="52.0030099" lon="5.0344912"><time>2026-07-25T09:08:10.000Z</time><extensions><accuracy>5.0</accuracy><speed>7.00</speed></extensions></trkpt>
      <trkpt lat="52.0029011" lon="5.0345088"><time>2026-07-25T09:08:11.000Z</time><extensions><accuracy>5.1</accuracy><speed>7.00</speed></extensions></trkpt>
      <trkpt lat="52.0028896" lon="5.0345731"><time>2026-07-25T09:08:12.000Z</time><extensions><accuracy>5.2</accuracy><speed>7.00</speed></extensions></trkpt>
      <trkpt lat="52.0029532" lon="5.0347234"><time>2026-07-25T09:08:13.000Z</time><extensions><accuracy>5.2</accuracy><speed>7.00</speed></extensions></trkpt>
      <trkpt lat="52.0029596" lon="5.0348837"><time>2026-07-25T09:08:14.000Z</time><extensions><accuracy>10.5</accuracy><speed>7.00</speed></extensions></trkpt>
      <trkpt lat="52.0029635" lon="5.0349346"><time>2026-07-25T09:08:15.000Z</time><extensions><accuracy>22.6</accuracy><speed>7.00</speed></extensions></trkpt>
      <trkpt lat="52.0029543" lon="5.0351027"><time>2026-07-25T09:08:16.000Z</time><extensions><accuracy>4.8</accuracy><speed>7.00</speed></extensions></trkpt>
      <trkpt lat="52.0029476" lon="5.0352153"><time>2026-07-25T09:08:17.000Z</time><extensions><accuracy>4.1</accuracy><speed>7.00</speed></extensions></trkpt>
      <trkpt lat="52.0029668" lon="5.0352316"><time>2026-07-25T09:08:18.000Z</time><extensions><accuracy>9.2</accuracy><speed>7.00</speed></extensions></trkpt>
      <trkpt lat="52.0029562" lon="5.0354199"><time>2026-07-25T09:08:19.000Z</time><extensions><accuracy>9.9</accuracy><speed>7.00</speed></extensions></trkpt>
      <trkpt lat="52.0029899" lon="5.0355474"><time>2026-07-25T09:08:20.000Z</time><extensions><accuracy>11.6</accuracy><speed>7.00</speed></extensions></trkpt>
      <trkpt lat="52.0028439" lon="5.0356784"><time>2026-07-25T09:08:21.000Z</time><extensions><accuracy>8.7</accuracy><speed>7.00</speed></extensions></trkpt>
      <trkpt lat="52.0029237" lon="5.0356799"><time>2026-07-25T09:08:22.000Z</time><extensions><accuracy>5.5</accuracy><speed>7.00</speed></extensions></trkpt>
      <trkpt lat="52.0029303" lon="5.0356923"><time>2026-07-25T09:08:23.000Z</time><extensions><accuracy>8.6</accuracy><speed>7.00</speed></extensions></trkpt>
      <trkpt lat="52.0027800" lon="5.0358904"><time>2026-07-25T09:08:24.000Z</time><extensions><accuracy>10.8</accuracy><speed>7.00</speed></extensions></trkpt>
      <trkpt lat="52.0029728" lon="5.0359781"><time>2026-07-25T09:08:25.000Z</time><extensions><accuracy>5.9</accuracy><speed>7.00</speed></extensions></trkpt>
      <trkpt lat="52.0029224" lon="5.0360095"><time>2026-07-25T09:08:26.000Z</time><extensions><accuracy>11.7</accuracy><speed>7.00</speed></extensions></trkpt>
      <trkpt lat="52.0028910" lon="5.0363315"><time>2026-07-25T09:08:27.000Z</time><extensions><accuracy>7.1</accuracy><speed>7.00</speed></extensions></trkpt>
      <trkpt lat="52.0028662" lon="5.0362260"><time>2026-07-25T09:08:28.000Z</time><extensions><accuracy>11.6</accuracy><speed>7.00</speed></extensions></trkpt>
      <trkpt lat="52.0029745" lon="5.0362967"><time>2026-07-25T09:08:29.000Z</time><extensions><accuracy>4.8</accuracy><speed>7.00</speed></extensions></trkpt>
      <trkpt lat="52.0029313" lon="5.0364175"><time>2026-07-25T09:08:30.000Z</time><extensions><accuracy>11.5</accuracy><speed>7.00</speed></extensions></trkpt>
      <trkpt lat="52.0028615" lon="5.0365916"><time>2026-07-25T09:08:31.000Z</time><extensions><accuracy>9.5</accuracy><speed>7.00</speed></extensions></trkpt>
      <trkpt lat="52.0029316" lon="5.0367527"><time>2026-07-25T09:08:32.000Z</time><extensions><accuracy>8.1</accuracy><speed>7.00</speed></extensions></trkpt>
      <trkpt lat="52.0029616" lon="5.0368455"><time>2026-07-25T09:08:33.000Z</time><extensions><accuracy>5.2</accuracy><speed>7.00</speed></extensions></trkpt>
      <trkpt lat="52.0029235" lon="5.0368436"><time>2026-07-25T09:08:34.000Z</time><extensions><accuracy>4.4</accuracy><speed>7.00</speed></extensions></trkpt>
      <trkpt lat="52.0029495" lon="5.0370111"><time>2026-07-25T09:08:35.000Z</time><extensions><accuracy>4.7</accuracy><speed>7.00</speed></extensions></trkpt>
      <trkpt lat="52.0029113" lon="5.0371867"><time>2026-07-25T09:08:36.000Z</time><extensions><accuracy>6.5</accuracy><speed>7.00</speed></extensions></trkpt>
      <trkpt lat="52.0029575" lon="5.0372472"><time>2026-07-25T09:08:37.000Z</time><extensions><accuracy>5.8</accuracy><speed>7.00</speed></extensions></trkpt>
      <trkpt lat="52.0029815" lon="5.0373046"><time>2026-07-25T09:08:38.000Z</time><extensions><accuracy>7.9</accuracy><speed>7.00</speed></extensions></trkpt>
      <trkpt lat="52.0029080" lon="5.0373616"><time>2026-07-25T09:08:39.000Z</time><extensions><accuracy>4.5</accuracy><speed>7.00</speed></extensions></trkpt>
      <trkpt lat="52.0029201" lon="5.0375534"><time>2026-07-25T09:08:40.000Z</time><extensions><accuracy>8.3</accuracy><speed>7.00</speed></extensions></trkpt>
      <trkpt lat="52.0029741" lon="5.0376416"><time>2026-07-25T09:08:41.000Z</time><extensions><accuracy>4.3</accuracy><speed>7.00</speed></extensions></trkpt>
      <trkpt lat="52.0028841" lon="5.0376687"><time>2026-07-25T09:08:42.000Z</time><extensions><accuracy>9.5</accuracy><speed>7.00</speed></extensions></trkpt>
      <trkpt lat="52.0029978" lon="5.0378472"><time>2026-07-25T09:08:43.000Z</time><extensions><accuracy>8.4</accuracy><speed>7.00</speed></extensions></trkpt>
      <trkpt lat="52.0028904" lon="5.0378365"><time>2026-07-25T09:08:44.000Z</time><extensions><accuracy>7.5</accuracy><speed>7.00</speed></extensions></trkpt>
      <trkpt lat="52.0028915" lon="5.0380444"><time>2026-07-25T09:08:45.000Z</time><extensions><accuracy>10.5</accuracy><speed>7.00</speed></extensions></trkpt>
      <trkpt lat="52.0029539" lon="5.0380393"><time>2026-07-25T09:08:46.000Z</time><extensions><accuracy>10.4</accuracy><speed>7.00</speed></extensions></trkpt>
      <trkpt lat="52.0029704" lon="5.0381663"><time>2026-07-25T09:08:47.000Z</time><extensions><accuracy>6.4</accuracy><speed>7.00</speed></extensions></trkpt>
      <trkpt lat="52.0029232" lon="5.0383862"><time>2026-07-25T09:08:48.000Z</time><extensions><accuracy>6.2</accuracy><speed>7.00</speed></extensions></trkpt>
      <trkpt lat="52.0029204" lon="5.0384554"><time>2026-07-25T09:08:49.000Z</time><extensions><accuracy>6.4</accuracy><speed>7.00</speed></extensions></trkpt>
      <trkpt lat="52.0028878" lon="5.0386230"><time>2026-07-25T09:08:50.000Z</time><extensions><accuracy>9.7</accuracy><speed>7.00</speed></extensions></trkpt>
      <trkpt lat="52.0028851" lon="5.0385337"><time>2026-07-25T09:08:51.000Z</time><extensions><accuracy>5.1</accuracy><speed>7.00</speed></extensions></trkpt>
      <trkpt lat="52.0029200" lon="5.0386579"><time>2026-07-25T09:08:52.000Z</time><extensions><accuracy>9.4</accuracy><speed>7.00</speed></extensions></trkpt>
      <trkpt lat="52.0029136" lon="5.0388324"><time>2026-07-25T09:08:53.000Z</time><extensions><accuracy>5.5</accuracy><speed>7.00</speed></extensions></trkpt>
      <trkpt lat="52.0029243" lon="5.0389679"><time>2026-07-25T09:08:54.000Z</time><extensions><accuracy>10.9</accuracy><speed>7.00</speed></extensions></trkpt>
      <trkpt lat="52.0029502" lon="5.0390203"><time>2026-07-25T09:08:55.000Z</time><extensions><accuracy>6.6</accuracy><speed>7.00</speed></extensions></trkpt>
      <trkpt lat="52.0029636" lon="5.0390937"><time>2026-07-25T09:08:56.000Z</time><extensions><accuracy>6.0</accuracy><speed>7.00</speed></extensions></trkpt>
      <trkpt lat="52.0029736" lon="5.0391783"><time>2026-07-25T09:08:57.000Z</time><extensions><accuracy>9.6</accuracy><speed>7.00</speed></extensions></trkpt>
      <trkpt lat="52.0029603" lon="5.0392799"><time>2026-07-25T09:08:58.000Z</time><extensions><accuracy>7.2</accuracy><speed>7.00</speed></extensions></trkpt>
      <trkpt lat="52.0028828" lon="5.0393666"><time>2026-07-25T09:08:59.000Z</time><extensions><accuracy>7.9</accuracy><speed>7.00</speed></extensions></trkpt>
      <trkpt lat="52.0030204" lon="5.0394982"><time>2026-07-25T09:09:00.000Z</time><extensions><accuracy>20.7</accuracy><speed>7.00</speed></extensions></trkpt>
      <trkpt lat="52.0029392" lon="5.0396361"><time>2026-07-25T09:09:01.000Z</time><extensions><accuracy>7.2</accuracy><speed>7.00</speed></extensions></trkpt>
      <trkpt lat="52.0029524" lon="5.0396814"><time>2026-07-25T09:09:02.000Z</time><extensions><accuracy>5.3</accuracy><speed>7.00</speed></extensions></trkpt>
      <trkpt lat="52.0029636" lon="5.0397148"><time>2026-07-25T09:09:03.000Z</time><extensions><accuracy>11.4</accuracy><speed>7.00</speed></extensions></trkpt>
      <trkpt lat="52.0029246" lon="5.0399381"><time>2026-07-25T09:09:04.000Z</time><extensions><accuracy>11.3</accuracy><speed>7.00</speed></extensions></trkpt>
      <trkpt lat="52.0029658" lon="5.0400500"><time>2026-07-25T09:09:05.000Z</time><extensions><accuracy>8.2</accuracy><speed>7.00</speed></extensions></trkpt>
      <trkpt lat="52.0029031" lon="5.0399711"><time>2026-07-25T09:09:06.000Z</time><extensions><accuracy>7.8</accuracy><speed>7.00</speed></extensions></trkpt>
      <trkpt lat="52.0028963" lon="5.0403113"><time>2026-07-25T09:09:07.000Z</time><extensions><accuracy>8.0</accuracy><speed>7.00</speed></extensions></trkpt>
      <trkpt lat="52.0029370" lon="5.0401894"><time>2026-07-25T09:09:08.000Z</time><extensions><accuracy>4.3</accuracy><speed>7.00</speed></extensions></trkpt>
      <trkpt lat="52.0029252" lon="5.0404616"><time>2026-07-25T09:09:09.000Z</time><extensions><accuracy>4.7</accuracy><speed>7.00</speed></extensions></trkpt>
      <trkpt lat="52.0028955" lon="5.0406611"><time>2026-07-25T09:09:10.000Z</time><extensions><accuracy>5.9</accuracy><speed>7.00</speed></extensions></trkpt>
      <trkpt lat="52.0029815" lon="5.0406562"><time>2026-07-25T09:09:11.000Z</time><extensions><accuracy>8.1</accuracy><speed>7.00</speed></extensions></trkpt>
      <trkpt lat="52.0029375" lon="5.0407217"><time>2026-07-25T09:09:12.000Z</time><extensions><accuracy>9.6</accuracy><speed>7.00</speed></extensions></trkpt>
      <trkpt lat="52.0029709" lon="5.0408590"><time>2026-07-25T09:09:13.000Z</time><extensions><accuracy>10.3</accuracy><speed>7.00</speed></extensions></trkpt>
      <trkpt lat="52.0029159" lon="5.0410100"><time>2026-07-25T09:09:14.000Z</time><extensions><accuracy>10.5</accuracy><speed>7.00</speed></extensions></trkpt>
      <trkpt lat="52.0028761" lon="5.0410444"><time>2026-07-25T09:09:15.000Z</time><extensions><accuracy>6.0</accuracy><speed>7.00</speed></extensions></trkpt>
      <trkpt lat="52.0028955" lon="5.0411233"><time>2026-07-25T09:09:16.000Z</time><extensions><accuracy>9.6</accuracy><speed>7.00</speed></extensions></trkpt>
      <trkpt lat="52.0028915" lon="5.0413485"><time>2026-07-25T09:09:17.000Z</time><extensions><accuracy>11.7</accuracy><speed>7.00</speed></extensions></trkpt>
      <trkpt lat="52.0029182" lon="5.0413857"><time>2026-07-25T09:09:18.000Z</time><extensions><accuracy>6.9</accuracy><speed>7.00</speed></extensions></trkpt>
      <trkpt lat="52.0029326" lon="5.0414585"><time>2026-07-25T09:09:19.000Z</time><extensions><accuracy>9.5</accuracy><speed>7.00</speed></extensions></trkpt>
      <trkpt lat="52.0028715" lon="5.0415790"><time>2026-07-25T09:09:20.000Z</time><extensions><accuracy>11.5</accuracy><speed>7.00</speed></extensions></trkpt>
      <trkpt lat="52.0029413" lon="5.0416395"><time>2026-07-25T09:09:21.000Z</time><extensions><accuracy>8.3</accuracy><speed>7.00</speed></extensions></trkpt>
      <trkpt lat="52.0028757" lon="5.0418423"><time>2026-07-25T09:09:22.000Z</time><extensions><accuracy>7.7</accuracy><speed>7.00</speed></extensions></trkpt>
      <trkpt lat="52.0029426" lon="5.0419092"><time>2026-07-25T09:09:23.000Z</time><extensions><accuracy>5.5</accuracy><speed>7.00</speed></extensions></trkpt>
      <trkpt lat="52.0029181" lon="5.0419650"><time>2026-07-25T09:09:24.000Z</time><extensions><accuracy>6.3</accuracy><speed>7.00</speed></extensions></trkpt>
      <trkpt lat="52.0028952" lon="5.0420548"><time>2026-07-25T09:09:25.000Z</time><extensions><accuracy>11.8</accuracy><speed>7.00</speed></extensions></trkpt>
      <trkpt lat="52.0028590" lon="5.0420615"><time>2026-07-25T09:09:26.000Z</time><extensions><accuracy>4.7</accuracy><speed>7.00</speed></extensions></trkpt>
      <trkpt lat="52.0029743" lon="5.0423135"><time>2026-07-25T09:09:27.000Z</time><extensions><accuracy>4.5</accuracy><speed>7.00</speed></extensions></trkpt>
      <trkpt lat="52.0029455" lon="5.0424050"><time>2026-07-25T09:09:28.000Z</time><extensions><accuracy>6.8</accuracy><speed>7.00</speed></extensions></trkpt>
      <trkpt lat="52.0028880" lon="5.0424644"><time>2026-07-25T09:09:29.000Z</time><extensions><accuracy>6.6</accuracy><speed>7.00</speed></extensions></trkpt>
      <trkpt lat="52.0029561" lon="5.0427134"><time>2026-07-25T09:09:30.000Z</time><extensions><accuracy>11.0</accuracy><speed>7.00</speed></extensions></trkpt>
      <trkpt lat="52.0029292" lon="5.0427436"><time>2026-07-25T09:09:31.000Z</time><extensions><accuracy>9.3</accuracy><speed>7.00</speed></extensions></trkpt>
    </trkseg>
  </trk>
</gpx>
