<?xml version="1.0" encoding="UTF-8"?>
<gpx version="1.1" creator="sparki-nav-replay-fixtures" xmlns="http://www.topografix.com/GPX/1/1">
  <trk>
    <name>Bewuste afwijking op km 1,2</name>
    <trkseg>
      <trkpt lat="51.9999586" lon="4.9999458"><time>2026-07-25T09:00:00.000Z</time><extensions><accuracy>10.9</accuracy><speed>7.00</speed></extensions></trkpt>
      <trkpt lat="52.0000043" lon="5.0001328"><time>2026-07-25T09:00:01.000Z</time><extensions><accuracy>9.2</accuracy><speed>7.00</speed></extensions></trkpt>
      <trkpt lat="52.0000567" lon="5.0001972"><time>2026-07-25T09:00:02.000Z</time><extensions><accuracy>7.1</accuracy><speed>7.00</speed></extensions></trkpt>
      <trkpt lat="52.0000564" lon="5.0003490"><time>2026-07-25T09:00:03.000Z</time><extensions><accuracy>11.7</accuracy><speed>7.00</speed></extensions></trkpt>
      <trkpt lat="52.0000298" lon="5.0003741"><time>2026-07-25T09:00:04.000Z</time><extensions><accuracy>5.7</accuracy><speed>7.00</speed></extensions></trkpt>
      <trkpt lat="52.0000555" lon="5.0005174"><time>2026-07-25T09:00:05.000Z</time><extensions><accuracy>6.7</accuracy><speed>7.00</speed></extensions></trkpt>
      <trkpt lat="52.0000418" lon="5.0006010"><time>2026-07-25T09:00:06.000Z</time><extensions><accuracy>9.8</accuracy><speed>7.00</speed></extensions></trkpt>
      <trkpt lat="52.0000020" lon="5.0006270"><time>2026-07-25T09:00:07.000Z</time><extensions><accuracy>5.9</accuracy><speed>7.00</speed></extensions></trkpt>
      <trkpt lat="52.0000389" lon="5.0008214"><time>2026-07-25T09:00:08.000Z</time><extensions><accuracy>8.5</accuracy><speed>7.00</speed></extensions></trkpt>
      <trkpt lat="52.0001031" lon="5.0009776"><time>2026-07-25T09:00:09.000Z</time><extensions><accuracy>8.0</accuracy><speed>7.00</speed></extensions></trkpt>
      <trkpt lat="52.0000293" lon="5.0011277"><time>2026-07-25T09:00:10.000Z</time><extensions><accuracy>5.2</accuracy><speed>7.00</speed></extensions></trkpt>
      <trkpt lat="52.0000368" lon="5.0012095"><time>2026-07-25T09:00:11.000Z</time><extensions><accuracy>10.1</accuracy><speed>7.00</speed></extensions></trkpt>
      <trkpt lat="52.0000377" lon="5.0012377"><time>2026-07-25T09:00:12.000Z</time><extensions><accuracy>8.5</accuracy><speed>7.00</speed></extensions></trkpt>
      <trkpt lat="51.9999850" lon="5.0013712"><time>2026-07-25T09:00:13.000Z</time><extensions><accuracy>11.0</accuracy><speed>7.00</speed></extensions></trkpt>
      <trkpt lat="52.0000879" lon="5.0014682"><time>2026-07-25T09:00:14.000Z</time><extensions><accuracy>11.3</accuracy><speed>7.00</speed></extensions></trkpt>
      <trkpt lat="52.0000541" lon="5.0016670"><time>2026-07-25T09:00:15.000Z</time><extensions><accuracy>6.4</accuracy><speed>7.00</speed></extensions></trkpt>
      <trkpt lat="52.0000073" lon="5.0017113"><time>2026-07-25T09:00:16.000Z</time><extensions><accuracy>8.2</accuracy><speed>7.00</speed></extensions></trkpt>
      <trkpt lat="52.0000228" lon="5.0017308"><time>2026-07-25T09:00:17.000Z</time><extensions><accuracy>8.0</accuracy><speed>7.00</speed></extensions></trkpt>
      <trkpt lat="52.0000169" lon="5.0019577"><time>2026-07-25T09:00:18.000Z</time><extensions><accuracy>6.6</accuracy><speed>7.00</speed></extensions></trkpt>
      <trkpt lat="52.0000404" lon="5.0019084"><time>2026-07-25T09:00:19.000Z</time><extensions><accuracy>10.4</accuracy><speed>7.00</speed></extensions></trkpt>
      <trkpt lat="52.0000486" lon="5.0020526"><time>2026-07-25T09:00:20.000Z</time><extensions><accuracy>7.1</accuracy><speed>7.00</speed></extensions></trkpt>
      <trkpt lat="52.0000771" lon="5.0022459"><time>2026-07-25T09:00:21.000Z</time><extensions><accuracy>5.5</accuracy><speed>7.00</speed></extensions></trkpt>
      <trkpt lat="52.0000284" lon="5.0022719"><time>2026-07-25T09:00:22.000Z</time><extensions><accuracy>10.9</accuracy><speed>7.00</speed></extensions></trkpt>
      <trkpt lat="51.9999759" lon="5.0024761"><time>2026-07-25T09:00:23.000Z</time><extensions><accuracy>8.0</accuracy><speed>7.00</speed></extensions></trkpt>
      <trkpt lat="52.0000487" lon="5.0024197"><time>2026-07-25T09:00:24.000Z</time><extensions><accuracy>11.1</accuracy><speed>7.00</speed></extensions></trkpt>
      <trkpt lat="51.9999993" lon="5.0026156"><time>2026-07-25T09:00:25.000Z</time><extensions><accuracy>11.6</accuracy><speed>7.00</speed></extensions></trkpt>
      <trkpt lat="52.0000561" lon="5.0027004"><time>2026-07-25T09:00:26.000Z</time><extensions><accuracy>7.2</accuracy><speed>7.00</speed></extensions></trkpt>
      <trkpt lat="52.0000526" lon="5.0028438"><time>2026-07-25T09:00:27.000Z</time><extensions><accuracy>10.1</accuracy><speed>7.00</speed></extensions></trkpt>
      <trkpt lat="51.9999799" lon="5.0029563"><time>2026-07-25T09:00:28.000Z</time><extensions><accuracy>9.9</accuracy><speed>7.00</speed></extensions></trkpt>
      <trkpt lat="51.9999926" lon="5.0030365"><time>2026-07-25T09:00:29.000Z</time><extensions><accuracy>7.2</accuracy><speed>7.00</speed></extensions></trkpt>
      <trkpt lat="52.0000582" lon="5.0031125"><time>2026-07-25T09:00:30.000Z</time><extensions><accuracy>10.6</accuracy><speed>7.00</speed></extensions></trkpt>
      <trkpt lat="52.0000613" lon="5.0032201"><time>2026-07-25T09:00:31.000Z</time><extensions><accuracy>6.6</accuracy><speed>7.00</speed></extensions></trkpt>
      <trkpt lat="51.9999676" lon="5.0032976"><time>2026-07-25T09:00:32.000Z</time><extensions><accuracy>9.3</accuracy><speed>7.00</speed></extensions></trkpt>
      <trkpt lat="52.0000812" lon="5.0034431"><time>2026-07-25T09:00:33.000Z</time><extensions><accuracy>8.5</accuracy><speed>7.00</speed></extensions></trkpt>
      <trkpt lat="51.9999870" lon="5.0035220"><time>2026-07-25T09:00:34.000Z</time><extensions><accuracy>5.3</accuracy><speed>7.00</speed></extensions></trkpt>
      <trkpt lat="52.0000180" lon="5.0036142"><time>2026-07-25T09:00:35.000Z</time><extensions><accuracy>8.1</accuracy><speed>7.00</speed></extensions></trkpt>
      <trkpt lat="51.9999448" lon="5.0037587"><time>2026-07-25T09:00:36.000Z</time><extensions><accuracy>6.4</accuracy><speed>7.00</speed></extensions></trkpt>
      <trkpt lat="51.9999678" lon="5.0037813"><time>2026-07-25T09:00:37.000Z</time><extensions><accuracy>11.1</accuracy><speed>7.00</speed></extensions></trkpt>
      <trkpt lat="51.9999567" lon="5.0039204"><time>2026-07-25T09:00:38.000Z</time><extensions><accuracy>9.4</accuracy><speed>7.00</speed></extensions></trkpt>
      <trkpt lat="51.9999941" lon="5.0040875"><time>2026-07-25T09:00:39.000Z</time><extensions><accuracy>11.7</accuracy><speed>7.00</speed></extensions></trkpt>
      <trkpt lat="51.9999798" lon="5.0041113"><time>2026-07-25T09:00:40.000Z</time><extensions><accuracy>10.6</accuracy><speed>7.00</speed></extensions></trkpt>
      <trkpt lat="52.0000161" lon="5.0042511"><time>2026-07-25T09:00:41.000Z</time><extensions><accuracy>6.7</accuracy><speed>7.00</speed></extensions></trkpt>
      <trkpt lat="52.0000590" lon="5.0044210"><time>2026-07-25T09:00:42.000Z</time><extensions><accuracy>11.6</accuracy><speed>7.00</speed></extensions></trkpt>
      <trkpt lat="51.9999964" lon="5.0043689"><time>2026-07-25T09:00:43.000Z</time><extensions><accuracy>11.4</accuracy><speed>7.00</speed></extensions></trkpt>
      <trkpt lat="51.9999843" lon="5.0044540"><time>2026-07-25T09:00:44.000Z</time><extensions><accuracy>6.1</accuracy><speed>7.00</speed></extensions></trkpt>
      <trkpt lat="52.0003031" lon="5.0045443"><time>2026-07-25T09:00:45.000Z</time><extensions><accuracy>22.5</accuracy><speed>7.00</speed></extensions></trkpt>
      <trkpt lat="52.0000897" lon="5.0047255"><time>2026-07-25T09:00:46.000Z</time><extensions><accuracy>6.6</accuracy><speed>7.00</speed></extensions></trkpt>
      <trkpt lat="52.0000009" lon="5.0049759"><time>2026-07-25T09:00:47.000Z</time><extensions><accuracy>11.5</accuracy><speed>7.00</speed></extensions></trkpt>
      <trkpt lat="51.9999683" lon="5.0050911"><time>2026-07-25T09:00:48.000Z</time><extensions><accuracy>11.5</accuracy><speed>7.00</speed></extensions></trkpt>
      <trkpt lat="51.9999780" lon="5.0051704"><time>2026-07-25T09:00:49.000Z</time><extensions><accuracy>6.1</accuracy><speed>7.00</speed></extensions></trkpt>
      <trkpt lat="51.9999789" lon="5.0051561"><time>2026-07-25T09:00:50.000Z</time><extensions><accuracy>10.6</accuracy><speed>7.00</speed></extensions></trkpt>
      <trkpt lat="52.0000481" lon="5.0052742"><time>2026-07-25T09:00:51.000Z</time><extensions><accuracy>5.6</accuracy><speed>7.00</speed></extensions></trkpt>
      <trkpt lat="52.0000093" lon="5.0053500"><time>2026-07-25T09:00:52.000Z</time><extensions><accuracy>4.4</accuracy><speed>7.00</speed></extensions></trkpt>
      <trkpt lat="51.9999791" lon="5.0055075"><time>2026-07-25T09:00:53.000Z</time><extensions><accuracy>5.5</accuracy><speed>7.00</speed></extensions></trkpt>
      <trkpt lat="51.9999398" lon="5.0056079"><time>2026-07-25T09:00:54.000Z</time><extensions><accuracy>6.2</accuracy><speed>7.00</speed></extensions></trkpt>
      <trkpt lat="52.0000206" lon="5.0057705"><time>2026-07-25T09:00:55.000Z</time><extensions><accuracy>8.8</accuracy><speed>7.00</speed></extensions></trkpt>
      <trkpt lat="51.9999913" lon="5.0057161"><time>2026-07-25T09:00:56.000Z</time><extensions><accuracy>9.4</accuracy><speed>7.00</speed></extensions></trkpt>
      <trkpt lat="52.0000176" lon="5.0059307"><time>2026-07-25T09:00:57.000Z</time><extensions><accuracy>6.4</accuracy><speed>7.00</speed></extensions></trkpt>
      <trkpt lat="52.0000412" lon="5.0061093"><time>2026-07-25T09:00:58.000Z</time><extensions><accuracy>9.5</accuracy><speed>7.00</speed></extensions></trkpt>
      <trkpt lat="51.9999816" lon="5.0060113"><time>2026-07-25T09:00:59.000Z</time><extensions><accuracy>10.8</accuracy><speed>7.00</speed></extensions></trkpt>
      <trkpt lat="52.0000087" lon="5.0062925"><time>2026-07-25T09:01:00.000Z</time><extensions><accuracy>7.6</accuracy><speed>7.00</speed></extensions></trkpt>
      <trkpt lat="52.0000409" lon="5.0063288"><time>2026-07-25T09:01:01.000Z</time><extensions><accuracy>8.2</accuracy><speed>7.00</speed></extensions></trkpt>
      <trkpt lat="51.9999145" lon="5.0063588"><time>2026-07-25T09:01:02.000Z</time><extensions><accuracy>4.4</accuracy><speed>7.00</speed></extensions></trkpt>
      <trkpt lat="52.0000384" lon="5.0064957"><time>2026-07-25T09:01:03.000Z</time><extensions><accuracy>10.4</accuracy><speed>7.00</speed></extensions></trkpt>
      <trkpt lat="52.0000129" lon="5.0066439"><time>2026-07-25T09:01:04.000Z</time><extensions><accuracy>6.1</accuracy><speed>7.00</speed></extensions></trkpt>
      <trkpt lat="51.9999882" lon="5.0067491"><time>2026-07-25T09:01:05.000Z</time><extensions><accuracy>6.9</accuracy><speed>7.00</speed></extensions></trkpt>
      <trkpt lat="51.9999580" lon="5.0068357"><time>2026-07-25T09:01:06.000Z</time><extensions><accuracy>7.3</accuracy><speed>7.00</speed></extensions></trkpt>
      <trkpt lat="51.9999568" lon="5.0069061"><time>2026-07-25T09:01:07.000Z</time><extensions><accuracy>11.5</accuracy><speed>7.00</speed></extensions></trkpt>
      <trkpt lat="52.0000482" lon="5.0070173"><time>2026-07-25T09:01:08.000Z</time><extensions><accuracy>8.6</accuracy><speed>7.00</speed></extensions></trkpt>
      <trkpt lat="51.9999507" lon="5.0071174"><time>2026-07-25T09:01:09.000Z</time><extensions><accuracy>4.2</accuracy><speed>7.00</speed></extensions></trkpt>
      <trkpt lat="52.0000688" lon="5.0071727"><time>2026-07-25T09:01:10.000Z</time><extensions><accuracy>11.8</accuracy><speed>7.00</speed></extensions></trkpt>
      <trkpt lat="52.0000280" lon="5.0073193"><time>2026-07-25T09:01:11.000Z</time><extensions><accuracy>10.9</accuracy><speed>7.00</speed></extensions></trkpt>
      <trkpt lat="52.0000166" lon="5.0074853"><time>2026-07-25T09:01:12.000Z</time><extensions><accuracy>6.8</accuracy><speed>7.00</speed></extensions></trkpt>
      <trkpt lat="51.9999788" lon="5.0075121"><time>2026-07-25T09:01:13.000Z</time><extensions><accuracy>5.3</accuracy><speed>7.00</speed></extensions></trkpt>
      <trkpt lat="52.0000136" lon="5.0076087"><time>2026-07-25T09:01:14.000Z</time><extensions><accuracy>6.5</accuracy><speed>7.00</speed></extensions></trkpt>
      <trkpt lat="52.0000036" lon="5.0077067"><time>2026-07-25T09:01:15.000Z</time><extensions><accuracy>8.6</accuracy><speed>7.00</speed></extensions></trkpt>
      <trkpt lat="52.0000128" lon="5.0079201"><time>2026-07-25T09:01:16.000Z</time><extensions><accuracy>11.9</accuracy><speed>7.00</speed></extensions></trkpt>
      <trkpt lat="51.9999733" lon="5.0079050"><time>2026-07-25T09:01:17.000Z</time><extensions><accuracy>9.7</accuracy><speed>7.00</speed></extensions></trkpt>
      <trkpt lat="51.9999801" lon="5.0080360"><time>2026-07-25T09:01:18.000Z</time><extensions><accuracy>6.6</accuracy><speed>7.00</speed></extensions></trkpt>
      <trkpt lat="51.9999647" lon="5.0082175"><time>2026-07-25T09:01:19.000Z</time><extensions><accuracy>8.4</accuracy><speed>7.00</speed></extensions></trkpt>
      <trkpt lat="52.0000447" lon="5.0082466"><time>2026-07-25T09:01:20.000Z</time><extensions><accuracy>8.3</accuracy><speed>7.00</speed></extensions></trkpt>
      <trkpt lat="52.0000321" lon="5.0083482"><time>2026-07-25T09:01:21.000Z</time><extensions><accuracy>5.3</accuracy><speed>7.00</speed></extensions></trkpt>
      <trkpt lat="52.0000706" lon="5.0084359"><time>2026-07-25T09:01:22.000Z</time><extensions><accuracy>10.6</accuracy><speed>7.00</speed></extensions></trkpt>
      <trkpt lat="51.9999845" lon="5.0085485"><time>2026-07-25T09:01:23.000Z</time><extensions><accuracy>4.3</accuracy><speed>7.00</speed></extensions></trkpt>
      <trkpt lat="52.0000028" lon="5.0084579"><time>2026-07-25T09:01:24.000Z</time><extensions><accuracy>8.2</accuracy><speed>7.00</speed></extensions></trkpt>
      <trkpt lat="51.9999715" lon="5.0087595"><time>2026-07-25T09:01:25.000Z</time><extensions><accuracy>10.7</accuracy><speed>7.00</speed></extensions></trkpt>
      <trkpt lat="52.0000139" lon="5.0089248"><time>2026-07-25T09:01:26.000Z</time><extensions><accuracy>10.5</accuracy><speed>7.00</speed></extensions></trkpt>
      <trkpt lat="51.9999273" lon="5.0089988"><time>2026-07-25T09:01:27.000Z</time><extensions><accuracy>10.7</accuracy><speed>7.00</speed></extensions></trkpt>
      <trkpt lat="52.0000467" lon="5.0089469"><time>2026-07-25T09:01:28.000Z</time><extensions><accuracy>11.7</accuracy><speed>7.00</speed></extensions></trkpt>
      <trkpt lat="51.9999979" lon="5.0090604"><time>2026-07-25T09:01:29.000Z</time><extensions><accuracy>9.6</accuracy><speed>7.00</speed></extensions></trkpt>
      <trkpt lat="52.0000310" lon="5.0093609"><time>2026-07-25T09:01:30.000Z</time><extensions><accuracy>18.8</accuracy><speed>7.00</speed></extensions></trkpt>
      <trkpt lat="52.0000210" lon="5.0092858"><time>2026-07-25T09:01:31.000Z</time><extensions><accuracy>10.2</accuracy><speed>7.00</speed></extensions></trkpt>
      <trkpt lat="52.0000039" lon="5.0094929"><time>2026-07-25T09:01:32.000Z</time><extensions><accuracy>7.6</accuracy><speed>7.00</speed></extensions></trkpt>
      <trkpt lat="52.0000263" lon="5.0095706"><time>2026-07-25T09:01:33.000Z</time><extensions><accuracy>10.2</accuracy><speed>7.00</speed></extensions></trkpt>
      <trkpt lat="52.0000516" lon="5.0096080"><time>2026-07-25T09:01:34.000Z</time><extensions><accuracy>4.6</accuracy><speed>7.00</speed></extensions></trkpt>
      <trkpt lat="52.0000589" lon="5.0097312"><time>2026-07-25T09:01:35.000Z</time><extensions><accuracy>6.2</accuracy><speed>7.00</speed></extensions></trkpt>
      <trkpt lat="51.9999796" lon="5.0098097"><time>2026-07-25T09:01:36.000Z</time><extensions><accuracy>10.5</accuracy><speed>7.00</speed></extensions></trkpt>
      <trkpt lat="52.0000467" lon="5.0100881"><time>2026-07-25T09:01:37.000Z</time><extensions><accuracy>10.5</accuracy><speed>7.00</speed></extensions></trkpt>
      <trkpt lat="52.0000232" lon="5.0099881"><time>2026-07-25T09:01:38.000Z</time><extensions><accuracy>7.9</accuracy><speed>7.00</speed></extensions></trkpt>
      <trkpt lat="52.0000064" lon="5.0100757"><time>2026-07-25T09:01:39.000Z</time><extensions><accuracy>7.6</accuracy><speed>7.00</speed></extensions></trkpt>
      <trkpt lat="52.0000195" lon="5.0102206"><time>2026-07-25T09:01:40.000Z</time><extensions><accuracy>7.9</accuracy><speed>7.00</speed></extensions></trkpt>
      <trkpt lat="51.9999978" lon="5.0102917"><time>2026-07-25T09:01:41.000Z</time><extensions><accuracy>10.1</accuracy><speed>7.00</speed></extensions></trkpt>
      <trkpt lat="52.0000581" lon="5.0103631"><time>2026-07-25T09:01:42.000Z</time><extensions><accuracy>8.2</accuracy><speed>7.00</speed></extensions></trkpt>
      <trkpt lat="52.0000124" lon="5.0105216"><time>2026-07-25T09:01:43.000Z</time><extensions><accuracy>7.7</accuracy><speed>7.00</speed></extensions></trkpt>
      <trkpt lat="52.0000200" lon="5.0105698"><time>2026-07-25T09:01:44.000Z</time><extensions><accuracy>8.3</accuracy><speed>7.00</speed></extensions></trkpt>
      <trkpt lat="52.0000345" lon="5.0107006"><time>2026-07-25T09:01:45.000Z</time><extensions><accuracy>8.2</accuracy><speed>7.00</speed></extensions></trkpt>
      <trkpt lat="52.0000025" lon="5.0108882"><time>2026-07-25T09:01:46.000Z</time><extensions><accuracy>9.3</accuracy><speed>7.00</speed></extensions></trkpt>
      <trkpt lat="52.0000550" lon="5.0108277"><time>2026-07-25T09:01:47.000Z</time><extensions><accuracy>9.0</accuracy><speed>7.00</speed></extensions></trkpt>
      <trkpt lat="52.0000855" lon="5.0108968"><time>2026-07-25T09:01:48.000Z</time><extensions><accuracy>7.7</accuracy><speed>7.00</speed></extensions></trkpt>
      <trkpt lat="52.0000217" lon="5.0112474"><time>2026-07-25T09:01:49.000Z</time><extensions><accuracy>4.1</accuracy><speed>7.00</speed></extensions></trkpt>
      <trkpt lat="52.0000554" lon="5.0113451"><time>2026-07-25T09:01:50.000Z</time><extensions><accuracy>10.2</accuracy><speed>7.00</speed></extensions></trkpt>
      <trkpt lat="51.9999811" lon="5.0113649"><time>2026-07-25T09:01:51.000Z</time><extensions><accuracy>6.6</accuracy><speed>7.00</speed></extensions></trkpt>
      <trkpt lat="51.9999792" lon="5.0114408"><time>2026-07-25T09:01:52.000Z</time><extensions><accuracy>9.6</accuracy><speed>7.00</speed></extensions></trkpt>
      <trkpt lat="51.9999928" lon="5.0116005"><time>2026-07-25T09:01:53.000Z</time><extensions><accuracy>4.3</accuracy><speed>7.00</speed></extensions></trkpt>
      <trkpt lat="52.0000616" lon="5.0117011"><time>2026-07-25T09:01:54.000Z</time><extensions><accuracy>11.2</accuracy><speed>7.00</speed></extensions></trkpt>
      <trkpt lat="52.0000947" lon="5.0116285"><time>2026-07-25T09:01:55.000Z</time><extensions><accuracy>11.0</accuracy><speed>7.00</speed></extensions></trkpt>
      <trkpt lat="52.0000835" lon="5.0116279"><time>2026-07-25T09:01:56.000Z</time><extensions><accuracy>9.0</accuracy><speed>7.00</speed></extensions></trkpt>
      <trkpt lat="52.0001473" lon="5.0116774"><time>2026-07-25T09:01:57.000Z</time><extensions><accuracy>9.2</accuracy><speed>7.00</speed></extensions></trkpt>
      <trkpt lat="52.0002463" lon="5.0117097"><time>2026-07-25T09:01:58.000Z</time><extensions><accuracy>6.7</accuracy><speed>7.00</speed></extensions></trkpt>
      <trkpt lat="52.0002750" lon="5.0116714"><time>2026-07-25T09:01:59.000Z</time><extensions><accuracy>11.7</accuracy><speed>7.00</speed></extensions></trkpt>
      <trkpt lat="52.0003143" lon="5.0116641"><time>2026-07-25T09:02:00.000Z</time><extensions><accuracy>5.3</accuracy><speed>7.00</speed></extensions></trkpt>
      <trkpt lat="52.0004296" lon="5.0116643"><time>2026-07-25T09:02:01.000Z</time><extensions><accuracy>11.9</accuracy><speed>7.00</speed></extensions></trkpt>
      <trkpt lat="52.0004370" lon="5.0117200"><time>2026-07-25T09:02:02.000Z</time><extensions><accuracy>5.5</accuracy><speed>7.00</speed></extensions></trkpt>
      <trkpt lat="52.0005212" lon="5.0116291"><time>2026-07-25T09:02:03.000Z</time><extensions><accuracy>10.4</accuracy><speed>7.00</speed></extensions></trkpt>
      <trkpt lat="52.0006386" lon="5.0116736"><time>2026-07-25T09:02:04.000Z</time><extensions><accuracy>11.0</accuracy><speed>7.00</speed></extensions></trkpt>
      <trkpt lat="52.0006278" lon="5.0117555"><time>2026-07-25T09:02:05.000Z</time><extensions><accuracy>5.1</accuracy><speed>7.00</speed></extensions></trkpt>
      <trkpt lat="52.0007654" lon="5.0116895"><time>2026-07-25T09:02:06.000Z</time><extensions><accuracy>5.2</accuracy><speed>7.00</speed></extensions></trkpt>
      <trkpt lat="52.0007362" lon="5.0116052"><time>2026-07-25T09:02:07.000Z</time><extensions><accuracy>6.9</accuracy><speed>7.00</speed></extensions></trkpt>
      <trkpt lat="52.0007875" lon="5.0116990"><time>2026-07-25T09:02:08.000Z</time><extensions><accuracy>6.8</accuracy><speed>7.00</speed></extensions></trkpt>
      <trkpt lat="52.0008532" lon="5.0116283"><time>2026-07-25T09:02:09.000Z</time><extensions><accuracy>6.2</accuracy><speed>7.00</speed></extensions></trkpt>
      <trkpt lat="52.0009407" lon="5.0117094"><time>2026-07-25T09:02:10.000Z</time><extensions><accuracy>6.3</accuracy><speed>7.00</speed></extensions></trkpt>
      <trkpt lat="52.0010325" lon="5.0117385"><time>2026-07-25T09:02:11.000Z</time><extensions><accuracy>9.6</accuracy><speed>7.00</speed></extensions></trkpt>
      <trkpt lat="52.0011218" lon="5.0116978"><time>2026-07-25T09:02:12.000Z</time><extensions><accuracy>8.7</accuracy><speed>7.00</speed></extensions></trkpt>
      <trkpt lat="52.0011278" lon="5.0116718"><time>2026-07-25T09:02:13.000Z</time><extensions><accuracy>10.3</accuracy><speed>7.00</speed></extensions></trkpt>
      <trkpt lat="52.0012478" lon="5.0117928"><time>2026-07-25T09:02:14.000Z</time><extensions><accuracy>7.0</accuracy><speed>7.00</speed></extensions></trkpt>
      <trkpt lat="52.0015171" lon="5.0117560"><time>2026-07-25T09:02:15.000Z</time><extensions><accuracy>18.2</accuracy><speed>7.00</speed></extensions></trkpt>
      <trkpt lat="52.0013913" lon="5.0117943"><time>2026-07-25T09:02:16.000Z</time><extensions><accuracy>11.4</accuracy><speed>7.00</speed></extensions></trkpt>
      <trkpt lat="52.0013933" lon="5.0116824"><time>2026-07-25T09:02:17.000Z</time><extensions><accuracy>7.8</accuracy><speed>7.00</speed></extensions></trkpt>
      <trkpt lat="52.0014365" lon="5.0117165"><time>2026-07-25T09:02:18.000Z</time><extensions><accuracy>8.0</accuracy><speed>7.00</speed></extensions></trkpt>
      <trkpt lat="52.0015506" lon="5.0117598"><time>2026-07-25T09:02:19.000Z</time><extensions><accuracy>8.5</accuracy><speed>7.00</speed></extensions></trkpt>
      <trkpt lat="52.0016676" lon="5.0117760"><time>2026-07-25T09:02:20.000Z</time><extensions><accuracy>11.2</accuracy><speed>7.00</speed></extensions></trkpt>
      <trkpt lat="52.0016371" lon="5.0116379"><time>2026-07-25T09:02:21.000Z</time><extensions><accuracy>7.4</accuracy><speed>7.00</speed></extensions></trkpt>
      <trkpt lat="52.0017402" lon="5.0115827"><time>2026-07-25T09:02:22.000Z</time><extensions><accuracy>7.4</accuracy><speed>7.00</speed></extensions></trkpt>
      <trkpt lat="52.0017493" lon="5.0116336"><time>2026-07-25T09:02:23.000Z</time><extensions><accuracy>5.0</accuracy><speed>7.00</speed></extensions></trkpt>
      <trkpt lat="52.0018766" lon="5.0116315"><time>2026-07-25T09:02:24.000Z</time><extensions><accuracy>8.7</accuracy><speed>7.00</speed></extensions></trkpt>
      <trkpt lat="52.0019506" lon="5.0116812"><time>2026-07-25T09:02:25.000Z</time><extensions><accuracy>11.0</accuracy><speed>7.00</speed></extensions></trkpt>
      <trkpt lat="52.0019952" lon="5.0117077"><time>2026-07-25T09:02:26.000Z</time><extensions><accuracy>5.9</accuracy><speed>7.00</speed></extensions></trkpt>
      <trkpt lat="52.0020535" lon="5.0116467"><time>2026-07-25T09:02:27.000Z</time><extensions><accuracy>6.0</accuracy><speed>7.00</speed></extensions></trkpt>
      <trkpt lat="52.0021100" lon="5.0117936"><time>2026-07-25T09:02:28.000Z</time><extensions><accuracy>4.1</accuracy><speed>7.00</speed></extensions></trkpt>
      <trkpt lat="52.0021491" lon="5.0117541"><time>2026-07-25T09:02:29.000Z</time><extensions><accuracy>5.9</accuracy><speed>7.00</speed></extensions></trkpt>
      <trkpt lat="52.0022443" lon="5.0117231"><time>2026-07-25T09:02:30.000Z</time><extensions><accuracy>7.7</accuracy><speed>7.00</speed></extensions></trkpt>
      <trkpt lat="52.0022800" lon="5.0117314"><time>2026-07-25T09:02:31.000Z</time><extensions><accuracy>8.2</accuracy><speed>7.00</speed></extensions></trkpt>
      <trkpt lat="52.0023095" lon="5.0116347"><time>2026-07-25T09:02:32.000Z</time><extensions><accuracy>7.5</accuracy><speed>7.00</speed></extensions></trkpt>
      <trkpt lat="52.0024748" lon="5.0116662"><time>2026-07-25T09:02:33.000Z</time><extensions><accuracy>5.3</accuracy><speed>7.00</speed></extensions></trkpt>
      <trkpt lat="52.0025150" lon="5.0116500"><time>2026-07-25T09:02:34.000Z</time><extensions><accuracy>7.8</accuracy><speed>7.00</speed></extensions></trkpt>
      <trkpt lat="52.0026171" lon="5.0117014"><time>2026-07-25T09:02:35.000Z</time><extensions><accuracy>4.1</accuracy><speed>7.00</speed></extensions></trkpt>
      <trkpt lat="52.0025835" lon="5.0115956"><time>2026-07-25T09:02:36.000Z</time><extensions><accuracy>9.7</accuracy><speed>7.00</speed></extensions></trkpt>
      <trkpt lat="52.0026672" lon="5.0117294"><time>2026-07-25T09:02:37.000Z</time><extensions><accuracy>11.0</accuracy><speed>7.00</speed></extensions></trkpt>
      <trkpt lat="52.0027238" lon="5.0116056"><time>2026-07-25T09:02:38.000Z</time><extensions><accuracy>11.7</accuracy><speed>7.00</speed></extensions></trkpt>
      <trkpt lat="52.0027510" lon="5.0117326"><time>2026-07-25T09:02:39.000Z</time><extensions><accuracy>10.2</accuracy><speed>7.00</speed></extensions></trkpt>
      <trkpt lat="52.0028557" lon="5.0117229"><time>2026-07-25T09:02:40.000Z</time><extensions><accuracy>11.6</accuracy><speed>7.00</speed></extensions></trkpt>
      <trkpt lat="52.0029290" lon="5.0117105"><time>2026-07-25T09:02:41.000Z</time><extensions><accuracy>7.6</accuracy><speed>7.00</speed></extensions></trkpt>
      <trkpt lat="52.0029720" lon="5.0117434"><time>2026-07-25T09:02:42.000Z</time><extensions><accuracy>7.6</accuracy><speed>7.00</speed></extensions></trkpt>
      <trkpt lat="52.0030886" lon="5.0116253"><time>2026-07-25T09:02:43.000Z</time><extensions><accuracy>7.5</accuracy><speed>7.00</speed></extensions></trkpt>
      <trkpt lat="52.0031134" lon="5.0116665"><time>2026-07-25T09:02:44.000Z</time><extensions><accuracy>8.0</accuracy><speed>7.00</speed></extensions></trkpt>
      <trkpt lat="52.0032117" lon="5.0119120"><time>2026-07-25T09:02:45.000Z</time><extensions><accuracy>10.3</accuracy><speed>7.00</speed></extensions></trkpt>
      <trkpt lat="52.0032367" lon="5.0117319"><time>2026-07-25T09:02:46.000Z</time><extensions><accuracy>5.9</accuracy><speed>7.00</speed></extensions></trkpt>
      <trkpt lat="52.0033455" lon="5.0117395"><time>2026-07-25T09:02:47.000Z</time><extensions><accuracy>11.8</accuracy><speed>7.00</speed></extensions></trkpt>
      <trkpt lat="52.0033310" lon="5.0117415"><time>2026-07-25T09:02:48.000Z</time><extensions><accuracy>8.3</accuracy><speed>7.00</speed></extensions></trkpt>
      <trkpt lat="52.0034220" lon="5.0117228"><time>2026-07-25T09:02:49.000Z</time><extensions><accuracy>11.4</accuracy><speed>7.00</speed></extensions></trkpt>
      <trkpt lat="52.0035037" lon="5.0117099"><time>2026-07-25T09:02:50.000Z</time><extensions><accuracy>11.4</accuracy><speed>7.00</speed></extensions></trkpt>
      <trkpt lat="52.0035759" lon="5.0117186"><time>2026-07-25T09:02:51.000Z</time><extensions><accuracy>7.8</accuracy><speed>7.00</speed></extensions></trkpt>
      <trkpt lat="52.0037164" lon="5.0118661"><time>2026-07-25T09:02:52.000Z</time><extensions><accuracy>10.9</accuracy><speed>7.00</speed></extensions></trkpt>
      <trkpt lat="52.0036972" lon="5.0117980"><time>2026-07-25T09:02:53.000Z</time><extensions><accuracy>8.0</accuracy><speed>7.00</speed></extensions></trkpt>
      <trkpt lat="52.0037652" lon="5.0117980"><time>2026-07-25T09:02:54.000Z</time><extensions><accuracy>6.4</accuracy><speed>7.00</speed></extensions></trkpt>
      <trkpt lat="52.0038748" lon="5.0117266"><time>2026-07-25T09:02:55.000Z</time><extensions><accuracy>9.8</accuracy><speed>7.00</speed></extensions></trkpt>
      <trkpt lat="52.0039223" lon="5.0117689"><time>2026-07-25T09:02:56.000Z</time><extensions><accuracy>8.3</accuracy><speed>7.00</speed></extensions></trkpt>
      <trkpt lat="52.0039652" lon="5.0116873"><time>2026-07-25T09:02:57.000Z</time><extensions><accuracy>11.7</accuracy><speed>7.00</speed></extensions></trkpt>
      <trkpt lat="52.0040617" lon="5.0117634"><time>2026-07-25T09:02:58.000Z</time><extensions><accuracy>9.5</accuracy><speed>7.00</speed></extensions></trkpt>
      <trkpt lat="52.0041273" lon="5.0116852"><time>2026-07-25T09:02:59.000Z</time><extensions><accuracy>10.6</accuracy><speed>7.00</speed></extensions></trkpt>
      <trkpt lat="52.0041724" lon="5.0116937"><time>2026-07-25T09:03:00.000Z</time><extensions><accuracy>9.1</accuracy><speed>7.00</speed></extensions></trkpt>
      <trkpt lat="52.0041242" lon="5.0116366"><time>2026-07-25T09:03:01.000Z</time><extensions><accuracy>6.2</accuracy><speed>7.00</speed></extensions></trkpt>
      <trkpt lat="52.0043515" lon="5.0116362"><time>2026-07-25T09:03:02.000Z</time><extensions><accuracy>6.7</accuracy><speed>7.00</speed></extensions></trkpt>
      <trkpt lat="52.0043141" lon="5.0117819"><time>2026-07-25T09:03:03.000Z</time><extensions><accuracy>10.8</accuracy><speed>7.00</speed></extensions></trkpt>
      <trkpt lat="52.0044183" lon="5.0115680"><time>2026-07-25T09:03:04.000Z</time><extensions><accuracy>11.7</accuracy><speed>7.00</speed></extensions></trkpt>
      <trkpt lat="52.0045240" lon="5.0117296"><time>2026-07-25T09:03:05.000Z</time><extensions><accuracy>11.4</accuracy><speed>7.00</speed></extensions></trkpt>
      <trkpt lat="52.0045860" lon="5.0116783"><time>2026-07-25T09:03:06.000Z</time><extensions><accuracy>9.2</accuracy><speed>7.00</speed></extensions></trkpt>
      <trkpt lat="52.0045950" lon="5.0116655"><time>2026-07-25T09:03:07.000Z</time><extensions><accuracy>6.0</accuracy><speed>7.00</speed></extensions></trkpt>
      <trkpt lat="52.0047164" lon="5.0117735"><time>2026-07-25T09:03:08.000Z</time><extensions><accuracy>8.3</accuracy><speed>7.00</speed></extensions></trkpt>
      <trkpt lat="52.0047903" lon="5.0117578"><time>2026-07-25T09:03:09.000Z</time><extensions><accuracy>4.9</accuracy><speed>7.00</speed></extensions></trkpt>
      <trkpt lat="52.0048270" lon="5.0116797"><time>2026-07-25T09:03:10.000Z</time><extensions><accuracy>7.2</accuracy><speed>7.00</speed></extensions></trkpt>
      <trkpt lat="52.0047980" lon="5.0117753"><time>2026-07-25T09:03:11.000Z</time><extensions><accuracy>7.3</accuracy><speed>7.00</speed></extensions></trkpt>
      <trkpt lat="52.0049535" lon="5.0116322"><time>2026-07-25T09:03:12.000Z</time><extensions><accuracy>7.5</accuracy><speed>7.00</speed></extensions></trkpt>
      <trkpt lat="52.0049515" lon="5.0116154"><time>2026-07-25T09:03:13.000Z</time><extensions><accuracy>8.6</accuracy><speed>7.00</speed></extensions></trkpt>
      <trkpt lat="52.0050503" lon="5.0116118"><time>2026-07-25T09:03:14.000Z</time><extensions><accuracy>8.4</accuracy><speed>7.00</speed></extensions></trkpt>
      <trkpt lat="52.0050700" lon="5.0118035"><time>2026-07-25T09:03:15.000Z</time><extensions><accuracy>9.2</accuracy><speed>7.00</speed></extensions></trkpt>
      <trkpt lat="52.0052055" lon="5.0117068"><time>2026-07-25T09:03:16.000Z</time><extensions><accuracy>5.1</accuracy><speed>7.00</speed></extensions></trkpt>
      <trkpt lat="52.0052157" lon="5.0116537"><time>2026-07-25T09:03:17.000Z</time><extensions><accuracy>10.0</accuracy><speed>7.00</speed></extensions></trkpt>
      <trkpt lat="52.0053493" lon="5.0117150"><time>2026-07-25T09:03:18.000Z</time><extensions><accuracy>6.2</accuracy><speed>7.00</speed></extensions></trkpt>
      <trkpt lat="52.0053186" lon="5.0116383"><time>2026-07-25T09:03:19.000Z</time><extensions><accuracy>10.6</accuracy><speed>7.00</speed></extensions></trkpt>
      <trkpt lat="52.0054401" lon="5.0116088"><time>2026-07-25T09:03:20.000Z</time><extensions><accuracy>11.6</accuracy><speed>7.00</speed></extensions></trkpt>
      <trkpt lat="52.0054820" lon="5.0117271"><time>2026-07-25T09:03:21.000Z</time><extensions><accuracy>10.8</accuracy><speed>7.00</speed></extensions></trkpt>
      <trkpt lat="52.0054980" lon="5.0117984"><time>2026-07-25T09:03:22.000Z</time><extensions><accuracy>7.8</accuracy><speed>7.00</speed></extensions></trkpt>
      <trkpt lat="52.0056090" lon="5.0116867"><time>2026-07-25T09:03:23.000Z</time><extensions><accuracy>4.2</accuracy><speed>7.00</speed></extensions></trkpt>
      <trkpt lat="52.0056468" lon="5.0118246"><time>2026-07-25T09:03:24.000Z</time><extensions><accuracy>4.6</accuracy><speed>7.00</speed></extensions></trkpt>
      <trkpt lat="52.0057201" lon="5.0116570"><time>2026-07-25T09:03:25.000Z</time><extensions><accuracy>4.5</accuracy><speed>7.00</speed></extensions></trkpt>
      <trkpt lat="52.0059317" lon="5.0116455"><time>2026-07-25T09:03:26.000Z</time><extensions><accuracy>11.3</accuracy><speed>7.00</speed></extensions></trkpt>
      <trkpt lat="52.0058028" lon="5.0116545"><time>2026-07-25T09:03:27.000Z</time><extensions><accuracy>10.0</accuracy><speed>7.00</speed></extensions></trkpt>
      <trkpt lat="52.0059916" lon="5.0116444"><time>2026-07-25T09:03:28.000Z</time><extensions><accuracy>8.9</accuracy><speed>7.00</speed></extensions></trkpt>
      <trkpt lat="52.0060328" lon="5.0116463"><time>2026-07-25T09:03:29.000Z</time><extensions><accuracy>8.2</accuracy><speed>7.00</speed></extensions></trkpt>
      <trkpt lat="52.0061163" lon="5.0116322"><time>2026-07-25T09:03:30.000Z</time><extensions><accuracy>9.5</accuracy><speed>7.00</speed></extensions></trkpt>
      <trkpt lat="52.0061232" lon="5.0117511"><time>2026-07-25T09:03:31.000Z</time><extensions><accuracy>10.4</accuracy><speed>7.00</speed></extensions></trkpt>
      <trkpt lat="52.0061771" lon="5.0117529"><time>2026-07-25T09:03:32.000Z</time><extensions><accuracy>7.4</accuracy><speed>7.00</speed></extensions></trkpt>
      <trkpt lat="52.0062237" lon="5.0117149"><time>2026-07-25T09:03:33.000Z</time><extensions><accuracy>11.9</accuracy><speed>7.00</speed></extensions></trkpt>
      <trkpt lat="52.0062534" lon="5.0117296"><time>2026-07-25T09:03:34.000Z</time><extensions><accuracy>6.2</accuracy><speed>7.00</speed></extensions></trkpt>
      <trkpt lat="52.0063660" lon="5.0117261"><time>2026-07-25T09:03:35.000Z</time><extensions><accuracy>11.8</accuracy><speed>7.00</speed></extensions></trkpt>
      <trkpt lat="52.0064199" lon="5.0118399"><time>2026-07-25T09:03:36.000Z</time><extensions><accuracy>5.2</accuracy><speed>7.00</speed></extensions></trkpt>
      <trkpt lat="52.0065044" lon="5.0116656"><time>2026-07-25T09:03:37.000Z</time><extensions><accuracy>11.8</accuracy><speed>7.00</speed></extensions></trkpt>
      <trkpt lat="52.0065166" lon="5.0117410"><time>2026-07-25T09:03:38.000Z</time><extensions><accuracy>10.4</accuracy><speed>7.00</speed></extensions></trkpt>
      <trkpt lat="52.0065907" lon="5.0116085"><time>2026-07-25T09:03:39.000Z</time><extensions><accuracy>9.1</accuracy><speed>7.00</speed></extensions></trkpt>
      <trkpt lat="52.0067177" lon="5.0116634"><time>2026-07-25T09:03:40.000Z</time><extensions><accuracy>10.0</accuracy><speed>7.00</speed></extensions></trkpt>
      <trkpt lat="52.0067285" lon="5.0117372"><time>2026-07-25T09:03:41.000Z</time><extensions><accuracy>8.3</accuracy><speed>7.00</speed></extensions></trkpt>
      <trkpt lat="52.0067767" lon="5.0117274"><time>2026-07-25T09:03:42.000Z</time><extensions><accuracy>5.6</accuracy><speed>7.00</speed></extensions></trkpt>
      <trkpt lat="52.0069169" lon="5.0117759"><time>2026-07-25T09:03:43.000Z</time><extensions><accuracy>11.8</accuracy><speed>7.00</speed></extensions></trkpt>
      <trkpt lat="52.0069440" lon="5.0116149"><time>2026-07-25T09:03:44.000Z</time><extensions><accuracy>9.6</accuracy><speed>7.00</speed></extensions></trkpt>
      <trkpt lat="52.0070551" lon="5.0117217"><time>2026-07-25T09:03:45.000Z</time><extensions><accuracy>4.8</accuracy><speed>7.00</speed></extensions></trkpt>
      <trkpt lat="52.0070789" lon="5.0118559"><time>2026-07-25T09:03:46.000Z</time><extensions><accuracy>4.5</accuracy><speed>7.00</speed></extensions></trkpt>
      <trkpt lat="52.0071041" lon="5.0117309"><time>2026-07-25T09:03:47.000Z</time><extensions><accuracy>5.6</accuracy><speed>7.00</speed></extensions></trkpt>
      <trkpt lat="52.0072226" lon="5.0116289"><time>2026-07-25T09:03:48.000Z</time><extensions><accuracy>11.7</accuracy><speed>7.00</speed></extensions></trkpt>
      <trkpt lat="52.0073331" lon="5.0116796"><time>2026-07-25T09:03:49.000Z</time><extensions><accuracy>9.8</accuracy><speed>7.00</speed></extensions></trkpt>
      <trkpt lat="52.0072460" lon="5.0116215"><time>2026-07-25T09:03:50.000Z</time><extensions><accuracy>7.8</accuracy><speed>7.00</speed></extensions></trkpt>
      <trkpt lat="52.0073448" lon="5.0117047"><time>2026-07-25T09:03:51.000Z</time><extensions><accuracy>5.2</accuracy><speed>7.00</speed></extensions></trkpt>
      <trkpt lat="52.0074572" lon="5.0116904"><time>2026-07-25T09:03:52.000Z</time><extensions><accuracy>8.5</accuracy><speed>7.00</speed></extensions></trkpt>
      <trkpt lat="52.0074153" lon="5.0116716"><time>2026-07-25T09:03:53.000Z</time><extensions><accuracy>7.8</accuracy><speed>7.00</speed></extensions></trkpt>
      <trkpt lat="52.0075040" lon="5.0116976"><time>2026-07-25T09:03:54.000Z</time><extensions><accuracy>11.8</accuracy><speed>7.00</speed></extensions></trkpt>
      <trkpt lat="52.0075944" lon="5.0116438"><time>2026-07-25T09:03:55.000Z</time><extensions><accuracy>11.1</accuracy><speed>7.00</speed></extensions></trkpt>
      <trkpt lat="52.0077412" lon="5.0115900"><time>2026-07-25T09:03:56.000Z</time><extensions><accuracy>9.3</accuracy><speed>7.00</speed></extensions></trkpt>
      <trkpt lat="52.0077577" lon="5.0116798"><time>2026-07-25T09:03:57.000Z</time><extensions><accuracy>10.8</accuracy><speed>7.00</speed></extensions></trkpt>
      <trkpt lat="52.0077880" lon="5.0116137"><time>2026-07-25T09:03:58.000Z</time><extensions><accuracy>5.6</accuracy><speed>7.00</speed></extensions></trkpt>
      <trkpt lat="52.0079029" lon="5.0117408"><time>2026-07-25T09:03:59.000Z</time><extensions><accuracy>11.5</accuracy><speed>7.00</speed></extensions></trkpt>
      <trkpt lat="52.0079076" lon="5.0116608"><time>2026-07-25T09:04:00.000Z</time><extensions><accuracy>9.3</accuracy><speed>7.00</speed></extensions></trkpt>
      <trkpt lat="52.0080153" lon="5.0117289"><time>2026-07-25T09:04:01.000Z</time><extensions><accuracy>8.3</accuracy><speed>7.00</speed></extensions></trkpt>
      <trkpt lat="52.0080239" lon="5.0115972"><time>2026-07-25T09:04:02.000Z</time><extensions><accuracy>10.9</accuracy><speed>7.00</speed></extensions></trkpt>
    </trkseg>
  </trk>
</gpx>
