<?xml version="1.0" encoding="UTF-8"?>
<gpx version="1.1" creator="sparki-nav-replay-fixtures" xmlns="http://www.topografix.com/GPX/1/1">
  <trk>
    <name>Klim Eyserbosweg route (50 m spacing)</name>
    <trkseg>
      <trkpt lat="50.8586630" lon="5.8357430"/>
      <trkpt lat="50.8581520" lon="5.8362060"/>
      <trkpt lat="50.8577310" lon="5.8366090"/>
      <trkpt lat="50.8570910" lon="5.8364430"/>
      <trkpt lat="50.8564730" lon="5.8355050"/>
      <trkpt lat="50.8559270" lon="5.8347880"/>
      <trkpt lat="50.8552310" lon="5.8342000"/>
      <trkpt lat="50.8546190" lon="5.8340090"/>
      <trkpt lat="50.8536420" lon="5.8341630"/>
      <trkpt lat="50.8529870" lon="5.8338120"/>
      <trkpt lat="50.8524990" lon="5.8342350"/>
      <trkpt lat="50.8518730" lon="5.8345660"/>
      <trkpt lat="50.8510530" lon="5.8350620"/>
      <trkpt lat="50.8504650" lon="5.8343450"/>
      <trkpt lat="50.8496120" lon="5.8337320"/>
      <trkpt lat="50.8491120" lon="5.8333460"/>
      <trkpt lat="50.8482470" lon="5.8323410"/>
      <trkpt lat="50.8478070" lon="5.8318220"/>
      <trkpt lat="50.8475000" lon="5.8312760"/>
      <trkpt lat="50.8470350" lon="5.8303330"/>
      <trkpt lat="50.8466450" lon="5.8289500"/>
      <trkpt lat="50.8457740" lon="5.8276500"/>
      <trkpt lat="50.8449930" lon="5.8261370"/>
      <trkpt lat="50.8450570" lon="5.8253280"/>
      <trkpt lat="50.8449100" lon="5.8246030"/>
      <trkpt lat="50.8451850" lon="5.8236410"/>
      <trkpt lat="50.8445800" lon="5.8229580"/>
      <trkpt lat="50.8445630" lon="5.8221520"/>
      <trkpt lat="50.8444250" lon="5.8210090"/>
      <trkpt lat="50.8444070" lon="5.8198550"/>
      <trkpt lat="50.8443790" lon="5.8185420"/>
      <trkpt lat="50.8440630" lon="5.8173040"/>
      <trkpt lat="50.8438720" lon="5.8164510"/>
      <trkpt lat="50.8437210" lon="5.8156720"/>
      <trkpt lat="50.8436550" lon="5.8146310"/>
      <trkpt lat="50.8438800" lon="5.8125660"/>
      <trkpt lat="50.8439450" lon="5.8113130"/>
      <trkpt lat="50.8436170" lon="5.8101870"/>
      <trkpt lat="50.8430200" lon="5.8094170"/>
      <trkpt lat="50.8419190" lon="5.8084470"/>
      <trkpt lat="50.8414650" lon="5.8078080"/>
      <trkpt lat="50.8411020" lon="5.8067990"/>
      <trkpt lat="50.8409390" lon="5.8058350"/>
      <trkpt lat="50.8410170" lon="5.8047360"/>
      <trkpt lat="50.8410370" lon="5.8031590"/>
      <trkpt lat="50.8412300" lon="5.7998510"/>
      <trkpt lat="50.8412570" lon="5.7988700"/>
      <trkpt lat="50.8412390" lon="5.7981270"/>
      <trkpt lat="50.8413290" lon="5.7973620"/>
      <trkpt lat="50.8416810" lon="5.7962020"/>
      <trkpt lat="50.8423750" lon="5.7938250"/>
      <trkpt lat="50.8427280" lon="5.7921540"/>
      <trkpt lat="50.8428450" lon="5.7907890"/>
      <trkpt lat="50.8430080" lon="5.7898850"/>
      <trkpt lat="50.8432770" lon="5.7883620"/>
      <trkpt lat="50.8422260" lon="5.7874710"/>
      <trkpt lat="50.8406080" lon="5.7869120"/>
      <trkpt lat="50.8383510" lon="5.7860800"/>
      <trkpt lat="50.8378410" lon="5.7860530"/>
      <trkpt lat="50.8371950" lon="5.7857490"/>
      <trkpt lat="50.8360520" lon="5.7844610"/>
      <trkpt lat="50.8351950" lon="5.7832490"/>
      <trkpt lat="50.8340230" lon="5.7810700"/>
      <trkpt lat="50.8338500" lon="5.7803990"/>
      <trkpt lat="50.8338970" lon="5.7793710"/>
      <trkpt lat="50.8339590" lon="5.7784970"/>
      <trkpt lat="50.8339500" lon="5.7772100"/>
      <trkpt lat="50.8339200" lon="5.7764760"/>
      <trkpt lat="50.8335030" lon="5.7758980"/>
      <trkpt lat="50.8330360" lon="5.7759890"/>
      <trkpt lat="50.8321170" lon="5.7746060"/>
      <trkpt lat="50.8316540" lon="5.7740090"/>
      <trkpt lat="50.8311050" lon="5.7732170"/>
      <trkpt lat="50.8307390" lon="5.7727030"/>
      <trkpt lat="50.8302000" lon="5.7722780"/>
      <trkpt lat="50.8297470" lon="5.7719900"/>
      <trkpt lat="50.8291370" lon="5.7717420"/>
      <trkpt lat="50.8282540" lon="5.7713580"/>
      <trkpt lat="50.8286140" lon="5.7683100"/>
      <trkpt lat="50.8281370" lon="5.7681810"/>
      <trkpt lat="50.8275730" lon="5.7680260"/>
      <trkpt lat="50.8269960" lon="5.7679470"/>
      <trkpt lat="50.8264130" lon="5.7679560"/>
      <trkpt lat="50.8264300" lon="5.7668060"/>
      <trkpt lat="50.8259610" lon="5.7666700"/>
      <trkpt lat="50.8255450" lon="5.7661170"/>
      <trkpt lat="50.8252990" lon="5.7653130"/>
      <trkpt lat="50.8249840" lon="5.7646900"/>
      <trkpt lat="50.8245290" lon="5.7639350"/>
      <trkpt lat="50.8241950" lon="5.7632320"/>
      <trkpt lat="50.8237740" lon="5.7627750"/>
      <trkpt lat="50.8235300" lon="5.7621350"/>
      <trkpt lat="50.8230940" lon="5.7626570"/>
      <trkpt lat="50.8226380" lon="5.7624800"/>
      <trkpt lat="50.8217230" lon="5.7627530"/>
      <trkpt lat="50.8212230" lon="5.7629910"/>
      <trkpt lat="50.8206410" lon="5.7631240"/>
      <trkpt lat="50.8199280" lon="5.7632040"/>
      <trkpt lat="50.8188820" lon="5.7637100"/>
      <trkpt lat="50.8183890" lon="5.7639020"/>
      <trkpt lat="50.8173360" lon="5.7640110"/>
      <trkpt lat="50.8165160" lon="5.7639410"/>
      <trkpt lat="50.8156210" lon="5.7633310"/>
      <trkpt lat="50.8150560" lon="5.7631720"/>
      <trkpt lat="50.8141460" lon="5.7633970"/>
      <trkpt lat="50.8127510" lon="5.7643570"/>
      <trkpt lat="50.8118200" lon="5.7649180"/>
      <trkpt lat="50.8113690" lon="5.7651870"/>
      <trkpt lat="50.8105440" lon="5.7656960"/>
      <trkpt lat="50.8100150" lon="5.7658440"/>
      <trkpt lat="50.8091840" lon="5.7658820"/>
      <trkpt lat="50.8085490" lon="5.7660350"/>
      <trkpt lat="50.8072700" lon="5.7664840"/>
      <trkpt lat="50.8066480" lon="5.7663660"/>
      <trkpt lat="50.8063470" lon="5.7671540"/>
      <trkpt lat="50.8064320" lon="5.7686100"/>
      <trkpt lat="50.8065270" lon="5.7693560"/>
      <trkpt lat="50.8067420" lon="5.7701880"/>
      <trkpt lat="50.8071010" lon="5.7712890"/>
      <trkpt lat="50.8073290" lon="5.7720780"/>
      <trkpt lat="50.8072880" lon="5.7743800"/>
      <trkpt lat="50.8074080" lon="5.7756170"/>
      <trkpt lat="50.8068570" lon="5.7766440"/>
      <trkpt lat="50.8062140" lon="5.7765840"/>
      <trkpt lat="50.8056910" lon="5.7760610"/>
      <trkpt lat="50.8046070" lon="5.7741700"/>
      <trkpt lat="50.8041570" lon="5.7738790"/>
      <trkpt lat="50.8037200" lon="5.7733020"/>
      <trkpt lat="50.8031590" lon="5.7726420"/>
      <trkpt lat="50.8025500" lon="5.7717870"/>
      <trkpt lat="50.8015130" lon="5.7693020"/>
      <trkpt lat="50.8006420" lon="5.7688030"/>
      <trkpt lat="50.7997710" lon="5.7685460"/>
      <trkpt lat="50.7989200" lon="5.7684530"/>
      <trkpt lat="50.7981110" lon="5.7687550"/>
      <trkpt lat="50.7975990" lon="5.7689470"/>
      <trkpt lat="50.7970110" lon="5.7689780"/>
      <trkpt lat="50.7963380" lon="5.7686930"/>
      <trkpt lat="50.7953910" lon="5.7686540"/>
      <trkpt lat="50.7946500" lon="5.7687800"/>
      <trkpt lat="50.7944690" lon="5.7681190"/>
      <trkpt lat="50.7944680" lon="5.7673430"/>
      <trkpt lat="50.7946070" lon="5.7665650"/>
      <trkpt lat="50.7948540" lon="5.7659250"/>
      <trkpt lat="50.7953850" lon="5.7652350"/>
      <trkpt lat="50.7950200" lon="5.7646160"/>
      <trkpt lat="50.7945330" lon="5.7644790"/>
      <trkpt lat="50.7935910" lon="5.7653530"/>
      <trkpt lat="50.7931060" lon="5.7655350"/>
      <trkpt lat="50.7925970" lon="5.7654710"/>
      <trkpt lat="50.7916640" lon="5.7653270"/>
      <trkpt lat="50.7911560" lon="5.7650470"/>
      <trkpt lat="50.7903620" lon="5.7633550"/>
      <trkpt lat="50.7899720" lon="5.7622530"/>
      <trkpt lat="50.7895420" lon="5.7609610"/>
      <trkpt lat="50.7893320" lon="5.7597480"/>
      <trkpt lat="50.7886440" lon="5.7595110"/>
      <trkpt lat="50.7881500" lon="5.7591800"/>
      <trkpt lat="50.7875580" lon="5.7585100"/>
      <trkpt lat="50.7870640" lon="5.7579600"/>
      <trkpt lat="50.7863830" lon="5.7582720"/>
      <trkpt lat="50.7856970" lon="5.7584410"/>
      <trkpt lat="50.7850970" lon="5.7584470"/>
      <trkpt lat="50.7846280" lon="5.7584830"/>
      <trkpt lat="50.7839190" lon="5.7588000"/>
      <trkpt lat="50.7809130" lon="5.7563390"/>
      <trkpt lat="50.7804620" lon="5.7561220"/>
      <trkpt lat="50.7791400" lon="5.7556290"/>
      <trkpt lat="50.7777690" lon="5.7543970"/>
      <trkpt lat="50.7768550" lon="5.7535740"/>
      <trkpt lat="50.7761290" lon="5.7530490"/>
      <trkpt lat="50.7756510" lon="5.7525480"/>
      <trkpt lat="50.7752390" lon="5.7519140"/>
      <trkpt lat="50.7749550" lon="5.7513570"/>
      <trkpt lat="50.7744930" lon="5.7503390"/>
      <trkpt lat="50.7738990" lon="5.7495450"/>
      <trkpt lat="50.7735190" lon="5.7489040"/>
      <trkpt lat="50.7733110" lon="5.7482020"/>
      <trkpt lat="50.7732920" lon="5.7470960"/>
      <trkpt lat="50.7732810" lon="5.7456880"/>
      <trkpt lat="50.7731580" lon="5.7447200"/>
      <trkpt lat="50.7726670" lon="5.7434050"/>
      <trkpt lat="50.7721950" lon="5.7415440"/>
      <trkpt lat="50.7719340" lon="5.7408650"/>
      <trkpt lat="50.7715030" lon="5.7398600"/>
      <trkpt lat="50.7709980" lon="5.7388620"/>
      <trkpt lat="50.7705200" lon="5.7377460"/>
      <trkpt lat="50.7701900" lon="5.7366990"/>
      <trkpt lat="50.7698950" lon="5.7361430"/>
      <trkpt lat="50.7695850" lon="5.7355010"/>
      <trkpt lat="50.7697730" lon="5.7347400"/>
      <trkpt lat="50.7689460" lon="5.7351650"/>
      <trkpt lat="50.7677130" lon="5.7344080"/>
      <trkpt lat="50.7670770" lon="5.7338080"/>
      <trkpt lat="50.7658460" lon="5.7326110"/>
      <trkpt lat="50.7653540" lon="5.7335470"/>
      <trkpt lat="50.7650770" lon="5.7341290"/>
      <trkpt lat="50.7647960" lon="5.7351700"/>
      <trkpt lat="50.7648460" lon="5.7359650"/>
      <trkpt lat="50.7647070" lon="5.7381860"/>
      <trkpt lat="50.7644620" lon="5.7391010"/>
      <trkpt lat="50.7643170" lon="5.7399020"/>
      <trkpt lat="50.7639520" lon="5.7411460"/>
      <trkpt lat="50.7633000" lon="5.7432550"/>
      <trkpt lat="50.7627990" lon="5.7447880"/>
      <trkpt lat="50.7626200" lon="5.7456620"/>
      <trkpt lat="50.7626110" lon="5.7463880"/>
      <trkpt lat="50.7627040" lon="5.7471360"/>
      <trkpt lat="50.7628430" lon="5.7479110"/>
      <trkpt lat="50.7629210" lon="5.7488760"/>
      <trkpt lat="50.7628280" lon="5.7497600"/>
      <trkpt lat="50.7627790" lon="5.7506460"/>
      <trkpt lat="50.7626210" lon="5.7515700"/>
      <trkpt lat="50.7621070" lon="5.7514220"/>
      <trkpt lat="50.7618380" lon="5.7507520"/>
      <trkpt lat="50.7614090" lon="5.7505100"/>
      <trkpt lat="50.7609210" lon="5.7505500"/>
      <trkpt lat="50.7606730" lon="5.7514530"/>
      <trkpt lat="50.7603440" lon="5.7521650"/>
      <trkpt lat="50.7600300" lon="5.7536470"/>
      <trkpt lat="50.7598850" lon="5.7546150"/>
      <trkpt lat="50.7596650" lon="5.7562460"/>
      <trkpt lat="50.7594890" lon="5.7575930"/>
      <trkpt lat="50.7593110" lon="5.7592310"/>
      <trkpt lat="50.7591520" lon="5.7603010"/>
      <trkpt lat="50.7587530" lon="5.7609190"/>
      <trkpt lat="50.7585630" lon="5.7617740"/>
      <trkpt lat="50.7583140" lon="5.7627180"/>
      <trkpt lat="50.7579920" lon="5.7642020"/>
      <trkpt lat="50.7579280" lon="5.7649240"/>
      <trkpt lat="50.7581200" lon="5.7681080"/>
      <trkpt lat="50.7592500" lon="5.7696410"/>
      <trkpt lat="50.7595420" lon="5.7713040"/>
      <trkpt lat="50.7596410" lon="5.7724520"/>
      <trkpt lat="50.7599840" lon="5.7739440"/>
      <trkpt lat="50.7601510" lon="5.7753910"/>
      <trkpt lat="50.7605190" lon="5.7762270"/>
      <trkpt lat="50.7609390" lon="5.7769630"/>
      <trkpt lat="50.7613600" lon="5.7774560"/>
      <trkpt lat="50.7620580" lon="5.7781150"/>
      <trkpt lat="50.7625580" lon="5.7787500"/>
      <trkpt lat="50.7629690" lon="5.7795590"/>
      <trkpt lat="50.7633290" lon="5.7801210"/>
      <trkpt lat="50.7636080" lon="5.7809210"/>
      <trkpt lat="50.7641790" lon="5.7829000"/>
      <trkpt lat="50.7644850" lon="5.7838810"/>
      <trkpt lat="50.7648600" lon="5.7847720"/>
      <trkpt lat="50.7651810" lon="5.7862130"/>
      <trkpt lat="50.7652480" lon="5.7879560"/>
      <trkpt lat="50.7652740" lon="5.7889350"/>
      <trkpt lat="50.7652960" lon="5.7897550"/>
      <trkpt lat="50.7659240" lon="5.7906610"/>
      <trkpt lat="50.7666560" lon="5.7915070"/>
      <trkpt lat="50.7679560" lon="5.7940120"/>
      <trkpt lat="50.7686230" lon="5.7948080"/>
      <trkpt lat="50.7691280" lon="5.7953430"/>
      <trkpt lat="50.7701570" lon="5.7964220"/>
      <trkpt lat="50.7706130" lon="5.7971670"/>
      <trkpt lat="50.7712150" lon="5.7968480"/>
      <trkpt lat="50.7717300" lon="5.7964200"/>
      <trkpt lat="50.7722090" lon="5.7961120"/>
      <trkpt lat="50.7731740" lon="5.7960860"/>
      <trkpt lat="50.7739210" lon="5.7956880"/>
      <trkpt lat="50.7744110" lon="5.7954590"/>
      <trkpt lat="50.7754150" lon="5.7952400"/>
      <trkpt lat="50.7759290" lon="5.7946710"/>
      <trkpt lat="50.7763020" lon="5.7940870"/>
      <trkpt lat="50.7772480" lon="5.7936790"/>
      <trkpt lat="50.7776880" lon="5.7935250"/>
      <trkpt lat="50.7781810" lon="5.7929810"/>
      <trkpt lat="50.7785930" lon="5.7921140"/>
      <trkpt lat="50.7790990" lon="5.7914860"/>
      <trkpt lat="50.7796820" lon="5.7919960"/>
      <trkpt lat="50.7803740" lon="5.7920740"/>
      <trkpt lat="50.7807970" lon="5.7923510"/>
      <trkpt lat="50.7810260" lon="5.7930830"/>
      <trkpt lat="50.7814550" lon="5.7938130"/>
      <trkpt lat="50.7829910" lon="5.7964470"/>
      <trkpt lat="50.7834640" lon="5.7971810"/>
      <trkpt lat="50.7840920" lon="5.7978760"/>
      <trkpt lat="50.7847270" lon="5.7990990"/>
      <trkpt lat="50.7855720" lon="5.8005680"/>
      <trkpt lat="50.7870220" lon="5.8031970"/>
      <trkpt lat="50.7882240" lon="5.8063470"/>
      <trkpt lat="50.7887430" lon="5.8075350"/>
      <trkpt lat="50.7889140" lon="5.8083930"/>
      <trkpt lat="50.7882700" lon="5.8090200"/>
      <trkpt lat="50.7874970" lon="5.8094290"/>
      <trkpt lat="50.7869700" lon="5.8094810"/>
      <trkpt lat="50.7864940" lon="5.8091480"/>
      <trkpt lat="50.7859480" lon="5.8090340"/>
      <trkpt lat="50.7850640" lon="5.8086720"/>
      <trkpt lat="50.7845470" lon="5.8082110"/>
      <trkpt lat="50.7839830" lon="5.8073790"/>
      <trkpt lat="50.7832870" lon="5.8069070"/>
      <trkpt lat="50.7824550" lon="5.8070110"/>
      <trkpt lat="50.7820530" lon="5.8073990"/>
      <trkpt lat="50.7814380" lon="5.8072980"/>
      <trkpt lat="50.7799860" lon="5.8077410"/>
      <trkpt lat="50.7793590" lon="5.8078670"/>
      <trkpt lat="50.7783300" lon="5.8077770"/>
      <trkpt lat="50.7775430" lon="5.8078990"/>
      <trkpt lat="50.7768680" lon="5.8078990"/>
      <trkpt lat="50.7761770" lon="5.8080710"/>
      <trkpt lat="50.7756990" lon="5.8084520"/>
      <trkpt lat="50.7749970" lon="5.8089090"/>
      <trkpt lat="50.7751070" lon="5.8099770"/>
      <trkpt lat="50.7747530" lon="5.8108100"/>
      <trkpt lat="50.7743360" lon="5.8113310"/>
      <trkpt lat="50.7737550" lon="5.8110410"/>
      <trkpt lat="50.7730090" lon="5.8100710"/>
      <trkpt lat="50.7727850" lon="5.8094530"/>
      <trkpt lat="50.7722750" lon="5.8086600"/>
      <trkpt lat="50.7718270" lon="5.8083600"/>
      <trkpt lat="50.7713780" lon="5.8080710"/>
      <trkpt lat="50.7708570" lon="5.8084750"/>
      <trkpt lat="50.7702060" lon="5.8087170"/>
      <trkpt lat="50.7696390" lon="5.8088220"/>
      <trkpt lat="50.7691770" lon="5.8088310"/>
      <trkpt lat="50.7686840" lon="5.8094170"/>
      <trkpt lat="50.7687400" lon="5.8102580"/>
      <trkpt lat="50.7689090" lon="5.8109470"/>
      <trkpt lat="50.7692000" lon="5.8121070"/>
      <trkpt lat="50.7686960" lon="5.8126250"/>
      <trkpt lat="50.7679820" lon="5.8132120"/>
      <trkpt lat="50.7675490" lon="5.8136360"/>
      <trkpt lat="50.7668990" lon="5.8146960"/>
      <trkpt lat="50.7660650" lon="5.8156040"/>
      <trkpt lat="50.7655380" lon="5.8160430"/>
      <trkpt lat="50.7648700" lon="5.8171920"/>
      <trkpt lat="50.7647190" lon="5.8184210"/>
      <trkpt lat="50.7648780" lon="5.8198250"/>
      <trkpt lat="50.7653100" lon="5.8200960"/>
      <trkpt lat="50.7648120" lon="5.8204450"/>
      <trkpt lat="50.7646360" lon="5.8214500"/>
      <trkpt lat="50.7642550" lon="5.8231370"/>
      <trkpt lat="50.7629710" lon="5.8230750"/>
      <trkpt lat="50.7622890" lon="5.8224320"/>
      <trkpt lat="50.7617820" lon="5.8221430"/>
      <trkpt lat="50.7613200" lon="5.8222120"/>
      <trkpt lat="50.7609750" lon="5.8227980"/>
      <trkpt lat="50.7606240" lon="5.8234480"/>
      <trkpt lat="50.7601940" lon="5.8245160"/>
      <trkpt lat="50.7589410" lon="5.8264450"/>
      <trkpt lat="50.7587070" lon="5.8287430"/>
      <trkpt lat="50.7586030" lon="5.8297420"/>
      <trkpt lat="50.7585390" lon="5.8307610"/>
      <trkpt lat="50.7580640" lon="5.8304770"/>
      <trkpt lat="50.7570270" lon="5.8286290"/>
      <trkpt lat="50.7568900" lon="5.8266610"/>
      <trkpt lat="50.7571900" lon="5.8253190"/>
      <trkpt lat="50.7568980" lon="5.8246390"/>
      <trkpt lat="50.7557550" lon="5.8268270"/>
      <trkpt lat="50.7552650" lon="5.8268360"/>
      <trkpt lat="50.7547380" lon="5.8261660"/>
      <trkpt lat="50.7537470" lon="5.8233650"/>
      <trkpt lat="50.7529100" lon="5.8207910"/>
      <trkpt lat="50.7526710" lon="5.8195090"/>
      <trkpt lat="50.7515600" lon="5.8176280"/>
      <trkpt lat="50.7509870" lon="5.8167600"/>
      <trkpt lat="50.7504040" lon="5.8167040"/>
      <trkpt lat="50.7499180" lon="5.8158110"/>
      <trkpt lat="50.7497310" lon="5.8148050"/>
      <trkpt lat="50.7495320" lon="5.8140060"/>
      <trkpt lat="50.7495050" lon="5.8132280"/>
      <trkpt lat="50.7491240" lon="5.8127770"/>
      <trkpt lat="50.7486240" lon="5.8123290"/>
      <trkpt lat="50.7485820" lon="5.8110850"/>
      <trkpt lat="50.7484040" lon="5.8102450"/>
      <trkpt lat="50.7486790" lon="5.8089370"/>
      <trkpt lat="50.7488060" lon="5.8079690"/>
      <trkpt lat="50.7489330" lon="5.8072060"/>
      <trkpt lat="50.7489510" lon="5.8064870"/>
      <trkpt lat="50.7488080" lon="5.8049990"/>
      <trkpt lat="50.7493430" lon="5.8023090"/>
      <trkpt lat="50.7495760" lon="5.8015540"/>
      <trkpt lat="50.7499190" lon="5.8007490"/>
      <trkpt lat="50.7504490" lon="5.7987860"/>
      <trkpt lat="50.7506640" lon="5.7977430"/>
      <trkpt lat="50.7508050" lon="5.7967880"/>
      <trkpt lat="50.7510890" lon="5.7942280"/>
      <trkpt lat="50.7512110" lon="5.7927880"/>
      <trkpt lat="50.7510180" lon="5.7919070"/>
      <trkpt lat="50.7513450" lon="5.7912750"/>
      <trkpt lat="50.7515340" lon="5.7900280"/>
      <trkpt lat="50.7520710" lon="5.7881310"/>
      <trkpt lat="50.7522490" lon="5.7871640"/>
      <trkpt lat="50.7523830" lon="5.7863200"/>
      <trkpt lat="50.7522400" lon="5.7854210"/>
      <trkpt lat="50.7521430" lon="5.7840510"/>
      <trkpt lat="50.7521850" lon="5.7831130"/>
      <trkpt lat="50.7525040" lon="5.7818160"/>
      <trkpt lat="50.7525630" lon="5.7810490"/>
      <trkpt lat="50.7524670" lon="5.7801280"/>
      <trkpt lat="50.7529060" lon="5.7785000"/>
      <trkpt lat="50.7532590" lon="5.7779410"/>
      <trkpt lat="50.7536790" lon="5.7775680"/>
      <trkpt lat="50.7542190" lon="5.7767650"/>
      <trkpt lat="50.7545900" lon="5.7761070"/>
      <trkpt lat="50.7550200" lon="5.7735950"/>
      <trkpt lat="50.7550730" lon="5.7723600"/>
      <trkpt lat="50.7551410" lon="5.7711310"/>
      <trkpt lat="50.7555100" lon="5.7683540"/>
      <trkpt lat="50.7555680" lon="5.7674960"/>
      <trkpt lat="50.7554550" lon="5.7665490"/>
      <trkpt lat="50.7553980" lon="5.7655380"/>
      <trkpt lat="50.7554310" lon="5.7641840"/>
      <trkpt lat="50.7553770" lon="5.7629310"/>
      <trkpt lat="50.7554970" lon="5.7621110"/>
      <trkpt lat="50.7555430" lon="5.7608660"/>
      <trkpt lat="50.7550410" lon="5.7603640"/>
      <trkpt lat="50.7535740" lon="5.7605250"/>
      <trkpt lat="50.7526470" lon="5.7606250"/>
      <trkpt lat="50.7515310" lon="5.7607530"/>
      <trkpt lat="50.7498830" lon="5.7609440"/>
      <trkpt lat="50.7486050" lon="5.7614190"/>
      <trkpt lat="50.7469520" lon="5.7621270"/>
      <trkpt lat="50.7456210" lon="5.7627140"/>
      <trkpt lat="50.7451690" lon="5.7629030"/>
      <trkpt lat="50.7416470" lon="5.7644590"/>
      <trkpt lat="50.7400720" lon="5.7654190"/>
      <trkpt lat="50.7395870" lon="5.7657270"/>
      <trkpt lat="50.7385450" lon="5.7663270"/>
      <trkpt lat="50.7375190" lon="5.7672200"/>
      <trkpt lat="50.7370480" lon="5.7672420"/>
      <trkpt lat="50.7366300" lon="5.7678850"/>
      <trkpt lat="50.7362670" lon="5.7683820"/>
      <trkpt lat="50.7358660" lon="5.7688050"/>
      <trkpt lat="50.7354960" lon="5.7694480"/>
      <trkpt lat="50.7350390" lon="5.7703140"/>
      <trkpt lat="50.7346150" lon="5.7707070"/>
      <trkpt lat="50.7341030" lon="5.7714960"/>
      <trkpt lat="50.7334130" lon="5.7714760"/>
      <trkpt lat="50.7327440" lon="5.7717480"/>
      <trkpt lat="50.7322880" lon="5.7716730"/>
      <trkpt lat="50.7313970" lon="5.7716100"/>
      <trkpt lat="50.7297010" lon="5.7722360"/>
      <trkpt lat="50.7279840" lon="5.7722960"/>
      <trkpt lat="50.7270470" lon="5.7722900"/>
      <trkpt lat="50.7262040" lon="5.7722940"/>
      <trkpt lat="50.7253210" lon="5.7712680"/>
      <trkpt lat="50.7249540" lon="5.7707470"/>
      <trkpt lat="50.7240170" lon="5.7698210"/>
      <trkpt lat="50.7221860" lon="5.7680050"/>
      <trkpt lat="50.7217260" lon="5.7684540"/>
      <trkpt lat="50.7213030" lon="5.7689380"/>
      <trkpt lat="50.7202880" lon="5.7678710"/>
      <trkpt lat="50.7181140" lon="5.7690040"/>
      <trkpt lat="50.7177750" lon="5.7668640"/>
      <trkpt lat="50.7173960" lon="5.7663740"/>
      <trkpt lat="50.7168610" lon="5.7658830"/>
      <trkpt lat="50.7163950" lon="5.7654540"/>
      <trkpt lat="50.7157670" lon="5.7648850"/>
      <trkpt lat="50.7152840" lon="5.7640680"/>
      <trkpt lat="50.7143200" lon="5.7617920"/>
      <trkpt lat="50.7141710" lon="5.7611140"/>
      <trkpt lat="50.7140710" lon="5.7603420"/>
      <trkpt lat="50.7139940" lon="5.7596390"/>
      <trkpt lat="50.7140580" lon="5.7587560"/>
      <trkpt lat="50.7151850" lon="5.7551410"/>
      <trkpt lat="50.7146820" lon="5.7546120"/>
      <trkpt lat="50.7143320" lon="5.7540560"/>
      <trkpt lat="50.7138610" lon="5.7529310"/>
      <trkpt lat="50.7132830" lon="5.7524680"/>
      <trkpt lat="50.7124080" lon="5.7528110"/>
      <trkpt lat="50.7118070" lon="5.7531480"/>
      <trkpt lat="50.7109880" lon="5.7546590"/>
      <trkpt lat="50.7105710" lon="5.7556790"/>
      <trkpt lat="50.7104540" lon="5.7567650"/>
      <trkpt lat="50.7102870" lon="5.7574530"/>
      <trkpt lat="50.7100790" lon="5.7580850"/>
      <trkpt lat="50.7094020" lon="5.7594520"/>
      <trkpt lat="50.7090180" lon="5.7604090"/>
      <trkpt lat="50.7085590" lon="5.7614140"/>
      <trkpt lat="50.7076320" lon="5.7623670"/>
      <trkpt lat="50.7057450" lon="5.7632110"/>
      <trkpt lat="50.7053720" lon="5.7636620"/>
      <trkpt lat="50.7045750" lon="5.7654490"/>
      <trkpt lat="50.7040850" lon="5.7657970"/>
      <trkpt lat="50.7034550" lon="5.7670000"/>
      <trkpt lat="50.7030870" lon="5.7676530"/>
      <trkpt lat="50.7025960" lon="5.7683950"/>
      <trkpt lat="50.7022640" lon="5.7701140"/>
      <trkpt lat="50.7022550" lon="5.7714090"/>
      <trkpt lat="50.7024430" lon="5.7734340"/>
      <trkpt lat="50.7023620" lon="5.7742850"/>
      <trkpt lat="50.7021980" lon="5.7757230"/>
      <trkpt lat="50.7022170" lon="5.7771410"/>
      <trkpt lat="50.7020570" lon="5.7778760"/>
      <trkpt lat="50.7017370" lon="5.7785330"/>
      <trkpt lat="50.7013820" lon="5.7792220"/>
      <trkpt lat="50.7008890" lon="5.7813080"/>
      <trkpt lat="50.7004210" lon="5.7824170"/>
      <trkpt lat="50.6999540" lon="5.7832080"/>
      <trkpt lat="50.6991400" lon="5.7844690"/>
      <trkpt lat="50.6987250" lon="5.7851930"/>
      <trkpt lat="50.6986010" lon="5.7862360"/>
      <trkpt lat="50.6989720" lon="5.7877460"/>
      <trkpt lat="50.6982760" lon="5.7887540"/>
      <trkpt lat="50.6977650" lon="5.7899880"/>
      <trkpt lat="50.6973170" lon="5.7907220"/>
      <trkpt lat="50.6957510" lon="5.7924810"/>
      <trkpt lat="50.6939440" lon="5.7945280"/>
      <trkpt lat="50.6943150" lon="5.7960770"/>
      <trkpt lat="50.6945530" lon="5.7970240"/>
      <trkpt lat="50.6949660" lon="5.7987290"/>
      <trkpt lat="50.6951220" lon="5.7997780"/>
      <trkpt lat="50.6956920" lon="5.8001760"/>
      <trkpt lat="50.6965800" lon="5.7995270"/>
      <trkpt lat="50.6970740" lon="5.7993540"/>
      <trkpt lat="50.6982510" lon="5.8006830"/>
      <trkpt lat="50.6974310" lon="5.8005670"/>
      <trkpt lat="50.6970290" lon="5.8009740"/>
      <trkpt lat="50.6982170" lon="5.8025190"/>
      <trkpt lat="50.6995960" lon="5.8017470"/>
      <trkpt lat="50.6999790" lon="5.8012320"/>
      <trkpt lat="50.7001210" lon="5.8001880"/>
      <trkpt lat="50.7003380" lon="5.7994350"/>
      <trkpt lat="50.7007700" lon="5.7991130"/>
      <trkpt lat="50.7020880" lon="5.7994520"/>
      <trkpt lat="50.7025590" lon="5.7994310"/>
      <trkpt lat="50.7029580" lon="5.7990510"/>
      <trkpt lat="50.7035190" lon="5.7981190"/>
      <trkpt lat="50.7038280" lon="5.7975770"/>
      <trkpt lat="50.7040480" lon="5.7968560"/>
      <trkpt lat="50.7040990" lon="5.7961220"/>
      <trkpt lat="50.7042160" lon="5.7930200"/>
      <trkpt lat="50.7041690" lon="5.7918430"/>
      <trkpt lat="50.7040550" lon="5.7902090"/>
      <trkpt lat="50.7041430" lon="5.7891450"/>
      <trkpt lat="50.7043620" lon="5.7884210"/>
      <trkpt lat="50.7049760" lon="5.7875310"/>
      <trkpt lat="50.7065670" lon="5.7860630"/>
      <trkpt lat="50.7069520" lon="5.7855370"/>
      <trkpt lat="50.7076400" lon="5.7844750"/>
      <trkpt lat="50.7090640" lon="5.7813290"/>
      <trkpt lat="50.7093050" lon="5.7804750"/>
      <trkpt lat="50.7097240" lon="5.7791970"/>
      <trkpt lat="50.7099510" lon="5.7785560"/>
      <trkpt lat="50.7104920" lon="5.7781040"/>
      <trkpt lat="50.7105770" lon="5.7767550"/>
      <trkpt lat="50.7108300" lon="5.7761520"/>
      <trkpt lat="50.7116700" lon="5.7757140"/>
      <trkpt lat="50.7120680" lon="5.7753680"/>
      <trkpt lat="50.7129930" lon="5.7744030"/>
      <trkpt lat="50.7127710" lon="5.7759340"/>
      <trkpt lat="50.7127050" lon="5.7767180"/>
      <trkpt lat="50.7127080" lon="5.7795320"/>
      <trkpt lat="50.7121570" lon="5.7830650"/>
      <trkpt lat="50.7124340" lon="5.7839260"/>
      <trkpt lat="50.7138000" lon="5.7844080"/>
      <trkpt lat="50.7133980" lon="5.7856850"/>
      <trkpt lat="50.7139320" lon="5.7877910"/>
      <trkpt lat="50.7141800" lon="5.7888040"/>
      <trkpt lat="50.7142790" lon="5.7895710"/>
      <trkpt lat="50.7143520" lon="5.7905370"/>
      <trkpt lat="50.7144750" lon="5.7912340"/>
      <trkpt lat="50.7143600" lon="5.7927610"/>
      <trkpt lat="50.7144240" lon="5.7937130"/>
      <trkpt lat="50.7146290" lon="5.7944290"/>
      <trkpt lat="50.7152240" lon="5.7947890"/>
      <trkpt lat="50.7157500" lon="5.7951510"/>
      <trkpt lat="50.7167240" lon="5.7959400"/>
      <trkpt lat="50.7174250" lon="5.7967930"/>
      <trkpt lat="50.7180900" lon="5.7974660"/>
      <trkpt lat="50.7185080" lon="5.7978890"/>
      <trkpt lat="50.7192750" lon="5.7974360"/>
      <trkpt lat="50.7191280" lon="5.7986790"/>
      <trkpt lat="50.7187690" lon="5.7996270"/>
      <trkpt lat="50.7176310" lon="5.8040110"/>
      <trkpt lat="50.7170990" lon="5.8060690"/>
      <trkpt lat="50.7162950" lon="5.8091480"/>
      <trkpt lat="50.7153220" lon="5.8129520"/>
      <trkpt lat="50.7164490" lon="5.8135930"/>
      <trkpt lat="50.7173730" lon="5.8141890"/>
      <trkpt lat="50.7189030" lon="5.8144130"/>
      <trkpt lat="50.7194230" lon="5.8158220"/>
      <trkpt lat="50.7199670" lon="5.8168510"/>
      <trkpt lat="50.7205570" lon="5.8177860"/>
      <trkpt lat="50.7210700" lon="5.8183470"/>
      <trkpt lat="50.7215370" lon="5.8188490"/>
      <trkpt lat="50.7223610" lon="5.8194850"/>
      <trkpt lat="50.7228990" lon="5.8197520"/>
      <trkpt lat="50.7234690" lon="5.8198190"/>
      <trkpt lat="50.7239840" lon="5.8200130"/>
      <trkpt lat="50.7246690" lon="5.8206590"/>
      <trkpt lat="50.7251010" lon="5.8209490"/>
      <trkpt lat="50.7255060" lon="5.8212670"/>
      <trkpt lat="50.7260020" lon="5.8222110"/>
      <trkpt lat="50.7263210" lon="5.8228950"/>
      <trkpt lat="50.7268790" lon="5.8236170"/>
      <trkpt lat="50.7276030" lon="5.8239070"/>
      <trkpt lat="50.7279930" lon="5.8245000"/>
      <trkpt lat="50.7280080" lon="5.8258480"/>
      <trkpt lat="50.7282370" lon="5.8268860"/>
      <trkpt lat="50.7285070" lon="5.8274790"/>
      <trkpt lat="50.7292140" lon="5.8265200"/>
      <trkpt lat="50.7305820" lon="5.8254620"/>
      <trkpt lat="50.7314240" lon="5.8248880"/>
      <trkpt lat="50.7323770" lon="5.8248870"/>
      <trkpt lat="50.7332320" lon="5.8245500"/>
      <trkpt lat="50.7339200" lon="5.8245380"/>
      <trkpt lat="50.7353980" lon="5.8246500"/>
      <trkpt lat="50.7358890" lon="5.8245770"/>
      <trkpt lat="50.7365250" lon="5.8243950"/>
      <trkpt lat="50.7371920" lon="5.8239520"/>
      <trkpt lat="50.7377020" lon="5.8234780"/>
      <trkpt lat="50.7383540" lon="5.8227160"/>
      <trkpt lat="50.7387620" lon="5.8222940"/>
      <trkpt lat="50.7392880" lon="5.8221750"/>
      <trkpt lat="50.7401630" lon="5.8223530"/>
      <trkpt lat="50.7404500" lon="5.8233760"/>
      <trkpt lat="50.7409560" lon="5.8251940"/>
      <trkpt lat="50.7418080" lon="5.8268000"/>
      <trkpt lat="50.7427220" lon="5.8281330"/>
      <trkpt lat="50.7431560" lon="5.8287760"/>
      <trkpt lat="50.7436580" lon="5.8302430"/>
      <trkpt lat="50.7448050" lon="5.8326800"/>
      <trkpt lat="50.7454930" lon="5.8340920"/>
      <trkpt lat="50.7459200" lon="5.8349660"/>
      <trkpt lat="50.7465460" lon="5.8360170"/>
      <trkpt lat="50.7473770" lon="5.8385440"/>
      <trkpt lat="50.7476460" lon="5.8392240"/>
      <trkpt lat="50.7468080" lon="5.8394530"/>
      <trkpt lat="50.7465920" lon="5.8401160"/>
      <trkpt lat="50.7472920" lon="5.8413490"/>
      <trkpt lat="50.7476840" lon="5.8419890"/>
      <trkpt lat="50.7485370" lon="5.8426880"/>
      <trkpt lat="50.7492080" lon="5.8432720"/>
      <trkpt lat="50.7496930" lon="5.8438770"/>
      <trkpt lat="50.7501330" lon="5.8445240"/>
      <trkpt lat="50.7512240" lon="5.8444970"/>
      <trkpt lat="50.7517550" lon="5.8449500"/>
      <trkpt lat="50.7518040" lon="5.8458730"/>
      <trkpt lat="50.7520890" lon="5.8466970"/>
      <trkpt lat="50.7529610" lon="5.8489320"/>
      <trkpt lat="50.7534730" lon="5.8508160"/>
      <trkpt lat="50.7536980" lon="5.8514870"/>
      <trkpt lat="50.7539430" lon="5.8529840"/>
      <trkpt lat="50.7540050" lon="5.8538920"/>
      <trkpt lat="50.7543560" lon="5.8553210"/>
      <trkpt lat="50.7546600" lon="5.8563220"/>
      <trkpt lat="50.7549420" lon="5.8574580"/>
      <trkpt lat="50.7553440" lon="5.8586190"/>
      <trkpt lat="50.7557480" lon="5.8596840"/>
      <trkpt lat="50.7561170" lon="5.8610120"/>
      <trkpt lat="50.7564620" lon="5.8618620"/>
      <trkpt lat="50.7568220" lon="5.8623970"/>
      <trkpt lat="50.7572370" lon="5.8630980"/>
      <trkpt lat="50.7575500" lon="5.8637550"/>
      <trkpt lat="50.7578660" lon="5.8642630"/>
      <trkpt lat="50.7584920" lon="5.8655430"/>
      <trkpt lat="50.7587280" lon="5.8663660"/>
      <trkpt lat="50.7590650" lon="5.8668520"/>
      <trkpt lat="50.7600130" lon="5.8673810"/>
      <trkpt lat="50.7610450" lon="5.8669940"/>
      <trkpt lat="50.7618000" lon="5.8666700"/>
      <trkpt lat="50.7625900" lon="5.8658780"/>
      <trkpt lat="50.7632250" lon="5.8652110"/>
      <trkpt lat="50.7636540" lon="5.8647690"/>
      <trkpt lat="50.7644200" lon="5.8643760"/>
      <trkpt lat="50.7649290" lon="5.8641110"/>
      <trkpt lat="50.7655020" lon="5.8636550"/>
      <trkpt lat="50.7660770" lon="5.8634760"/>
      <trkpt lat="50.7670110" lon="5.8627260"/>
      <trkpt lat="50.7674690" lon="5.8624720"/>
      <trkpt lat="50.7678990" lon="5.8619920"/>
      <trkpt lat="50.7684200" lon="5.8620600"/>
      <trkpt lat="50.7690970" lon="5.8624950"/>
      <trkpt lat="50.7697990" lon="5.8627190"/>
      <trkpt lat="50.7702740" lon="5.8627600"/>
      <trkpt lat="50.7699470" lon="5.8642060"/>
      <trkpt lat="50.7696030" lon="5.8652180"/>
      <trkpt lat="50.7697950" lon="5.8671290"/>
      <trkpt lat="50.7700240" lon="5.8679110"/>
      <trkpt lat="50.7704400" lon="5.8689640"/>
      <trkpt lat="50.7711720" lon="5.8705280"/>
      <trkpt lat="50.7715570" lon="5.8716090"/>
      <trkpt lat="50.7717250" lon="5.8723710"/>
      <trkpt lat="50.7715590" lon="5.8730900"/>
      <trkpt lat="50.7709480" lon="5.8737940"/>
      <trkpt lat="50.7707590" lon="5.8744690"/>
      <trkpt lat="50.7712650" lon="5.8743890"/>
      <trkpt lat="50.7717570" lon="5.8741260"/>
      <trkpt lat="50.7724450" lon="5.8737080"/>
      <trkpt lat="50.7730460" lon="5.8732680"/>
      <trkpt lat="50.7735240" lon="5.8727830"/>
      <trkpt lat="50.7740850" lon="5.8736080"/>
      <trkpt lat="50.7747210" lon="5.8743460"/>
      <trkpt lat="50.7751620" lon="5.8746550"/>
      <trkpt lat="50.7755360" lon="5.8752000"/>
      <trkpt lat="50.7754590" lon="5.8762630"/>
      <trkpt lat="50.7750130" lon="5.8771900"/>
      <trkpt lat="50.7748600" lon="5.8780380"/>
      <trkpt lat="50.7744550" lon="5.8786250"/>
      <trkpt lat="50.7726770" lon="5.8797350"/>
      <trkpt lat="50.7722510" lon="5.8800450"/>
      <trkpt lat="50.7692300" lon="5.8819420"/>
      <trkpt lat="50.7683920" lon="5.8824770"/>
      <trkpt lat="50.7651920" lon="5.8845420"/>
      <trkpt lat="50.7642180" lon="5.8849350"/>
      <trkpt lat="50.7635390" lon="5.8852190"/>
      <trkpt lat="50.7622930" lon="5.8840850"/>
      <trkpt lat="50.7622570" lon="5.8850630"/>
      <trkpt lat="50.7617540" lon="5.8846970"/>
      <trkpt lat="50.7608790" lon="5.8842480"/>
      <trkpt lat="50.7601120" lon="5.8836300"/>
      <trkpt lat="50.7593730" lon="5.8833360"/>
      <trkpt lat="50.7591280" lon="5.8827350"/>
      <trkpt lat="50.7592100" lon="5.8818930"/>
      <trkpt lat="50.7591980" lon="5.8811040"/>
      <trkpt lat="50.7590340" lon="5.8804010"/>
      <trkpt lat="50.7583640" lon="5.8780580"/>
      <trkpt lat="50.7572750" lon="5.8787570"/>
      <trkpt lat="50.7568290" lon="5.8790570"/>
      <trkpt lat="50.7553670" lon="5.8778520"/>
      <trkpt lat="50.7523170" lon="5.8768340"/>
      <trkpt lat="50.7519230" lon="5.8760920"/>
      <trkpt lat="50.7514580" lon="5.8764230"/>
      <trkpt lat="50.7506040" lon="5.8774790"/>
      <trkpt lat="50.7503290" lon="5.8781220"/>
      <trkpt lat="50.7499480" lon="5.8789950"/>
      <trkpt lat="50.7489290" lon="5.8796710"/>
      <trkpt lat="50.7484020" lon="5.8802550"/>
      <trkpt lat="50.7478420" lon="5.8813190"/>
      <trkpt lat="50.7475810" lon="5.8823340"/>
      <trkpt lat="50.7482500" lon="5.8832310"/>
      <trkpt lat="50.7488630" lon="5.8852110"/>
      <trkpt lat="50.7490670" lon="5.8861310"/>
      <trkpt lat="50.7495010" lon="5.8863350"/>
      <trkpt lat="50.7485290" lon="5.8873200"/>
      <trkpt lat="50.7476470" lon="5.8879240"/>
      <trkpt lat="50.7472480" lon="5.8885000"/>
      <trkpt lat="50.7470390" lon="5.8892460"/>
      <trkpt lat="50.7471100" lon="5.8901930"/>
      <trkpt lat="50.7470400" lon="5.8912990"/>
      <trkpt lat="50.7476450" lon="5.8905880"/>
      <trkpt lat="50.7473910" lon="5.8925850"/>
      <trkpt lat="50.7470120" lon="5.8934660"/>
      <trkpt lat="50.7463060" lon="5.8935950"/>
      <trkpt lat="50.7455860" lon="5.8947710"/>
      <trkpt lat="50.7457930" lon="5.8957050"/>
      <trkpt lat="50.7477300" lon="5.8998980"/>
      <trkpt lat="50.7480560" lon="5.9004070"/>
      <trkpt lat="50.7489470" lon="5.9017990"/>
      <trkpt lat="50.7505470" lon="5.9037470"/>
      <trkpt lat="50.7506870" lon="5.9044860"/>
      <trkpt lat="50.7500490" lon="5.9048380"/>
      <trkpt lat="50.7494380" lon="5.9048610"/>
      <trkpt lat="50.7488570" lon="5.9050230"/>
      <trkpt lat="50.7487640" lon="5.9057630"/>
      <trkpt lat="50.7494020" lon="5.9073950"/>
      <trkpt lat="50.7497240" lon="5.9085070"/>
      <trkpt lat="50.7499130" lon="5.9099980"/>
      <trkpt lat="50.7500050" lon="5.9109560"/>
      <trkpt lat="50.7501130" lon="5.9121750"/>
      <trkpt lat="50.7500530" lon="5.9133710"/>
      <trkpt lat="50.7502470" lon="5.9144100"/>
      <trkpt lat="50.7503710" lon="5.9159290"/>
      <trkpt lat="50.7505850" lon="5.9170190"/>
      <trkpt lat="50.7507570" lon="5.9177480"/>
      <trkpt lat="50.7509180" lon="5.9186840"/>
      <trkpt lat="50.7510570" lon="5.9218150"/>
      <trkpt lat="50.7514570" lon="5.9211500"/>
      <trkpt lat="50.7516990" lon="5.9202180"/>
      <trkpt lat="50.7522230" lon="5.9195450"/>
      <trkpt lat="50.7525970" lon="5.9189250"/>
      <trkpt lat="50.7528230" lon="5.9180280"/>
      <trkpt lat="50.7537550" lon="5.9172690"/>
      <trkpt lat="50.7541890" lon="5.9167470"/>
      <trkpt lat="50.7545600" lon="5.9161260"/>
      <trkpt lat="50.7547310" lon="5.9154610"/>
      <trkpt lat="50.7555130" lon="5.9153970"/>
      <trkpt lat="50.7563540" lon="5.9154600"/>
      <trkpt lat="50.7573230" lon="5.9157260"/>
      <trkpt lat="50.7582880" lon="5.9158280"/>
      <trkpt lat="50.7589340" lon="5.9161510"/>
      <trkpt lat="50.7594570" lon="5.9166940"/>
      <trkpt lat="50.7598020" lon="5.9172080"/>
      <trkpt lat="50.7604040" lon="5.9172300"/>
      <trkpt lat="50.7612740" lon="5.9169570"/>
      <trkpt lat="50.7619620" lon="5.9169120"/>
      <trkpt lat="50.7631320" lon="5.9171280"/>
      <trkpt lat="50.7639050" lon="5.9174630"/>
      <trkpt lat="50.7643970" lon="5.9177630"/>
      <trkpt lat="50.7647350" lon="5.9166180"/>
      <trkpt lat="50.7644220" lon="5.9152670"/>
      <trkpt lat="50.7639880" lon="5.9145600"/>
      <trkpt lat="50.7646920" lon="5.9143010"/>
      <trkpt lat="50.7651650" lon="5.9142670"/>
      <trkpt lat="50.7670140" lon="5.9150390"/>
      <trkpt lat="50.7675980" lon="5.9148540"/>
      <trkpt lat="50.7680590" lon="5.9145970"/>
      <trkpt lat="50.7686930" lon="5.9147980"/>
      <trkpt lat="50.7694450" lon="5.9146680"/>
      <trkpt lat="50.7702810" lon="5.9148370"/>
      <trkpt lat="50.7708600" lon="5.9151510"/>
      <trkpt lat="50.7713820" lon="5.9152190"/>
      <trkpt lat="50.7714700" lon="5.9164730"/>
      <trkpt lat="50.7716200" lon="5.9172680"/>
      <trkpt lat="50.7719480" lon="5.9177600"/>
      <trkpt lat="50.7721440" lon="5.9184460"/>
      <trkpt lat="50.7724670" lon="5.9191820"/>
      <trkpt lat="50.7729900" lon="5.9195710"/>
      <trkpt lat="50.7734120" lon="5.9200740"/>
      <trkpt lat="50.7736850" lon="5.9209500"/>
      <trkpt lat="50.7735420" lon="5.9216290"/>
      <trkpt lat="50.7732540" lon="5.9223450"/>
      <trkpt lat="50.7729260" lon="5.9232900"/>
      <trkpt lat="50.7723200" lon="5.9250790"/>
      <trkpt lat="50.7719680" lon="5.9256640"/>
      <trkpt lat="50.7715670" lon="5.9259940"/>
      <trkpt lat="50.7709000" lon="5.9260840"/>
      <trkpt lat="50.7701660" lon="5.9258470"/>
      <trkpt lat="50.7699000" lon="5.9264260"/>
      <trkpt lat="50.7699860" lon="5.9287340"/>
      <trkpt lat="50.7700320" lon="5.9302200"/>
      <trkpt lat="50.7699020" lon="5.9309920"/>
      <trkpt lat="50.7694380" lon="5.9318240"/>
      <trkpt lat="50.7692420" lon="5.9326450"/>
      <trkpt lat="50.7692670" lon="5.9335300"/>
      <trkpt lat="50.7690080" lon="5.9344220"/>
      <trkpt lat="50.7684720" lon="5.9355310"/>
      <trkpt lat="50.7681180" lon="5.9360390"/>
      <trkpt lat="50.7672700" lon="5.9372150"/>
      <trkpt lat="50.7672860" lon="5.9383970"/>
      <trkpt lat="50.7675180" lon="5.9397190"/>
      <trkpt lat="50.7676600" lon="5.9406950"/>
      <trkpt lat="50.7676990" lon="5.9414840"/>
      <trkpt lat="50.7673240" lon="5.9423350"/>
      <trkpt lat="50.7667300" lon="5.9431240"/>
      <trkpt lat="50.7664840" lon="5.9441640"/>
      <trkpt lat="50.7668440" lon="5.9452730"/>
      <trkpt lat="50.7672310" lon="5.9457720"/>
      <trkpt lat="50.7662930" lon="5.9469320"/>
      <trkpt lat="50.7662210" lon="5.9477330"/>
      <trkpt lat="50.7666620" lon="5.9490820"/>
      <trkpt lat="50.7667140" lon="5.9502830"/>
      <trkpt lat="50.7665130" lon="5.9519220"/>
      <trkpt lat="50.7661470" lon="5.9524360"/>
      <trkpt lat="50.7656410" lon="5.9520740"/>
      <trkpt lat="50.7649920" lon="5.9522190"/>
      <trkpt lat="50.7643540" lon="5.9520660"/>
      <trkpt lat="50.7638580" lon="5.9522870"/>
      <trkpt lat="50.7637490" lon="5.9531290"/>
      <trkpt lat="50.7637340" lon="5.9542450"/>
      <trkpt lat="50.7638800" lon="5.9550600"/>
      <trkpt lat="50.7640960" lon="5.9542860"/>
      <trkpt lat="50.7643010" lon="5.9535590"/>
      <trkpt lat="50.7648230" lon="5.9531240"/>
      <trkpt lat="50.7654480" lon="5.9531770"/>
      <trkpt lat="50.7661350" lon="5.9535250"/>
      <trkpt lat="50.7666500" lon="5.9535640"/>
      <trkpt lat="50.7671970" lon="5.9532610"/>
      <trkpt lat="50.7673510" lon="5.9550560"/>
      <trkpt lat="50.7672070" lon="5.9562100"/>
      <trkpt lat="50.7670060" lon="5.9575440"/>
      <trkpt lat="50.7667590" lon="5.9588770"/>
      <trkpt lat="50.7664510" lon="5.9598480"/>
      <trkpt lat="50.7659710" lon="5.9608310"/>
      <trkpt lat="50.7657800" lon="5.9619110"/>
      <trkpt lat="50.7657180" lon="5.9627120"/>
      <trkpt lat="50.7656230" lon="5.9636980"/>
      <trkpt lat="50.7654580" lon="5.9646750"/>
      <trkpt lat="50.7649400" lon="5.9666740"/>
      <trkpt lat="50.7647520" lon="5.9674320"/>
      <trkpt lat="50.7645350" lon="5.9690300"/>
      <trkpt lat="50.7643560" lon="5.9733070"/>
      <trkpt lat="50.7645480" lon="5.9742850"/>
      <trkpt lat="50.7652130" lon="5.9753020"/>
      <trkpt lat="50.7655300" lon="5.9760510"/>
      <trkpt lat="50.7655870" lon="5.9772340"/>
      <trkpt lat="50.7656050" lon="5.9781880"/>
      <trkpt lat="50.7660690" lon="5.9801570"/>
      <trkpt lat="50.7664790" lon="5.9810240"/>
      <trkpt lat="50.7666940" lon="5.9816670"/>
      <trkpt lat="50.7670210" lon="5.9832800"/>
      <trkpt lat="50.7671920" lon="5.9842250"/>
      <trkpt lat="50.7672680" lon="5.9857070"/>
      <trkpt lat="50.7673260" lon="5.9864290"/>
      <trkpt lat="50.7673460" lon="5.9872130"/>
      <trkpt lat="50.7676380" lon="5.9880560"/>
      <trkpt lat="50.7678180" lon="5.9892240"/>
      <trkpt lat="50.7678120" lon="5.9901140"/>
      <trkpt lat="50.7677980" lon="5.9913480"/>
      <trkpt lat="50.7679010" lon="5.9926880"/>
      <trkpt lat="50.7682850" lon="5.9941880"/>
      <trkpt lat="50.7684880" lon="5.9954480"/>
      <trkpt lat="50.7685760" lon="5.9962260"/>
      <trkpt lat="50.7686970" lon="5.9972190"/>
      <trkpt lat="50.7681310" lon="5.9972690"/>
      <trkpt lat="50.7669240" lon="5.9977200"/>
      <trkpt lat="50.7662550" lon="5.9982430"/>
      <trkpt lat="50.7658780" lon="5.9986420"/>
      <trkpt lat="50.7654140" lon="5.9992570"/>
      <trkpt lat="50.7646210" lon="6.0000160"/>
      <trkpt lat="50.7640110" lon="6.0001610"/>
      <trkpt lat="50.7634530" lon="6.0004490"/>
      <trkpt lat="50.7614750" lon="6.0016270"/>
      <trkpt lat="50.7610980" lon="6.0021970"/>
      <trkpt lat="50.7603180" lon="6.0031470"/>
      <trkpt lat="50.7596750" lon="6.0039180"/>
      <trkpt lat="50.7587980" lon="6.0041070"/>
      <trkpt lat="50.7582830" lon="6.0040340"/>
      <trkpt lat="50.7575360" lon="6.0038560"/>
      <trkpt lat="50.7571070" lon="6.0035730"/>
      <trkpt lat="50.7566750" lon="6.0030680"/>
      <trkpt lat="50.7559920" lon="6.0021190"/>
      <trkpt lat="50.7554960" lon="6.0017930"/>
      <trkpt lat="50.7548240" lon="6.0017240"/>
      <trkpt lat="50.7541670" lon="6.0015320"/>
      <trkpt lat="50.7536800" lon="6.0012250"/>
      <trkpt lat="50.7531600" lon="6.0012290"/>
      <trkpt lat="50.7527640" lon="6.0005900"/>
      <trkpt lat="50.7523280" lon="6.0001950"/>
      <trkpt lat="50.7516600" lon="6.0001540"/>
      <trkpt lat="50.7510980" lon="6.0001950"/>
      <trkpt lat="50.7505690" lon="6.0004930"/>
      <trkpt lat="50.7503520" lon="6.0017400"/>
      <trkpt lat="50.7494180" lon="6.0020770"/>
      <trkpt lat="50.7489240" lon="6.0022660"/>
      <trkpt lat="50.7484680" lon="6.0019910"/>
      <trkpt lat="50.7479940" lon="6.0009210"/>
      <trkpt lat="50.7483100" lon="6.0029330"/>
      <trkpt lat="50.7491080" lon="6.0055760"/>
      <trkpt lat="50.7493910" lon="6.0065830"/>
      <trkpt lat="50.7495940" lon="6.0073240"/>
      <trkpt lat="50.7498660" lon="6.0082770"/>
      <trkpt lat="50.7501840" lon="6.0094450"/>
      <trkpt lat="50.7505340" lon="6.0099380"/>
      <trkpt lat="50.7505220" lon="6.0108010"/>
      <trkpt lat="50.7509180" lon="6.0137360"/>
      <trkpt lat="50.7517820" lon="6.0157590"/>
      <trkpt lat="50.7523320" lon="6.0169980"/>
      <trkpt lat="50.7526940" lon="6.0176620"/>
      <trkpt lat="50.7526470" lon="6.0183720"/>
      <trkpt lat="50.7522790" lon="6.0188140"/>
      <trkpt lat="50.7517530" lon="6.0188980"/>
      <trkpt lat="50.7523470" lon="6.0197650"/>
      <trkpt lat="50.7528360" lon="6.0196430"/>
      <trkpt lat="50.7536510" lon="6.0183020"/>
      <trkpt lat="50.7538200" lon="6.0174610"/>
      <trkpt lat="50.7539930" lon="6.0192010"/>
      <trkpt lat="50.7536980" lon="6.0202920"/>
      <trkpt lat="50.7534810" lon="6.0210120"/>
      <trkpt lat="50.7540250" lon="6.0210720"/>
      <trkpt lat="50.7547710" lon="6.0208220"/>
      <trkpt lat="50.7553120" lon="6.0204180"/>
      <trkpt lat="50.7557830" lon="6.0201210"/>
      <trkpt lat="50.7564320" lon="6.0196940"/>
      <trkpt lat="50.7575530" lon="6.0190030"/>
      <trkpt lat="50.7581520" lon="6.0186390"/>
      <trkpt lat="50.7585780" lon="6.0184020"/>
      <trkpt lat="50.7589920" lon="6.0179530"/>
      <trkpt lat="50.7594700" lon="6.0179540"/>
      <trkpt lat="50.7600060" lon="6.0177030"/>
      <trkpt lat="50.7610500" lon="6.0172090"/>
      <trkpt lat="50.7615300" lon="6.0169250"/>
      <trkpt lat="50.7614800" lon="6.0159610"/>
      <trkpt lat="50.7608170" lon="6.0153990"/>
      <trkpt lat="50.7601800" lon="6.0148470"/>
      <trkpt lat="50.7596100" lon="6.0145320"/>
      <trkpt lat="50.7601580" lon="6.0142780"/>
      <trkpt lat="50.7607870" lon="6.0141010"/>
      <trkpt lat="50.7613140" lon="6.0142080"/>
      <trkpt lat="50.7617940" lon="6.0147370"/>
      <trkpt lat="50.7631350" lon="6.0147590"/>
      <trkpt lat="50.7635920" lon="6.0149670"/>
      <trkpt lat="50.7639260" lon="6.0157350"/>
      <trkpt lat="50.7638650" lon="6.0168730"/>
      <trkpt lat="50.7641950" lon="6.0174280"/>
      <trkpt lat="50.7647030" lon="6.0177010"/>
      <trkpt lat="50.7652510" lon="6.0173340"/>
      <trkpt lat="50.7650250" lon="6.0149280"/>
      <trkpt lat="50.7649620" lon="6.0139760"/>
      <trkpt lat="50.7650520" lon="6.0132020"/>
      <trkpt lat="50.7653430" lon="6.0123320"/>
      <trkpt lat="50.7658310" lon="6.0116610"/>
      <trkpt lat="50.7663200" lon="6.0113370"/>
      <trkpt lat="50.7668790" lon="6.0112460"/>
      <trkpt lat="50.7673670" lon="6.0112620"/>
      <trkpt lat="50.7678810" lon="6.0106200"/>
      <trkpt lat="50.7679760" lon="6.0093790"/>
      <trkpt lat="50.7681140" lon="6.0086330"/>
      <trkpt lat="50.7683020" lon="6.0078050"/>
      <trkpt lat="50.7686430" lon="6.0071480"/>
      <trkpt lat="50.7685370" lon="6.0062830"/>
      <trkpt lat="50.7690180" lon="6.0041020"/>
      <trkpt lat="50.7692180" lon="6.0026710"/>
      <trkpt lat="50.7692210" lon="6.0016420"/>
      <trkpt lat="50.7690430" lon="6.0001490"/>
      <trkpt lat="50.7689430" lon="5.9993120"/>
      <trkpt lat="50.7686970" lon="5.9972190"/>
      <trkpt lat="50.7685760" lon="5.9962260"/>
      <trkpt lat="50.7684880" lon="5.9954480"/>
      <trkpt lat="50.7689580" lon="5.9950570"/>
      <trkpt lat="50.7696460" lon="5.9932530"/>
      <trkpt lat="50.7708540" lon="5.9908530"/>
      <trkpt lat="50.7712740" lon="5.9898870"/>
      <trkpt lat="50.7718580" lon="5.9883290"/>
      <trkpt lat="50.7724060" lon="5.9867770"/>
      <trkpt lat="50.7726710" lon="5.9859200"/>
      <trkpt lat="50.7732280" lon="5.9860650"/>
      <trkpt lat="50.7738390" lon="5.9864040"/>
      <trkpt lat="50.7744090" lon="5.9864590"/>
      <trkpt lat="50.7749480" lon="5.9865580"/>
      <trkpt lat="50.7754190" lon="5.9860470"/>
      <trkpt lat="50.7767080" lon="5.9867580"/>
      <trkpt lat="50.7774310" lon="5.9876410"/>
      <trkpt lat="50.7782100" lon="5.9887490"/>
      <trkpt lat="50.7790300" lon="5.9897400"/>
      <trkpt lat="50.7796700" lon="5.9894850"/>
      <trkpt lat="50.7807240" lon="5.9898200"/>
      <trkpt lat="50.7812490" lon="5.9901140"/>
      <trkpt lat="50.7819360" lon="5.9905940"/>
      <trkpt lat="50.7825540" lon="5.9907680"/>
      <trkpt lat="50.7831830" lon="5.9909090"/>
      <trkpt lat="50.7839400" lon="5.9910730"/>
      <trkpt lat="50.7848820" lon="5.9913240"/>
      <trkpt lat="50.7853930" lon="5.9916550"/>
      <trkpt lat="50.7859290" lon="5.9920260"/>
      <trkpt lat="50.7865970" lon="5.9927610"/>
      <trkpt lat="50.7870950" lon="5.9931750"/>
      <trkpt lat="50.7868320" lon="5.9955900"/>
      <trkpt lat="50.7868050" lon="5.9966800"/>
      <trkpt lat="50.7868530" lon="5.9974170"/>
      <trkpt lat="50.7871550" lon="5.9980620"/>
      <trkpt lat="50.7877780" lon="5.9973320"/>
      <trkpt lat="50.7882960" lon="5.9976040"/>
      <trkpt lat="50.7885430" lon="5.9964580"/>
      <trkpt lat="50.7892200" lon="5.9962570"/>
      <trkpt lat="50.7902600" lon="5.9962060"/>
      <trkpt lat="50.7907620" lon="5.9955800"/>
      <trkpt lat="50.7917260" lon="5.9953610"/>
      <trkpt lat="50.7923490" lon="5.9954300"/>
      <trkpt lat="50.7928080" lon="5.9952950"/>
      <trkpt lat="50.7941590" lon="5.9952730"/>
      <trkpt lat="50.7950490" lon="5.9954150"/>
      <trkpt lat="50.7955270" lon="5.9951480"/>
      <trkpt lat="50.7966080" lon="5.9954030"/>
      <trkpt lat="50.7972120" lon="5.9958920"/>
      <trkpt lat="50.7976810" lon="5.9968720"/>
      <trkpt lat="50.7980470" lon="5.9963180"/>
      <trkpt lat="50.7985080" lon="5.9961040"/>
      <trkpt lat="50.7981950" lon="5.9953090"/>
      <trkpt lat="50.7978090" lon="5.9943830"/>
      <trkpt lat="50.7975450" lon="5.9937260"/>
      <trkpt lat="50.7971540" lon="5.9926360"/>
      <trkpt lat="50.7967910" lon="5.9915230"/>
      <trkpt lat="50.7964240" lon="5.9907790"/>
      <trkpt lat="50.7962260" lon="5.9891020"/>
      <trkpt lat="50.7961960" lon="5.9877020"/>
      <trkpt lat="50.7961350" lon="5.9868790"/>
      <trkpt lat="50.7963720" lon="5.9852070"/>
      <trkpt lat="50.7979630" lon="5.9779420"/>
      <trkpt lat="50.7980250" lon="5.9767940"/>
      <trkpt lat="50.7980460" lon="5.9752360"/>
      <trkpt lat="50.7980610" lon="5.9743440"/>
      <trkpt lat="50.7976740" lon="5.9736640"/>
      <trkpt lat="50.7976680" lon="5.9729010"/>
      <trkpt lat="50.7970470" lon="5.9724880"/>
      <trkpt lat="50.7966010" lon="5.9723240"/>
      <trkpt lat="50.7960030" lon="5.9715390"/>
      <trkpt lat="50.7956910" lon="5.9702140"/>
      <trkpt lat="50.7954430" lon="5.9695830"/>
      <trkpt lat="50.7940980" lon="5.9675930"/>
      <trkpt lat="50.7932480" lon="5.9664860"/>
      <trkpt lat="50.7928710" lon="5.9659160"/>
      <trkpt lat="50.7923940" lon="5.9650560"/>
      <trkpt lat="50.7921810" lon="5.9643780"/>
      <trkpt lat="50.7918780" lon="5.9635160"/>
      <trkpt lat="50.7914140" lon="5.9627010"/>
      <trkpt lat="50.7920840" lon="5.9616280"/>
      <trkpt lat="50.7932420" lon="5.9602210"/>
      <trkpt lat="50.7938440" lon="5.9594810"/>
      <trkpt lat="50.7944300" lon="5.9587430"/>
      <trkpt lat="50.7949580" lon="5.9578510"/>
      <trkpt lat="50.7956260" lon="5.9565770"/>
      <trkpt lat="50.7963290" lon="5.9554520"/>
      <trkpt lat="50.7969560" lon="5.9544420"/>
      <trkpt lat="50.7972840" lon="5.9536890"/>
      <trkpt lat="50.7975710" lon="5.9527230"/>
      <trkpt lat="50.7979250" lon="5.9504880"/>
      <trkpt lat="50.7982650" lon="5.9487390"/>
      <trkpt lat="50.7984670" lon="5.9472780"/>
      <trkpt lat="50.7985610" lon="5.9461330"/>
      <trkpt lat="50.7989610" lon="5.9437800"/>
      <trkpt lat="50.7989880" lon="5.9430330"/>
      <trkpt lat="50.7988820" lon="5.9423220"/>
      <trkpt lat="50.7987480" lon="5.9414710"/>
      <trkpt lat="50.7986910" lon="5.9404180"/>
      <trkpt lat="50.7988160" lon="5.9386680"/>
      <trkpt lat="50.7986450" lon="5.9367780"/>
      <trkpt lat="50.7984050" lon="5.9354230"/>
      <trkpt lat="50.7979170" lon="5.9334510"/>
      <trkpt lat="50.7977860" lon="5.9326390"/>
      <trkpt lat="50.7976430" lon="5.9312140"/>
      <trkpt lat="50.7975120" lon="5.9302790"/>
      <trkpt lat="50.7974130" lon="5.9295500"/>
      <trkpt lat="50.7972240" lon="5.9287550"/>
      <trkpt lat="50.7969800" lon="5.9275610"/>
      <trkpt lat="50.7977700" lon="5.9277650"/>
      <trkpt lat="50.7983110" lon="5.9279890"/>
      <trkpt lat="50.7991060" lon="5.9281090"/>
      <trkpt lat="50.7996640" lon="5.9283090"/>
      <trkpt lat="50.8001740" lon="5.9283510"/>
      <trkpt lat="50.8005940" lon="5.9287730"/>
      <trkpt lat="50.8011810" lon="5.9291960"/>
      <trkpt lat="50.8024440" lon="5.9302030"/>
      <trkpt lat="50.8032050" lon="5.9309170"/>
      <trkpt lat="50.8039030" lon="5.9317170"/>
      <trkpt lat="50.8043770" lon="5.9321050"/>
      <trkpt lat="50.8048800" lon="5.9326490"/>
      <trkpt lat="50.8053280" lon="5.9337540"/>
      <trkpt lat="50.8062000" lon="5.9340590"/>
      <trkpt lat="50.8069300" lon="5.9344570"/>
      <trkpt lat="50.8074360" lon="5.9350190"/>
      <trkpt lat="50.8079560" lon="5.9354840"/>
      <trkpt lat="50.8082880" lon="5.9359670"/>
      <trkpt lat="50.8092160" lon="5.9369020"/>
      <trkpt lat="50.8096650" lon="5.9370300"/>
      <trkpt lat="50.8100300" lon="5.9377370"/>
      <trkpt lat="50.8100180" lon="5.9396990"/>
      <trkpt lat="50.8106000" lon="5.9396010"/>
      <trkpt lat="50.8108660" lon="5.9402170"/>
      <trkpt lat="50.8113890" lon="5.9401580"/>
      <trkpt lat="50.8127600" lon="5.9401930"/>
      <trkpt lat="50.8131760" lon="5.9405000"/>
      <trkpt lat="50.8136340" lon="5.9406180"/>
      <trkpt lat="50.8141090" lon="5.9408580"/>
      <trkpt lat="50.8146860" lon="5.9411660"/>
      <trkpt lat="50.8151220" lon="5.9414540"/>
      <trkpt lat="50.8157030" lon="5.9420170"/>
      <trkpt lat="50.8160050" lon="5.9426710"/>
      <trkpt lat="50.8172880" lon="5.9431840"/>
      <trkpt lat="50.8185940" lon="5.9422090"/>
      <trkpt lat="50.8191130" lon="5.9413560"/>
      <trkpt lat="50.8196130" lon="5.9407250"/>
      <trkpt lat="50.8200050" lon="5.9402790"/>
      <trkpt lat="50.8210000" lon="5.9393200"/>
      <trkpt lat="50.8214080" lon="5.9385080"/>
      <trkpt lat="50.8217610" lon="5.9376800"/>
      <trkpt lat="50.8227140" lon="5.9370970"/>
      <trkpt lat="50.8233280" lon="5.9367990"/>
      <trkpt lat="50.8239110" lon="5.9371460"/>
      <trkpt lat="50.8243450" lon="5.9362210"/>
      <trkpt lat="50.8241710" lon="5.9352450"/>
      <trkpt lat="50.8245150" lon="5.9347490"/>
      <trkpt lat="50.8250370" lon="5.9344220"/>
      <trkpt lat="50.8255150" lon="5.9344400"/>
      <trkpt lat="50.8261420" lon="5.9345390"/>
      <trkpt lat="50.8267930" lon="5.9347440"/>
      <trkpt lat="50.8276880" lon="5.9347700"/>
      <trkpt lat="50.8285640" lon="5.9346770"/>
      <trkpt lat="50.8295820" lon="5.9342280"/>
      <trkpt lat="50.8300830" lon="5.9342390"/>
      <trkpt lat="50.8305780" lon="5.9344970"/>
      <trkpt lat="50.8312430" lon="5.9352190"/>
      <trkpt lat="50.8318120" lon="5.9362360"/>
      <trkpt lat="50.8324230" lon="5.9379820"/>
      <trkpt lat="50.8327570" lon="5.9387730"/>
      <trkpt lat="50.8334620" lon="5.9394570"/>
      <trkpt lat="50.8340600" lon="5.9400130"/>
      <trkpt lat="50.8345980" lon="5.9404760"/>
      <trkpt lat="50.8361160" lon="5.9429200"/>
      <trkpt lat="50.8367400" lon="5.9438700"/>
      <trkpt lat="50.8370600" lon="5.9450200"/>
      <trkpt lat="50.8374480" lon="5.9457170"/>
      <trkpt lat="50.8379040" lon="5.9461840"/>
      <trkpt lat="50.8385910" lon="5.9463620"/>
      <trkpt lat="50.8390790" lon="5.9471340"/>
      <trkpt lat="50.8397900" lon="5.9476600"/>
      <trkpt lat="50.8402970" lon="5.9483940"/>
      <trkpt lat="50.8408320" lon="5.9482970"/>
      <trkpt lat="50.8416250" lon="5.9480240"/>
      <trkpt lat="50.8423510" lon="5.9477250"/>
      <trkpt lat="50.8428270" lon="5.9476100"/>
      <trkpt lat="50.8433900" lon="5.9473400"/>
      <trkpt lat="50.8440620" lon="5.9471250"/>
      <trkpt lat="50.8445320" lon="5.9470720"/>
      <trkpt lat="50.8443440" lon="5.9462830"/>
      <trkpt lat="50.8438710" lon="5.9453930"/>
      <trkpt lat="50.8435850" lon="5.9446910"/>
      <trkpt lat="50.8421720" lon="5.9420650"/>
      <trkpt lat="50.8413990" lon="5.9402250"/>
      <trkpt lat="50.8409310" lon="5.9389730"/>
      <trkpt lat="50.8405330" lon="5.9376550"/>
      <trkpt lat="50.8401150" lon="5.9358930"/>
      <trkpt lat="50.8395830" lon="5.9331800"/>
      <trkpt lat="50.8393650" lon="5.9325210"/>
      <trkpt lat="50.8388320" lon="5.9323640"/>
      <trkpt lat="50.8384000" lon="5.9320550"/>
      <trkpt lat="50.8378340" lon="5.9318710"/>
      <trkpt lat="50.8378880" lon="5.9310270"/>
      <trkpt lat="50.8377580" lon="5.9302710"/>
      <trkpt lat="50.8370030" lon="5.9294670"/>
      <trkpt lat="50.8364140" lon="5.9288410"/>
      <trkpt lat="50.8341980" lon="5.9264620"/>
      <trkpt lat="50.8336500" lon="5.9259330"/>
      <trkpt lat="50.8324670" lon="5.9233980"/>
      <trkpt lat="50.8321750" lon="5.9226050"/>
      <trkpt lat="50.8322090" lon="5.9215110"/>
      <trkpt lat="50.8320280" lon="5.9205800"/>
      <trkpt lat="50.8317920" lon="5.9195560"/>
      <trkpt lat="50.8315030" lon="5.9178950"/>
      <trkpt lat="50.8313760" lon="5.9159120"/>
      <trkpt lat="50.8312500" lon="5.9128410"/>
      <trkpt lat="50.8314600" lon="5.9109360"/>
      <trkpt lat="50.8318360" lon="5.9095380"/>
      <trkpt lat="50.8321470" lon="5.9083210"/>
      <trkpt lat="50.8328920" lon="5.9074620"/>
      <trkpt lat="50.8332590" lon="5.9069340"/>
      <trkpt lat="50.8329420" lon="5.9055790"/>
      <trkpt lat="50.8326180" lon="5.9046320"/>
      <trkpt lat="50.8318350" lon="5.9033310"/>
      <trkpt lat="50.8315560" lon="5.9027060"/>
      <trkpt lat="50.8311040" lon="5.9021640"/>
      <trkpt lat="50.8307730" lon="5.9010770"/>
      <trkpt lat="50.8311090" lon="5.9002920"/>
      <trkpt lat="50.8305670" lon="5.9005610"/>
      <trkpt lat="50.8303600" lon="5.8995970"/>
      <trkpt lat="50.8300730" lon="5.8982310"/>
      <trkpt lat="50.8298980" lon="5.8974340"/>
      <trkpt lat="50.8305000" lon="5.8963460"/>
      <trkpt lat="50.8301350" lon="5.8949140"/>
      <trkpt lat="50.8300850" lon="5.8940500"/>
      <trkpt lat="50.8300360" lon="5.8930720"/>
      <trkpt lat="50.8299910" lon="5.8923480"/>
      <trkpt lat="50.8296950" lon="5.8910210"/>
      <trkpt lat="50.8292420" lon="5.8889630"/>
      <trkpt lat="50.8296190" lon="5.8881580"/>
      <trkpt lat="50.8308550" lon="5.8867040"/>
      <trkpt lat="50.8315370" lon="5.8858860"/>
      <trkpt lat="50.8322460" lon="5.8854670"/>
      <trkpt lat="50.8327210" lon="5.8850010"/>
      <trkpt lat="50.8332060" lon="5.8842770"/>
      <trkpt lat="50.8342950" lon="5.8833190"/>
      <trkpt lat="50.8345610" lon="5.8821260"/>
      <trkpt lat="50.8346560" lon="5.8813420"/>
      <trkpt lat="50.8347670" lon="5.8795100"/>
      <trkpt lat="50.8347810" lon="5.8786820"/>
      <trkpt lat="50.8347370" lon="5.8779020"/>
      <trkpt lat="50.8345130" lon="5.8762650"/>
      <trkpt lat="50.8343670" lon="5.8755000"/>
      <trkpt lat="50.8343450" lon="5.8736830"/>
      <trkpt lat="50.8343180" lon="5.8728490"/>
      <trkpt lat="50.8343220" lon="5.8720890"/>
      <trkpt lat="50.8342120" lon="5.8713310"/>
      <trkpt lat="50.8342740" lon="5.8700350"/>
      <trkpt lat="50.8341050" lon="5.8688660"/>
      <trkpt lat="50.8349890" lon="5.8693710"/>
      <trkpt lat="50.8358790" lon="5.8699410"/>
      <trkpt lat="50.8365490" lon="5.8702130"/>
      <trkpt lat="50.8373060" lon="5.8706530"/>
      <trkpt lat="50.8393520" lon="5.8713290"/>
      <trkpt lat="50.8399150" lon="5.8714870"/>
      <trkpt lat="50.8405340" lon="5.8717970"/>
      <trkpt lat="50.8413480" lon="5.8724860"/>
      <trkpt lat="50.8418920" lon="5.8728670"/>
      <trkpt lat="50.8426630" lon="5.8731430"/>
      <trkpt lat="50.8431490" lon="5.8733960"/>
      <trkpt lat="50.8436150" lon="5.8736840"/>
      <trkpt lat="50.8444850" lon="5.8736110"/>
      <trkpt lat="50.8457450" lon="5.8737680"/>
      <trkpt lat="50.8463180" lon="5.8739040"/>
      <trkpt lat="50.8467370" lon="5.8742170"/>
      <trkpt lat="50.8472640" lon="5.8742970"/>
      <trkpt lat="50.8477560" lon="5.8747350"/>
      <trkpt lat="50.8482350" lon="5.8745200"/>
      <trkpt lat="50.8488540" lon="5.8740290"/>
      <trkpt lat="50.8499470" lon="5.8733460"/>
      <trkpt lat="50.8511520" lon="5.8727300"/>
      <trkpt lat="50.8518760" lon="5.8723880"/>
      <trkpt lat="50.8515350" lon="5.8708550"/>
      <trkpt lat="50.8513510" lon="5.8700560"/>
      <trkpt lat="50.8508240" lon="5.8687140"/>
      <trkpt lat="50.8507840" lon="5.8678020"/>
      <trkpt lat="50.8510900" lon="5.8666100"/>
      <trkpt lat="50.8514850" lon="5.8654740"/>
      <trkpt lat="50.8516470" lon="5.8638800"/>
      <trkpt lat="50.8518380" lon="5.8627240"/>
      <trkpt lat="50.8521230" lon="5.8617720"/>
      <trkpt lat="50.8523090" lon="5.8596670"/>
      <trkpt lat="50.8526320" lon="5.8585410"/>
      <trkpt lat="50.8529100" lon="5.8579350"/>
      <trkpt lat="50.8533210" lon="5.8573960"/>
      <trkpt lat="50.8540000" lon="5.8562860"/>
      <trkpt lat="50.8543570" lon="5.8554360"/>
      <trkpt lat="50.8546190" lon="5.8546600"/>
      <trkpt lat="50.8548030" lon="5.8538160"/>
      <trkpt lat="50.8549220" lon="5.8524500"/>
      <trkpt lat="50.8549890" lon="5.8516640"/>
      <trkpt lat="50.8551790" lon="5.8453310"/>
      <trkpt lat="50.8553420" lon="5.8442250"/>
      <trkpt lat="50.8559230" lon="5.8423570"/>
      <trkpt lat="50.8561800" lon="5.8413050"/>
      <trkpt lat="50.8564100" lon="5.8401200"/>
      <trkpt lat="50.8567970" lon="5.8391470"/>
      <trkpt lat="50.8569860" lon="5.8384250"/>
      <trkpt lat="50.8573740" lon="5.8373280"/>
      <trkpt lat="50.8577220" lon="5.8366870"/>
      <trkpt lat="50.8581520" lon="5.8362060"/>
      <trkpt lat="50.8585840" lon="5.8358250"/>
      <trkpt lat="50.8586630" lon="5.8357430"/>
    </trkseg>
  </trk>
</gpx>
