<?xml version="1.0" encoding="UTF-8"?>
<gpx version="1.1" creator="sparki-nav-replay-fixtures" xmlns="http://www.topografix.com/GPX/1/1">
  <trk>
    <name>Bewijsroute</name>
    <trkseg>
      <trkpt lat="52.0000000" lon="5.0000000"></trkpt>
      <trkpt lat="52.0000000" lon="5.0003652"></trkpt>
      <trkpt lat="52.0000000" lon="5.0007304"></trkpt>
      <trkpt lat="52.0000000" lon="5.0010956"></trkpt>
      <trkpt lat="52.0000000" lon="5.0014608"></trkpt>
      <trkpt lat="52.0000000" lon="5.0018259"></trkpt>
      <trkpt lat="52.0000000" lon="5.0021911"></trkpt>
      <trkpt lat="52.0000000" lon="5.0025563"></trkpt>
      <trkpt lat="52.0000000" lon="5.0029215"></trkpt>
      <trkpt lat="52.0000000" lon="5.0032867"></trkpt>
      <trkpt lat="52.0000000" lon="5.0036519"></trkpt>
      <trkpt lat="52.0000000" lon="5.0040171"></trkpt>
      <trkpt lat="52.0000000" lon="5.0043823"></trkpt>
      <trkpt lat="52.0000000" lon="5.0047474"></trkpt>
      <trkpt lat="52.0000000" lon="5.0051126"></trkpt>
      <trkpt lat="52.0000000" lon="5.0054778"></trkpt>
      <trkpt lat="52.0000000" lon="5.0058430"></trkpt>
      <trkpt lat="52.0000000" lon="5.0062082"></trkpt>
      <trkpt lat="52.0000000" lon="5.0065734"></trkpt>
      <trkpt lat="52.0000000" lon="5.0069386"></trkpt>
      <trkpt lat="52.0000000" lon="5.0073038"></trkpt>
      <trkpt lat="52.0000000" lon="5.0076690"></trkpt>
      <trkpt lat="52.0000000" lon="5.0080341"></trkpt>
      <trkpt lat="52.0000000" lon="5.0083993"></trkpt>
      <trkpt lat="52.0000000" lon="5.0087645"></trkpt>
      <trkpt lat="52.0000000" lon="5.0091297"></trkpt>
      <trkpt lat="52.0000000" lon="5.0094949"></trkpt>
      <trkpt lat="52.0000000" lon="5.0098601"></trkpt>
      <trkpt lat="52.0000000" lon="5.0102253"></trkpt>
      <trkpt lat="52.0000000" lon="5.0105905"></trkpt>
      <trkpt lat="52.0000000" lon="5.0109556"></trkpt>
      <trkpt lat="52.0000000" lon="5.0113208"></trkpt>
      <trkpt lat="52.0000000" lon="5.0116860"></trkpt>
      <trkpt lat="52.0007195" lon="5.0116860"></trkpt>
      <trkpt lat="52.0014389" lon="5.0116860"></trkpt>
      <trkpt lat="52.0021584" lon="5.0116860"></trkpt>
      <trkpt lat="52.0028779" lon="5.0116860"></trkpt>
      <trkpt lat="52.0035973" lon="5.0116860"></trkpt>
      <trkpt lat="52.0038517" lon="5.0120992"></trkpt>
      <trkpt lat="52.0041061" lon="5.0125123"></trkpt>
      <trkpt lat="52.0043604" lon="5.0129255"></trkpt>
      <trkpt lat="52.0046148" lon="5.0133387"></trkpt>
      <trkpt lat="52.0048692" lon="5.0137518"></trkpt>
      <trkpt lat="52.0051235" lon="5.0141650"></trkpt>
      <trkpt lat="52.0053779" lon="5.0145782"></trkpt>
      <trkpt lat="52.0056323" lon="5.0149913"></trkpt>
      <trkpt lat="52.0058866" lon="5.0154045"></trkpt>
      <trkpt lat="52.0061410" lon="5.0158177"></trkpt>
      <trkpt lat="52.0063954" lon="5.0162308"></trkpt>
      <trkpt lat="52.0066497" lon="5.0166440"></trkpt>
      <trkpt lat="52.0069041" lon="5.0170571"></trkpt>
      <trkpt lat="52.0071585" lon="5.0174703"></trkpt>
      <trkpt lat="52.0074128" lon="5.0178835"></trkpt>
      <trkpt lat="52.0074128" lon="5.0180295"></trkpt>
      <trkpt lat="52.0074128" lon="5.0181756"></trkpt>
      <trkpt lat="52.0074128" lon="5.0183217"></trkpt>
      <trkpt lat="52.0074128" lon="5.0184678"></trkpt>
      <trkpt lat="52.0074128" lon="5.0186138"></trkpt>
      <trkpt lat="52.0074128" lon="5.0187599"></trkpt>
      <trkpt lat="52.0074128" lon="5.0189060"></trkpt>
      <trkpt lat="52.0074128" lon="5.0190521"></trkpt>
      <trkpt lat="52.0074128" lon="5.0191981"></trkpt>
      <trkpt lat="52.0074128" lon="5.0193442"></trkpt>
      <trkpt lat="52.0074128" lon="5.0194903"></trkpt>
      <trkpt lat="52.0074128" lon="5.0196364"></trkpt>
      <trkpt lat="52.0074128" lon="5.0197824"></trkpt>
      <trkpt lat="52.0074128" lon="5.0199285"></trkpt>
      <trkpt lat="52.0074128" lon="5.0200746"></trkpt>
      <trkpt lat="52.0074128" lon="5.0202207"></trkpt>
      <trkpt lat="52.0074128" lon="5.0203667"></trkpt>
      <trkpt lat="52.0074128" lon="5.0205128"></trkpt>
      <trkpt lat="52.0074128" lon="5.0206589"></trkpt>
      <trkpt lat="52.0074128" lon="5.0208050"></trkpt>
      <trkpt lat="52.0074128" lon="5.0209510"></trkpt>
      <trkpt lat="52.0074128" lon="5.0210971"></trkpt>
      <trkpt lat="52.0074128" lon="5.0212432"></trkpt>
      <trkpt lat="52.0074128" lon="5.0213893"></trkpt>
      <trkpt lat="52.0074128" lon="5.0215354"></trkpt>
      <trkpt lat="52.0074128" lon="5.0216814"></trkpt>
      <trkpt lat="52.0074128" lon="5.0218275"></trkpt>
      <trkpt lat="52.0074128" lon="5.0219736"></trkpt>
      <trkpt lat="52.0074128" lon="5.0221197"></trkpt>
      <trkpt lat="52.0074128" lon="5.0222657"></trkpt>
      <trkpt lat="52.0074128" lon="5.0224118"></trkpt>
      <trkpt lat="52.0074128" lon="5.0225579"></trkpt>
      <trkpt lat="52.0074128" lon="5.0227040"></trkpt>
      <trkpt lat="52.0074128" lon="5.0228500"></trkpt>
      <trkpt lat="52.0074128" lon="5.0229961"></trkpt>
      <trkpt lat="52.0074128" lon="5.0231422"></trkpt>
      <trkpt lat="52.0074128" lon="5.0232883"></trkpt>
      <trkpt lat="52.0074128" lon="5.0234343"></trkpt>
      <trkpt lat="52.0074128" lon="5.0235804"></trkpt>
      <trkpt lat="52.0074128" lon="5.0237265"></trkpt>
      <trkpt lat="52.0074128" lon="5.0238726"></trkpt>
      <trkpt lat="52.0074128" lon="5.0240186"></trkpt>
      <trkpt lat="52.0074128" lon="5.0241647"></trkpt>
      <trkpt lat="52.0074128" lon="5.0243108"></trkpt>
      <trkpt lat="52.0074128" lon="5.0244569"></trkpt>
      <trkpt lat="52.0074128" lon="5.0246029"></trkpt>
      <trkpt lat="52.0074128" lon="5.0247490"></trkpt>
      <trkpt lat="52.0074128" lon="5.0248951"></trkpt>
      <trkpt lat="52.0074128" lon="5.0250412"></trkpt>
      <trkpt lat="52.0074128" lon="5.0251872"></trkpt>
      <trkpt lat="52.0074128" lon="5.0253333"></trkpt>
      <trkpt lat="52.0074128" lon="5.0254794"></trkpt>
      <trkpt lat="52.0074128" lon="5.0256255"></trkpt>
      <trkpt lat="52.0074128" lon="5.0257715"></trkpt>
      <trkpt lat="52.0074128" lon="5.0259176"></trkpt>
      <trkpt lat="52.0074128" lon="5.0260637"></trkpt>
      <trkpt lat="52.0074128" lon="5.0262098"></trkpt>
      <trkpt lat="52.0074128" lon="5.0263558"></trkpt>
      <trkpt lat="52.0074128" lon="5.0265019"></trkpt>
      <trkpt lat="52.0074128" lon="5.0266480"></trkpt>
      <trkpt lat="52.0074128" lon="5.0267941"></trkpt>
      <trkpt lat="52.0074128" lon="5.0269401"></trkpt>
      <trkpt lat="52.0074128" lon="5.0270862"></trkpt>
      <trkpt lat="52.0074128" lon="5.0272323"></trkpt>
      <trkpt lat="52.0074128" lon="5.0273784"></trkpt>
      <trkpt lat="52.0074128" lon="5.0275244"></trkpt>
      <trkpt lat="52.0074128" lon="5.0276705"></trkpt>
      <trkpt lat="52.0074128" lon="5.0278166"></trkpt>
      <trkpt lat="52.0074128" lon="5.0279627"></trkpt>
      <trkpt lat="52.0074128" lon="5.0281087"></trkpt>
      <trkpt lat="52.0066934" lon="5.0281087"></trkpt>
      <trkpt lat="52.0059739" lon="5.0281087"></trkpt>
      <trkpt lat="52.0052545" lon="5.0281087"></trkpt>
      <trkpt lat="52.0045350" lon="5.0281087"></trkpt>
      <trkpt lat="52.0038155" lon="5.0281087"></trkpt>
      <trkpt lat="52.0030961" lon="5.0281087"></trkpt>
      <trkpt lat="52.0029162" lon="5.0281087"></trkpt>
      <trkpt lat="52.0029162" lon="5.0285470"></trkpt>
      <trkpt lat="52.0029162" lon="5.0289852"></trkpt>
      <trkpt lat="52.0029162" lon="5.0294234"></trkpt>
      <trkpt lat="52.0029162" lon="5.0298616"></trkpt>
      <trkpt lat="52.0029162" lon="5.0302999"></trkpt>
      <trkpt lat="52.0029162" lon="5.0307381"></trkpt>
      <trkpt lat="52.0029162" lon="5.0311763"></trkpt>
      <trkpt lat="52.0029162" lon="5.0316145"></trkpt>
      <trkpt lat="52.0029162" lon="5.0320528"></trkpt>
      <trkpt lat="52.0029162" lon="5.0324910"></trkpt>
      <trkpt lat="52.0029162" lon="5.0329292"></trkpt>
      <trkpt lat="52.0029162" lon="5.0333674"></trkpt>
      <trkpt lat="52.0029162" lon="5.0338057"></trkpt>
      <trkpt lat="52.0029162" lon="5.0342439"></trkpt>
      <trkpt lat="52.0029162" lon="5.0346821"></trkpt>
      <trkpt lat="52.0029162" lon="5.0351203"></trkpt>
      <trkpt lat="52.0029162" lon="5.0355586"></trkpt>
      <trkpt lat="52.0029162" lon="5.0359968"></trkpt>
      <trkpt lat="52.0029162" lon="5.0364350"></trkpt>
      <trkpt lat="52.0029162" lon="5.0368733"></trkpt>
      <trkpt lat="52.0029162" lon="5.0373115"></trkpt>
      <trkpt lat="52.0029162" lon="5.0377497"></trkpt>
      <trkpt lat="52.0029162" lon="5.0381879"></trkpt>
      <trkpt lat="52.0029162" lon="5.0386262"></trkpt>
      <trkpt lat="52.0029162" lon="5.0390644"></trkpt>
      <trkpt lat="52.0029162" lon="5.0395026"></trkpt>
      <trkpt lat="52.0029162" lon="5.0399408"></trkpt>
      <trkpt lat="52.0029162" lon="5.0403791"></trkpt>
      <trkpt lat="52.0029162" lon="5.0408173"></trkpt>
      <trkpt lat="52.0029162" lon="5.0412555"></trkpt>
      <trkpt lat="52.0029162" lon="5.0416937"></trkpt>
      <trkpt lat="52.0029162" lon="5.0421320"></trkpt>
      <trkpt lat="52.0029162" lon="5.0425702"></trkpt>
      <trkpt lat="52.0029162" lon="5.0427163"></trkpt>
    </trkseg>
  </trk>
</gpx>
